{"type":"FeatureCollection", "features": [
{"type":"Feature","geometry":null,"properties":{"scalerank":0,"featurecla":"Coastline","min_zoom":2}},
{"type":"Feature","geometry":{"type":"LineString","coordinates":[[24.2383,77.8985],[20.2279,78.4778],[22.0568,77.5012],[23.8412,77.4978],[24.2383,77.8985]]},"properties":{"scalerank":0,"featurecla":"Coastline","min_zoom":1}},
{"type":"Feature","geometry":{"type":"LineString","coordinates":[[18.8411,57.9002],[18.1365,57.5566],[18.7849,57.3611],[18.8411,57.9002]]},"properties":{"scalerank":0,"featurecla":"Coastline","min_zoom":2}},
{"type":"Feature","geometry":{"type":"LineString","coordinates":[[12.0712,55],[12.5712,55.685],[12.2189,56.1187],[10.9789,55.7215],[11.2863,55.2044],[11.7249,55]]},"properties":{"scalerank":0,"featurecla":"Coastline","min_zoom":1}},
{"type":"Feature","geometry":{"type":"LineString","coordinates":[[10.7853,55.1334],[10.6868,55.5576],[9.8606,55.5155],[9.9888,55.1632],[10.7853,55.1334]]},"properties":{"scalerank":0,"featurecla":"Coastline","min_zoom":2}},
{"type":"Feature","geometry":{"type":"LineString","coordinates":[[26.8608,80.16],[20.3594,80.4009],[18.3438,80.0596],[18.725,79.7607],[20.8611,79.3979],[23.9478,79.1943],[25.6412,79.403],[27.1986,79.9066],[26.8608,80.16]]},"properties":{"scalerank":0,"featurecla":"Coastline","min_zoom":0}},
{"type":"Feature","geometry":{"type":"LineString","coordinates":[[20.7248,78.6723],[20.4582,79.1292],[19.0895,79.157],[18.5814,79.5716],[15.8161,79.6818],[13.3836,79.4808],[12.7535,79.7758],[10.8659,79.7966],[11.7738,78.7164],[14.9208,77.6888],[14.3658,77.2345],[16.7005,76.5793],[18.4393,78.025],[19.7688,78.6227],[20.7248,78.6723]]},"properties":{"scalerank":0,"featurecla":"Coastline","min_zoom":0}},
{"type":"Feature","geometry":null,"properties":{"scalerank":0,"featurecla":"Coastline","min_zoom":4}},
{"type":"Feature","geometry":null,"properties":{"scalerank":0,"featurecla":"Coastline","min_zoom":4}},
{"type":"Feature","geometry":null,"properties":{"scalerank":0,"featurecla":"Coastline","min_zoom":2}},
{"type":"Feature","geometry":null,"properties":{"scalerank":0,"featurecla":"Coastline","min_zoom":3}},
{"type":"Feature","geometry":null,"properties":{"scalerank":0,"featurecla":"Coastline","min_zoom":3}},
{"type":"Feature","geometry":null,"properties":{"scalerank":0,"featurecla":"Coastline","min_zoom":3}},
{"type":"Feature","geometry":null,"properties":{"scalerank":0,"featurecla":"Coastline","min_zoom":3}},
{"type":"Feature","geometry":null,"properties":{"scalerank":0,"featurecla":"Coastline","min_zoom":4}},
{"type":"Feature","geometry":null,"properties":{"scalerank":0,"featurecla":"Coastline","min_zoom":3}},
{"type":"Feature","geometry":null,"properties":{"scalerank":0,"featurecla":"Coastline","min_zoom":3}},
{"type":"Feature","geometry":null,"properties":{"scalerank":0,"featurecla":"Coastline","min_zoom":4}},
{"type":"Feature","geometry":null,"properties":{"scalerank":0,"featurecla":"Coastline","min_zoom":4}},
{"type":"Feature","geometry":null,"properties":{"scalerank":0,"featurecla":"Coastline","min_zoom":2}},
{"type":"Feature","geometry":null,"properties":{"scalerank":0,"featurecla":"Coastline","min_zoom":3}},
{"type":"Feature","geometry":null,"properties":{"scalerank":0,"featurecla":"Coastline","min_zoom":4}},
{"type":"Feature","geometry":null,"properties":{"scalerank":0,"featurecla":"Coastline","min_zoom":2}},
{"type":"Feature","geometry":null,"properties":{"scalerank":0,"featurecla":"Coastline","min_zoom":3}},
{"type":"Feature","geometry":{"type":"MultiLineString","coordinates":[[[12.3101,55.0409],[12.229,55]],[[12.5075,55],[12.3101,55.0409]]]},"properties":{"scalerank":0,"featurecla":"Coastline","min_zoom":1}},
{"type":"Feature","geometry":null,"properties":{"scalerank":0,"featurecla":"Coastline","min_zoom":1}},
{"type":"Feature","geometry":{"type":"MultiLineString","coordinates":[[[9.7813,55.069],[9.7848,55]],[[9.9671,55],[9.7813,55.069]]]},"properties":{"scalerank":0,"featurecla":"Coastline","min_zoom":3}},
{"type":"Feature","geometry":{"type":"LineString","coordinates":[[10.884,55],[10.7882,55]]},"properties":{"scalerank":0,"featurecla":"Coastline","min_zoom":3}},
{"type":"Feature","geometry":null,"properties":{"scalerank":0,"featurecla":"Coastline","min_zoom":3}},
{"type":"Feature","geometry":null,"properties":{"scalerank":0,"featurecla":"Coastline","min_zoom":3}},
{"type":"Feature","geometry":{"type":"MultiLineString","coordinates":[[[8.4515,55.0554],[8.3624,55]],[[8.397,55],[8.4515,55.0554]]]},"properties":{"scalerank":0,"featurecla":"Coastline","min_zoom":3}},
{"type":"Feature","geometry":null,"properties":{"scalerank":0,"featurecla":"Coastline","min_zoom":3}},
{"type":"Feature","geometry":null,"properties":{"scalerank":0,"featurecla":"Coastline","min_zoom":3}},
{"type":"Feature","geometry":null,"properties":{"scalerank":0,"featurecla":"Coastline","min_zoom":4}},
{"type":"Feature","geometry":null,"properties":{"scalerank":0,"featurecla":"Coastline","min_zoom":4}},
{"type":"Feature","geometry":null,"properties":{"scalerank":0,"featurecla":"Coastline","min_zoom":4}},
{"type":"Feature","geometry":null,"properties":{"scalerank":0,"featurecla":"Coastline","min_zoom":3}},
{"type":"Feature","geometry":null,"properties":{"scalerank":0,"featurecla":"Coastline","min_zoom":3}},
{"type":"Feature","geometry":null,"properties":{"scalerank":0,"featurecla":"Coastline","min_zoom":4}},
{"type":"Feature","geometry":null,"properties":{"scalerank":0,"featurecla":"Coastline","min_zoom":3}},
{"type":"Feature","geometry":null,"properties":{"scalerank":0,"featurecla":"Coastline","min_zoom":3}},
{"type":"Feature","geometry":null,"properties":{"scalerank":0,"featurecla":"Coastline","min_zoom":3}},
{"type":"Feature","geometry":null,"properties":{"scalerank":0,"featurecla":"Coastline","min_zoom":3}},
{"type":"Feature","geometry":null,"properties":{"scalerank":0,"featurecla":"Coastline","min_zoom":3}},
{"type":"Feature","geometry":null,"properties":{"scalerank":0,"featurecla":"Coastline","min_zoom":2}},
{"type":"Feature","geometry":null,"properties":{"scalerank":0,"featurecla":"Coastline","min_zoom":3}},
{"type":"Feature","geometry":null,"properties":{"scalerank":0,"featurecla":"Coastline","min_zoom":3}},
{"type":"Feature","geometry":null,"properties":{"scalerank":0,"featurecla":"Coastline","min_zoom":3}},
{"type":"Feature","geometry":null,"properties":{"scalerank":0,"featurecla":"Coastline","min_zoom":3}},
{"type":"Feature","geometry":null,"properties":{"scalerank":0,"featurecla":"Coastline","min_zoom":3}},
{"type":"Feature","geometry":null,"properties":{"scalerank":0,"featurecla":"Coastline","min_zoom":3}},
{"type":"Feature","geometry":null,"properties":{"scalerank":0,"featurecla":"Coastline","min_zoom":2}},
{"type":"Feature","geometry":null,"properties":{"scalerank":0,"featurecla":"Coastline","min_zoom":2}},
{"type":"Feature","geometry":{"type":"LineString","coordinates":[[15.0953,68.4414],[16.5192,68.633],[15.8117,69.0242],[15.0953,68.4414]]},"properties":{"scalerank":0,"featurecla":"Coastline","min_zoom":2}},
{"type":"Feature","geometry":null,"properties":{"scalerank":0,"featurecla":"Coastline","min_zoom":2}},
{"type":"Feature","geometry":null,"properties":{"scalerank":0,"featurecla":"Coastline","min_zoom":3}},
{"type":"Feature","geometry":null,"properties":{"scalerank":0,"featurecla":"Coastline","min_zoom":3}},
{"type":"Feature","geometry":null,"properties":{"scalerank":0,"featurecla":"Coastline","min_zoom":4}},
{"type":"Feature","geometry":{"type":"MultiLineString","coordinates":[[[35,64.4658],[34.4064,65.3958],[34.7863,65.8646],[33.5667,66.321],[32.4637,66.9163],[35,66.5518]],[[35,69.2217],[32.3777,69.4791],[32.9417,69.7519],[31.9846,69.9537],[31.4527,69.6896],[29.6014,69.9768],[30.9441,70.2744],[29.1023,70.8607],[27.5971,71.0913],[24.42,70.702],[23.0465,70.1019],[22.6846,70.3748],[21.4004,70.1745],[21.1631,69.8895],[20.0689,69.8834],[18.2932,69.4751],[18.1015,69.1563],[16.6519,68.6258],[16.0646,68.1999],[14.7989,67.8093],[14.755,67.499],[13.1047,66.5394],[12.9761,66.0192],[12.2729,65.5682],[12.1597,65.179],[11.3499,64.9059],[9.708,63.8649],[9.6969,63.6246],[8.3981,63.5351],[8.1006,63.091],[7.0085,62.9577],[5.5333,62.3109],[4.9278,61.7107],[5.0491,60.7075],[5.244,60.5696],[5.1316,59.2265],[5.8452,59.3535],[5.7068,58.5236],[7.0049,58.0242],[8.1661,58.1453],[9.6185,58.946],[10.1794,59.0093],[10.6449,59.3892],[11.1958,59.0783],[11.2716,58.4756],[11.735,57.7177],[12.4215,56.9064],[12.8837,56.6177],[12.5926,56.1376],[13.3214,55.3464],[14.3417,55.5277],[14.215,55.8326],[14.782,56.1619],[15.9967,56.2226],[16.5279,57.0682],[16.652,58.4343],[18.2854,59.1094],[18.9705,59.7572],[18.5575,60.2536],[17.9558,60.5898],[17.251,60.7008],[17.1308,61.5757],[17.4173,61.7407],[17.8956,62.8305],[20.7627,63.8678],[21.465,64.3796],[21.1382,64.8087],[21.5655,65.4081],[23.6914,65.8285],[24.5815,65.7571],[25.3479,65.4792],[25.3727,65.0095],[24.5579,64.801],[23.2487,63.8961],[22.2433,63.4379],[21.1036,62.6229],[21.256,61.9896],[21.606,61.5916],[21.436,60.5964],[22.5759,60.3591],[22.7935,60.0768],[23.7218,59.9657],[27.2419,60.5387],[28.6506,60.611],[29.1473,59.9998],[28.4539,59.8143],[27.8926,59.4142],[25.5093,59.639],[24.3804,59.4727],[23.4944,59.1957],[23.7676,58.3608],[24.5291,58.3542],[24.3016,57.7841],[24.4032,57.325],[23.6478,56.971],[22.5546,57.7243],[21.7287,57.571],[21.0713,56.8237],[21.0619,55.8134],[21.2016,55]],[[20.618,55],[20.5279,55]],[[9.6884,55],[9.5911,55.4932],[10.183,55.8652],[10.5371,57.4485],[9.9623,57.581],[9.5543,57.2325],[8.6186,57.1113],[8.164,56.6069],[8.1321,55.5998],[8.6159,55.4182],[8.656,55]]]},"properties":{"scalerank":0,"featurecla":"Coastline","min_zoom":0}}
]}