{"type":"FeatureCollection", "features": [
{"type":"Feature","geometry":{"type":"Polygon","coordinates":[[[10.2998,72.177],[10.2995,72.1768],[10.1197,72.0848],[9.916,71.97],[9.7691,71.9302],[9.1443,71.7493],[8.5868,71.5819],[8.2741,71.4783],[8.0149,71.3838],[7.6689,71.2431],[7.3822,71.1109],[6.6011,70.7193],[6.3941,70.6076],[6.1365,70.4503],[5.9298,70.3047],[5.6339,70.1591],[5.4464,70.0576],[5.1859,69.9021],[5.0204,69.7904],[4.8897,69.6928],[4.677,69.5101],[4.477,69.4018],[4.2469,69.2624],[4,69.0897],[4,56.299],[5.0333,56.5917],[6.9367,57.175],[7.9833,57.4983],[8.4583,57.6183],[8.8883,57.6967],[9.3833,57.9883],[10.03,58.2614],[10.1464,58.5114],[10.5944,58.7615],[10.2681,58.7757],[10.6403,58.8928],[10.7578,58.9139],[10.8846,58.9481],[10.9179,58.9423],[11.0758,58.9796],[11.1337,59.0476],[11.1276,59.0714],[11.2036,59.0915],[11.2068,59.1168],[11.1325,59.1324],[11.0846,59.1239],[10.975,59.1865],[10.9383,59.138],[10.8064,59.2064],[10.729,59.2697],[10.7639,59.3083],[10.7303,59.3386],[10.6995,59.3179],[10.6632,59.3299],[10.6469,59.3947],[10.604,59.4165],[10.628,59.4835],[10.6808,59.4992],[10.6474,59.5587],[10.6523,59.6169],[10.5867,59.7207],[10.5806,59.7622],[10.6475,59.8476],[10.6932,59.8435],[10.7045,59.7963],[10.7358,59.8027],[10.772,59.8327],[10.7825,59.8687],[10.7305,59.9103],[10.678,59.894],[10.6337,59.9022],[10.54,59.8918],[10.5359,59.8624],[10.4952,59.8561],[10.4971,59.8066],[10.5164,59.7615],[10.5209,59.6904],[10.6032,59.6622],[10.6184,59.5699],[10.5753,59.5443],[10.4949,59.5202],[10.4347,59.5204],[10.4108,59.5373],[10.4404,59.6076],[10.4382,59.6653],[10.3732,59.7135],[10.3351,59.7113],[10.2864,59.7463],[10.2459,59.7317],[10.3042,59.6942],[10.3742,59.6775],[10.4138,59.6031],[10.38,59.5299],[10.336,59.5311],[10.2471,59.5706],[10.2401,59.5506],[10.2801,59.5315],[10.3331,59.4724],[10.3832,59.4386],[10.4413,59.4535],[10.4913,59.4134],[10.4613,59.3699],[10.4967,59.3285],[10.5304,59.3165],[10.5211,59.2939],[10.4785,59.2591],[10.4365,59.1634],[10.3278,59.192],[10.3354,59.168],[10.2899,59.1274],[10.3119,59.0839],[10.2595,59.0855],[10.2118,59.0707],[10.2319,59.0418],[10.2087,59.0228],[10.1352,59.0042],[10.1149,59.0275],[10.0726,59.0148],[10.0321,58.9862],[9.9627,58.9605],[9.9164,58.9696],[9.86,58.9576],[9.8211,58.9717],[9.8566,58.9926],[9.8517,59.011],[9.7478,59.0522],[9.6631,59.0556],[9.6497,59.1028],[9.6153,59.121],[9.5831,59.1051],[9.6283,59.0821],[9.6532,59.0464],[9.6995,59.047],[9.7488,59.0147],[9.6777,58.9718],[9.6255,58.956],[9.6221,58.9336],[9.5783,58.9247],[9.5748,58.8855],[9.5418,58.8707],[9.4794,58.8952],[9.4263,58.8867],[9.4199,58.8633],[9.3268,58.8667],[9.3064,58.8412],[9.3973,58.852],[9.4416,58.8479],[9.4559,58.8241],[9.3518,58.7535],[9.235,58.7389],[9.2313,58.6876],[9.204,58.6654],[9.1558,58.6548],[9.0368,58.6101],[9.0368,58.5944],[8.9696,58.5286],[8.9013,58.5182],[8.8718,58.4925],[8.773,58.4544],[8.7841,58.4369],[8.7042,58.3963],[8.6715,58.3556],[8.6313,58.3335],[8.5853,58.3306],[8.515,58.2612],[8.3712,58.2365],[8.3889,58.2069],[8.3436,58.1904],[8.2873,58.2112],[8.282,58.1768],[8.2278,58.1206],[8.0597,58.1211],[8.0472,58.1497],[8.0821,58.1693],[8.0512,58.1836],[7.9646,58.1152],[7.9754,58.0878],[7.9494,58.0754],[7.8386,58.0644],[7.7502,58.0693],[7.6901,58.0461],[7.6761,58.0201],[7.5946,58.0003],[7.5627,58.0074],[7.5297,57.9734],[7.4973,57.9906],[7.493,58.0158],[7.4524,58.0206],[7.4104,58.0071],[7.3601,58.024],[7.2519,58.0347],[7.1849,58.0506],[7.125,58.0369],[7.1169,58.0141],[7.0553,57.9791],[7.0277,57.9968],[7.0585,58.0553],[6.9888,58.0129],[6.9746,58.0462],[6.9205,58.0709],[6.7015,58.0659],[6.56,58.1088],[6.6196,58.1573],[6.6206,58.1785],[6.6797,58.195],[6.7082,58.2247],[6.6809,58.2582],[6.6445,58.2339],[6.3861,58.2723],[6.3322,58.2908],[6.3299,58.3083],[6.241,58.3223],[6.0517,58.3742],[5.9913,58.4195],[5.8911,58.422],[5.891,58.4546],[5.8441,58.4811],[5.7836,58.4957],[5.7946,58.515],[5.7518,58.5347],[5.6957,58.5364],[5.6678,58.5492],[5.6404,58.5846],[5.5505,58.6575],[5.5524,58.6876],[5.5182,58.7097],[5.4938,58.7553],[5.5409,58.7861],[5.5384,58.8177],[5.5619,58.8455],[5.5908,58.9276],[5.5647,59.0165],[5.5848,59.0368],[5.6863,58.9977],[5.7786,58.9275],[5.8488,58.9308],[5.8618,58.9628],[5.8993,58.965],[5.9784,58.9375],[5.9667,58.9161],[6.001,58.897],[6.1024,58.8941],[6.1015,58.9223],[6.1967,58.9732],[6.2808,58.9995],[6.3607,59.0037],[6.5142,59.0304],[6.5119,59.0415],[6.2365,59.0038],[6.0982,58.9384],[6.0732,58.9036],[6.0266,58.9348],[5.9982,58.9739],[6.0734,59.0007],[6.0291,59.0214],[5.9501,59.0222],[5.8925,59.0667],[5.8893,59.0825],[5.9539,59.1154],[6.0289,59.1147],[6.0504,59.1377],[6.0322,59.1598],[6.0685,59.1803],[6.0869,59.2106],[6.1796,59.2384],[6.1165,59.2904],[6.1346,59.3142],[6.0198,59.3412],[6.0641,59.3866],[6.1235,59.3983],[6.1357,59.4174],[6.2172,59.4398],[6.2541,59.4724],[6.2717,59.5066],[6.4347,59.5389],[6.4205,59.5492],[6.2674,59.5197],[6.2934,59.5597],[6.3281,59.5798],[6.3281,59.6239],[6.2897,59.6174],[6.3061,59.5755],[6.2704,59.5375],[6.2084,59.501],[6.2188,59.4743],[6.1566,59.4261],[6.0208,59.3944],[5.9756,59.3598],[5.9416,59.3615],[5.9142,59.45],[6.0128,59.4455],[6.0542,59.4573],[6.0065,59.4784],[5.9118,59.4735],[5.7619,59.4406],[5.7761,59.425],[5.8428,59.4366],[5.8677,59.394],[5.8965,59.3813],[5.8826,59.341],[5.7998,59.3288],[5.7448,59.3316],[5.7273,59.3145],[5.6396,59.2797],[5.6541,59.3632],[5.6112,59.3612],[5.6135,59.3285],[5.5583,59.275],[5.5154,59.269],[5.4248,59.2868],[5.3996,59.3012],[5.3531,59.2683],[5.3288,59.3327],[5.2973,59.3862],[5.2374,59.4325],[5.2265,59.4825],[5.24,59.5462],[5.2865,59.5646],[5.2895,59.5885],[5.3275,59.6257],[5.4089,59.6515],[5.4615,59.7041],[5.5341,59.7308],[5.5395,59.6823],[5.516,59.6339],[5.5229,59.5857],[5.5006,59.522],[5.5665,59.5585],[5.5524,59.6031],[5.5675,59.6659],[5.6068,59.6851],[5.7927,59.643],[5.7837,59.6836],[5.856,59.7253],[5.9331,59.7452],[5.9847,59.7343],[6.0419,59.7443],[6.0913,59.736],[6.139,59.7826],[6.0197,59.7526],[5.9797,59.764],[5.9556,59.7898],[5.9159,59.793],[5.8807,59.7688],[5.831,59.7869],[5.7814,59.8302],[5.6958,59.8324],[5.6907,59.8539],[5.7397,59.8632],[5.7746,59.8838],[5.7822,59.9248],[5.8392,59.93],[5.9182,59.9559],[5.9668,59.9468],[6.0087,59.9801],[5.9811,59.9942],[6.0441,60.0699],[6.2019,60.1144],[6.1291,60.1426],[6.0823,60.1922],[6.1219,60.2196],[6.1938,60.226],[6.2031,60.2577],[6.2326,60.2606],[6.2438,60.3017],[6.3207,60.3155],[6.353,60.3705],[6.4265,60.3694],[6.4959,60.3837],[6.5112,60.4097],[6.5852,60.4358],[6.67,60.4054],[6.6056,60.3289],[6.6122,60.3099],[6.5641,60.2395],[6.619,60.238],[6.6178,60.2809],[6.6576,60.3255],[6.6856,60.3863],[6.7354,60.4084],[6.7552,60.4339],[6.8447,60.4755],[6.8946,60.4685],[6.9761,60.4824],[7.0591,60.4643],[7.0832,60.4864],[7.0108,60.5027],[6.9579,60.5004],[6.9427,60.5414],[6.8781,60.4847],[6.8396,60.4888],[6.6763,60.43],[6.6297,60.4659],[6.5268,60.4569],[6.4661,60.4349],[6.4055,60.4281],[6.3417,60.3999],[6.2838,60.3924],[6.2547,60.371],[6.2046,60.3696],[6.2216,60.3325],[6.177,60.3208],[6.1953,60.2795],[6.1554,60.2435],[6.0142,60.2677],[6.0053,60.2302],[5.964,60.2127],[5.9327,60.1511],[5.8964,60.135],[5.9134,60.1108],[5.9209,60.0419],[5.8515,59.9901],[5.7786,59.9803],[5.7278,60.0014],[5.7093,60.0386],[5.7381,60.0884],[5.723,60.1852],[5.6496,60.1505],[5.577,60.1571],[5.625,60.2045],[5.6658,60.2305],[5.6322,60.2708],[5.5761,60.2458],[5.5221,60.1921],[5.4841,60.1868],[5.4484,60.1363],[5.3781,60.1522],[5.4033,60.172],[5.3307,60.1865],[5.3373,60.2288],[5.2688,60.2034],[5.2702,60.2418],[5.2091,60.2748],[5.2091,60.3284],[5.1758,60.3444],[5.1697,60.3731],[5.2416,60.3998],[5.3153,60.3849],[5.3225,60.4107],[5.2791,60.4347],[5.2611,60.5057],[5.2987,60.5271],[5.37,60.5091],[5.4484,60.453],[5.5062,60.426],[5.621,60.4292],[5.6392,60.4557],[5.7368,60.4573],[5.7186,60.5375],[5.741,60.6513],[5.734,60.6882],[5.7578,60.7009],[5.6735,60.703],[5.6646,60.7151],[5.6213,60.7162],[5.594,60.6974],[5.5481,60.699],[5.5777,60.6625],[5.5449,60.626],[5.4985,60.6289],[5.4345,60.5957],[5.3655,60.5917],[5.3414,60.5641],[5.2956,60.5429],[5.2034,60.575],[5.1419,60.6069],[5.1043,60.6068],[5.0099,60.6375],[4.9305,60.6861],[4.8894,60.6942],[4.8783,60.7357],[5.0051,60.7247],[5.105,60.6833],[5.1738,60.6926],[5.0541,60.7336],[4.9439,60.7954],[4.9865,60.8189],[5.0385,60.8163],[5.1003,60.7817],[5.1566,60.7769],[5.1935,60.7551],[5.3181,60.7306],[5.3799,60.6852],[5.3921,60.7228],[5.3349,60.7535],[5.2691,60.761],[5.2991,60.8017],[5.3793,60.8238],[5.3507,60.8414],[5.3009,60.8114],[5.2365,60.816],[5.2032,60.8321],[5.1706,60.8111],[5.1336,60.8319],[5.0623,60.8445],[5.0342,60.9248],[5.0042,60.966],[5.0385,60.9809],[5.0246,61.0113],[5.0437,61.0613],[5.0857,61.0723],[5.2778,61.0675],[5.2951,61.05],[5.4059,61.0238],[5.4908,61.0179],[5.4795,61.0487],[5.5126,61.0646],[5.5665,61.0658],[5.6506,61.1035],[5.6899,61.0918],[5.8918,61.1299],[5.985,61.1297],[6.0823,61.1079],[6.1299,61.1177],[6.1915,61.1153],[6.2157,61.1014],[6.2864,61.0995],[6.3417,61.0703],[6.4331,61.0704],[6.5047,61.0841],[6.5416,61.1043],[6.5891,61.0911],[6.6311,61.1736],[6.7048,61.1502],[6.8506,61.1462],[6.8732,61.1331],[6.8812,61.0894],[7.0478,61.0607],[7.0262,61.0875],[7.042,61.1041],[7.1966,61.1159],[7.2477,61.1475],[7.3335,61.1212],[7.3849,61.1225],[7.4578,61.1775],[7.5203,61.1938],[7.6097,61.1926],[7.6266,61.2141],[7.4204,61.2007],[7.3932,61.2072],[7.3783,61.2681],[7.3133,61.3014],[7.3893,61.3282],[7.3921,61.3567],[7.4378,61.3955],[7.4858,61.4092],[7.4975,61.437],[7.4596,61.4427],[7.4395,61.4115],[7.3718,61.3905],[7.3431,61.3685],[7.3478,61.3441],[7.2664,61.3049],[7.2689,61.2872],[7.3301,61.2679],[7.3544,61.1969],[7.3958,61.1829],[7.3308,61.1572],[7.2452,61.1707],[7.196,61.1687],[7.1521,61.1441],[7.0091,61.126],[6.96,61.1147],[6.9112,61.1616],[6.8411,61.186],[6.7122,61.1835],[6.6972,61.1988],[6.599,61.2069],[6.5874,61.2395],[6.5546,61.2429],[6.5286,61.1971],[6.5446,61.1403],[6.4759,61.1299],[6.4753,61.1158],[6.3579,61.1136],[6.2987,61.1363],[6.2697,61.1339],[6.2037,61.1652],[6.0532,61.1462],[5.9776,61.1708],[5.927,61.1619],[5.8013,61.16],[5.7271,61.1678],[5.7246,61.1464],[5.6116,61.1435],[5.5653,61.1156],[5.5046,61.1054],[5.4179,61.073],[5.3458,61.1027],[5.3379,61.1243],[5.2456,61.1042],[5.2255,61.1274],[5.1035,61.1676],[5.0899,61.2002],[5.1289,61.2054],[5.2147,61.19],[5.2627,61.2055],[5.183,61.227],[5.0588,61.2196],[5.0049,61.248],[4.9457,61.2471],[4.9791,61.2847],[5.033,61.2874],[5.0697,61.3026],[5.2231,61.3064],[5.2008,61.347],[5.354,61.3518],[5.3165,61.3733],[5.1745,61.3519],[5.1633,61.3335],[5.0795,61.3221],[5.0239,61.3774],[5.0848,61.4259],[5.0014,61.4054],[4.9766,61.4217],[5.0747,61.4515],[5.2268,61.4584],[5.2323,61.4829],[5.3272,61.4626],[5.3447,61.4786],[5.4425,61.4728],[5.4696,61.4945],[5.3515,61.489],[5.2448,61.4991],[5.1673,61.5243],[5.1821,61.5579],[5.2418,61.5426],[5.3354,61.5521],[5.1963,61.6014],[5.0664,61.5933],[5.007,61.5787],[4.9958,61.599],[5.2015,61.6187],[5.1028,61.6401],[5.0062,61.6283],[4.9671,61.6785],[4.9682,61.7248],[5.0316,61.7585],[5.0956,61.7501],[5.0954,61.7786],[5.1557,61.809],[5.3092,61.8272],[5.2932,61.8698],[5.4307,61.9181],[5.7072,61.8851],[5.738,61.8595],[5.8199,61.8428],[5.9085,61.8595],[6.0358,61.8459],[6.1326,61.7757],[6.1817,61.7837],[6.1287,61.8143],[6.1641,61.8351],[6.2473,61.8466],[6.3383,61.8395],[6.3846,61.817],[6.4768,61.8045],[6.531,61.8099],[6.6077,61.8461],[6.5704,61.883],[6.5369,61.8657],[6.5256,61.835],[6.4307,61.8299],[6.3359,61.8608],[6.2317,61.8621],[6.1374,61.8472],[6.0374,61.8766],[5.8523,61.8748],[5.8069,61.8572],[5.7329,61.8956],[5.8994,61.9029],[5.7903,61.9202],[5.6775,61.9112],[5.5984,61.9239],[5.4578,61.9268],[5.4299,61.9385],[5.3219,61.9096],[5.2223,61.9148],[5.1787,61.8965],[5.1362,61.9301],[5.172,61.9882],[5.2048,61.9717],[5.3172,61.991],[5.3542,62.0375],[5.3124,62.0761],[5.2325,62.1046],[5.1166,62.101],[5.1103,62.1528],[5.0929,62.1859],[5.1593,62.1935],[5.1988,62.2123],[5.2525,62.1792],[5.31,62.1687],[5.3193,62.1202],[5.4872,62.0435],[5.5217,62.073],[5.5916,62.0751],[5.5436,62.1021],[5.4416,62.104],[5.4029,62.1291],[5.4353,62.1753],[5.494,62.1996],[5.5637,62.1679],[5.7268,62.1722],[5.8034,62.1992],[5.882,62.2022],[5.9494,62.1593],[6.0095,62.1406],[6.0337,62.1165],[6.1189,62.0803],[6.135,62.1053],[6.0053,62.1702],[6.0015,62.239],[5.98,62.2697],[6.0852,62.3035],[6.1022,62.3158],[6.2062,62.3438],[6.2225,62.3557],[6.3281,62.377],[6.4257,62.2913],[6.4234,62.2677],[6.4668,62.2527],[6.5043,62.1978],[6.5805,62.1476],[6.4957,62.266],[6.4692,62.2762],[6.4411,62.3333],[6.4039,62.3582],[6.4093,62.3862],[6.4533,62.402],[6.5541,62.3928],[6.6092,62.4314],[6.7245,62.4528],[6.7503,62.4354],[6.8589,62.4335],[6.9162,62.4124],[6.885,62.3786],[6.9309,62.3201],[7,62.2727],[7.1387,62.2796],[7.0776,62.3066],[7.0083,62.3082],[6.9614,62.3315],[6.9411,62.3643],[6.9615,62.3864],[6.9426,62.4272],[6.8753,62.4604],[6.7743,62.4593],[6.7075,62.4747],[6.5371,62.4355],[6.3973,62.4265],[6.3489,62.4322],[6.3533,62.4603],[6.252,62.4564],[6.1834,62.4816],[6.3218,62.4736],[6.375,62.4775],[6.547,62.5167],[6.5527,62.5438],[6.4508,62.5328],[6.2883,62.5428],[6.2578,62.5846],[6.3355,62.6145],[6.3871,62.6062],[6.5722,62.6252],[6.5717,62.5971],[6.6323,62.5908],[6.6294,62.629],[6.7702,62.6556],[6.8843,62.6104],[6.9394,62.6151],[6.9096,62.6466],[7.0357,62.6557],[7.0862,62.6511],[7.1081,62.5833],[7.1333,62.593],[7.1476,62.6287],[7.2188,62.6133],[7.359,62.6077],[7.3784,62.5727],[7.5258,62.5329],[7.6585,62.549],[7.6827,62.5799],[7.5605,62.5547],[7.476,62.5663],[7.4154,62.5983],[7.4017,62.6329],[7.4744,62.6425],[7.4978,62.6614],[7.6214,62.6933],[7.8727,62.7365],[7.9119,62.7321],[7.9927,62.7438],[7.946,62.7703],[7.874,62.7628],[7.5012,62.6871],[7.4513,62.6839],[7.4032,62.7051],[7.4532,62.7705],[7.1843,62.7361],[7.0801,62.7338],[6.9817,62.7242],[6.9904,62.7682],[6.9697,62.78],[7.0106,62.8238],[7.0696,62.8314],[7.1052,62.8139],[7.1847,62.8175],[7.1991,62.8323],[7.1354,62.8513],[7.0082,62.8378],[7.007,62.86],[6.9589,62.8993],[6.9462,62.9335],[7.0745,62.9682],[7.1038,62.9899],[7.3031,63.0111],[7.3161,62.9802],[7.4162,62.9586],[7.486,62.9075],[7.5385,62.9123],[7.6868,62.9692],[7.7932,62.9597],[7.7449,62.9402],[7.7533,62.9205],[7.8389,62.9511],[7.9728,62.9733],[8.0371,62.9675],[8.0758,62.9371],[8.12,62.9212],[8.0923,62.8893],[8.142,62.8204],[8.1758,62.8025],[8.2642,62.7804],[8.3135,62.7848],[8.3374,62.7648],[8.3884,62.7549],[8.4174,62.7309],[8.5083,62.7172],[8.5194,62.678],[8.556,62.6851],[8.5436,62.7295],[8.3394,62.7895],[8.3023,62.8069],[8.2485,62.8097],[8.1976,62.8268],[8.1505,62.8908],[8.1673,62.9011],[8.137,62.9472],[8.0002,62.9999],[7.9032,62.9892],[7.8863,63.0253],[7.9793,63.0492],[7.9809,63.0894],[8.0903,63.111],[8.1284,63.0914],[8.134,63.0346],[8.258,62.9968],[8.3343,62.965],[8.2934,62.9334],[8.3666,62.8869],[8.4556,62.8471],[8.5215,62.8451],[8.542,62.8792],[8.4747,62.9019],[8.4221,62.948],[8.4832,62.9611],[8.5309,62.9568],[8.6534,62.9741],[8.6519,62.9911],[8.5731,62.9866],[8.5114,62.9684],[8.4501,62.9881],[8.3662,62.9698],[8.3071,63.0086],[8.2211,63.0293],[8.234,63.0674],[8.1798,63.088],[8.1596,63.1239],[8.2773,63.1495],[8.3303,63.1507],[8.3717,63.1331],[8.4231,63.1404],[8.5637,63.1344],[8.5723,63.1676],[8.6278,63.189],[8.5515,63.2536],[8.536,63.3],[8.6309,63.32],[8.7476,63.336],[8.652,63.3909],[8.6593,63.4103],[8.768,63.4272],[8.8717,63.4293],[8.8872,63.4139],[8.9848,63.423],[8.9829,63.4413],[9.0869,63.4412],[9.1321,63.4216],[9.1535,63.3766],[9.1208,63.349],[9.1919,63.335],[9.2458,63.3396],[9.2502,63.3679],[9.1959,63.3946],[9.1922,63.4304],[9.3044,63.4468],[9.1764,63.4601],[9.1647,63.4833],[9.2188,63.5175],[9.3189,63.5291],[9.3928,63.5596],[9.3907,63.5161],[9.4496,63.541],[9.4594,63.5621],[9.5589,63.5704],[9.5306,63.601],[9.6105,63.6237],[9.6444,63.6216],[9.7479,63.6472],[9.7423,63.6082],[9.7578,63.5854],[9.832,63.5417],[9.8098,63.5157],[9.9053,63.4647],[9.9794,63.4422],[9.9433,63.3737],[9.8708,63.3169],[9.9737,63.3498],[10.0588,63.3435],[10.1685,63.3112],[10.2097,63.324],[10.2065,63.3466],[10.1095,63.3532],[10.0575,63.384],[10.1151,63.4242],[10.2307,63.4539],[10.304,63.4541],[10.381,63.4323],[10.4493,63.4574],[10.5245,63.4315],[10.6426,63.4437],[10.7618,63.4327],[10.8455,63.436],[10.9079,63.4589],[10.9,63.4742],[10.8085,63.4729],[10.7526,63.5101],[10.7742,63.5379],[10.8967,63.5458],[10.8508,63.5749],[10.9026,63.5841],[10.8843,63.607],[10.7752,63.5704],[10.7275,63.5682],[10.6731,63.582],[10.7153,63.6174],[10.7781,63.6368],[10.8449,63.639],[10.8875,63.6728],[10.9533,63.7008],[11.0464,63.7107],[11.1895,63.7115],[11.2093,63.7563],[11.2747,63.7659],[11.2956,63.7537],[11.4481,63.8034],[11.4382,63.8325],[11.3288,63.8366],[11.3033,63.8733],[11.2263,63.8647],[11.1766,63.8451],[11.0946,63.839],[11.078,63.8879],[11.2044,63.919],[11.2113,63.9377],[11.2837,63.9763],[11.3254,63.9685],[11.4288,63.9846],[11.4936,64.005],[11.4413,64.0248],[11.284,64.0367],[11.2073,64.0072],[11.0323,63.9604],[10.8814,63.8822],[10.9725,63.8962],[11.0429,63.8809],[11.0711,63.8423],[11.0173,63.8219],[11.0056,63.7918],[10.9556,63.7454],[10.9253,63.7343],[10.7799,63.7087],[10.6211,63.6704],[10.6059,63.6475],[10.4569,63.5937],[10.4105,63.5688],[10.3661,63.5748],[10.3084,63.5553],[10.2325,63.5557],[10.1263,63.5015],[9.9875,63.4873],[9.9291,63.5077],[9.897,63.5639],[9.8064,63.6274],[9.8437,63.6395],[9.8156,63.6844],[9.924,63.6981],[9.9558,63.7167],[10.006,63.7142],[10.0354,63.7629],[9.9341,63.7539],[9.8485,63.7188],[9.731,63.6986],[9.6791,63.7024],[9.6645,63.6768],[9.575,63.6811],[9.5858,63.7246],[9.6741,63.7413],[9.6044,63.7577],[9.5696,63.7796],[9.6505,63.805],[9.6324,63.8264],[9.7501,63.8639],[9.8183,63.866],[9.9224,63.8978],[9.9399,63.9132],[10.1029,63.9552],[10.0807,63.9679],[9.9569,63.9488],[10.0092,64.0054],[10.07,64.0427],[10.0147,64.0844],[10.0817,64.1044],[10.1393,64.0789],[10.1966,64.1016],[10.1186,64.1251],[10.1706,64.1593],[10.2282,64.1497],[10.2025,64.2032],[10.2867,64.2073],[10.296,64.2473],[10.3323,64.2496],[10.3634,64.284],[10.4473,64.2985],[10.4555,64.3524],[10.5129,64.3559],[10.5261,64.3754],[10.644,64.3528],[10.6229,64.3808],[10.5562,64.403],[10.4825,64.3939],[10.4567,64.4049],[10.5307,64.4396],[10.5856,64.4257],[10.6257,64.4507],[10.7527,64.4934],[10.7772,64.509],[10.8984,64.4967],[10.9486,64.5204],[10.9647,64.5479],[10.9048,64.5797],[10.9696,64.6075],[11.0751,64.5601],[11.0737,64.5238],[11.1161,64.5215],[11.2337,64.4538],[11.3472,64.45],[11.4466,64.4334],[11.4462,64.5078],[11.534,64.5222],[11.4595,64.5507],[11.4368,64.5402],[11.3471,64.5605],[11.376,64.6186],[11.4103,64.6481],[11.3807,64.6695],[11.4367,64.6908],[11.4259,64.7097],[11.5187,64.7287],[11.5708,64.7664],[11.7804,64.775],[11.6404,64.8374],[11.4852,64.808],[11.3934,64.7519],[11.26,64.7298],[11.1946,64.7442],[11.3503,64.7652],[11.3892,64.8033],[11.2871,64.8055],[11.2488,64.8259],[11.2914,64.8501],[11.2801,64.8662],[11.395,64.9171],[11.4644,64.9304],[11.507,64.9509],[11.6559,64.9695],[11.7279,64.9547],[11.7312,64.9869],[11.5948,64.9777],[11.6466,65.0079],[11.7302,65.0045],[11.7589,65.0473],[11.8606,65.1168],[11.909,65.1392],[12.0118,65.167],[12.0306,65.1437],[12.0053,65.1151],[12.054,65.1081],[12.1209,65.1553],[12.1121,65.1845],[12.2013,65.2135],[12.2652,65.1932],[12.3038,65.1615],[12.2437,65.1141],[12.3027,65.1185],[12.3312,65.0821],[12.5157,65.1202],[12.6468,65.1597],[12.7065,65.192],[12.7925,65.2246],[12.859,65.2752],[12.9594,65.313],[12.9431,65.3327],[12.8517,65.2861],[12.754,65.2276],[12.494,65.1341],[12.42,65.1394],[12.3517,65.1585],[12.4022,65.1889],[12.4558,65.1838],[12.446,65.2221],[12.3852,65.2474],[12.3109,65.2578],[12.356,65.3039],[12.3369,65.3236],[12.2278,65.3182],[12.2713,65.2909],[12.2114,65.2475],[12.1003,65.2148],[12.0941,65.2358],[12.1427,65.3042],[12.085,65.3046],[12.1598,65.3888],[12.2037,65.418],[12.3438,65.4604],[12.3087,65.4709],[12.1974,65.4606],[12.255,65.5357],[12.2296,65.554],[12.2914,65.5885],[12.3268,65.5738],[12.3258,65.5395],[12.3883,65.5176],[12.4849,65.4609],[12.6132,65.4327],[12.6448,65.4478],[12.5834,65.4797],[12.5639,65.5036],[12.4954,65.5088],[12.4045,65.5367],[12.3484,65.6278],[12.4052,65.6784],[12.4952,65.7351],[12.5819,65.7667],[12.6091,65.8006],[12.598,65.8252],[12.6358,65.8591],[12.6448,65.9007],[12.6818,65.9293],[12.8421,65.9759],[12.9217,65.9413],[13.0309,65.9249],[13.0705,65.891],[13.171,65.9097],[12.9945,65.9484],[12.8999,65.9859],[12.9459,66.0011],[12.9542,66.0487],[12.8281,66.0542],[12.7337,66.0518],[12.6728,66.0662],[12.8313,66.129],[13.0741,66.1578],[13.2312,66.1859],[13.2526,66.2061],[13.3226,66.227],[13.3942,66.2193],[13.5786,66.2356],[13.5995,66.2253],[13.7726,66.246],[13.8562,66.2283],[13.9278,66.2362],[14.1128,66.3061],[13.9361,66.3025],[13.8703,66.2761],[13.7646,66.2674],[13.6164,66.2408],[13.557,66.2706],[13.4627,66.2459],[13.3854,66.2376],[13.3176,66.2504],[13.187,66.2009],[13.067,66.1779],[13.0346,66.2022],[13.1919,66.2777],[13.3792,66.3041],[13.4578,66.3011],[13.4068,66.3364],[13.2368,66.3069],[13.1286,66.3031],[13.0075,66.3311],[13.0076,66.3611],[13.0901,66.3794],[13.1581,66.4117],[13.1507,66.4393],[13.1099,66.4621],[13.1012,66.4988],[13.0528,66.4934],[12.9903,66.5165],[13.0724,66.5452],[13.1196,66.5432],[13.214,66.5189],[13.2521,66.4801],[13.2151,66.4529],[13.293,66.4513],[13.2754,66.4869],[13.3056,66.503],[13.2607,66.527],[13.3364,66.5408],[13.1875,66.5668],[13.2581,66.625],[13.1844,66.6561],[13.1999,66.6724],[13.3057,66.672],[13.4054,66.6592],[13.4633,66.6761],[13.3723,66.6919],[13.2949,66.6954],[13.2174,66.7259],[13.2752,66.7351],[13.4002,66.7341],[13.5457,66.6997],[13.7064,66.7],[13.6845,66.7162],[13.573,66.7099],[13.5008,66.8051],[13.6417,66.8142],[13.8153,66.7971],[13.8293,66.8095],[13.7206,66.8353],[13.7189,66.8662],[13.6565,66.8833],[13.6308,66.9082],[13.5344,66.9036],[13.5461,66.9551],[13.7402,66.9481],[13.7557,66.9837],[13.8641,66.9836],[13.8747,67.0025],[13.9609,67.0127],[14.0475,67.0001],[14.0188,67.0344],[14.0432,67.0731],[14.1017,67.0585],[14.1239,67.0184],[14.1863,66.9949],[14.2376,66.9977],[14.2692,67.0371],[14.267,67.079],[14.3162,67.0696],[14.4271,67.0811],[14.4841,67.0585],[14.5586,67.0543],[14.5851,67.0707],[14.448,67.0761],[14.3982,67.096],[14.3443,67.0786],[14.2982,67.1051],[14.3236,67.1647],[14.4368,67.195],[14.554,67.1793],[14.5507,67.1982],[14.4934,67.2085],[14.3626,67.1852],[14.3525,67.2091],[14.4984,67.2389],[14.6014,67.2373],[14.612,67.2224],[14.7139,67.213],[14.8267,67.2412],[14.9084,67.2305],[14.9737,67.2502],[14.9989,67.2348],[15.094,67.2359],[15.1566,67.2094],[15.219,67.2215],[15.3001,67.1921],[15.3848,67.1897],[15.4089,67.162],[15.389,67.1054],[15.4526,67.1193],[15.4521,67.1503],[15.4816,67.184],[15.366,67.2272],[15.3851,67.2567],[15.2544,67.2703],[15.1723,67.2537],[15.0974,67.2816],[15.1417,67.2938],[15.1594,67.3297],[15.037,67.3217],[14.9904,67.2969],[14.8639,67.2973],[14.8528,67.2715],[14.7181,67.2616],[14.7148,67.3036],[14.5909,67.2768],[14.31,67.2639],[14.3953,67.2887],[14.4857,67.3356],[14.6321,67.3854],[14.6335,67.4369],[14.716,67.4524],[14.6514,67.4769],[14.7526,67.5194],[14.8713,67.5511],[14.9308,67.576],[15.0804,67.5934],[15.1543,67.5644],[15.1555,67.5326],[15.1994,67.5314],[15.2191,67.4881],[15.2838,67.5096],[15.408,67.5004],[15.4791,67.4789],[15.475,67.4449],[15.5182,67.431],[15.5488,67.374],[15.6101,67.3886],[15.5168,67.4456],[15.5271,67.4781],[15.5835,67.5169],[15.6744,67.5525],[15.6592,67.5606],[15.5229,67.51],[15.4565,67.5351],[15.4019,67.5293],[15.2917,67.5345],[15.2116,67.5611],[15.2146,67.5998],[15.2402,67.6169],[15.1612,67.6348],[15.2616,67.7178],[15.3149,67.7386],[15.3883,67.7203],[15.4058,67.7482],[15.519,67.7695],[15.4218,67.8151],[15.3106,67.7919],[15.2048,67.7534],[15.2066,67.7381],[15.0609,67.6896],[14.9507,67.6658],[14.8476,67.6557],[14.7656,67.6582],[14.735,67.6758],[14.8948,67.712],[14.8924,67.7362],[15.0179,67.759],[14.962,67.7845],[14.8661,67.7768],[14.8341,67.7968],[14.7695,67.7942],[14.7467,67.8191],[14.8427,67.8565],[14.8735,67.8796],[15.0006,67.9059],[15.1002,67.9079],[15.1331,67.8927],[15.2748,67.886],[15.3279,67.9173],[15.3608,67.9077],[15.4424,67.9295],[15.7354,67.97],[15.783,67.9679],[15.8299,67.9419],[15.8711,67.9405],[15.9571,67.9797],[15.9439,68.026],[15.862,68.0359],[15.7588,68.0321],[15.7056,68.0471],[15.5897,68.0449],[15.5335,68.0607],[15.445,68.0359],[15.4365,68.0105],[15.3866,68.0009],[15.3166,68.0151],[15.277,68.0459],[15.2841,68.0645],[15.3889,68.1329],[15.4751,68.1539],[15.5707,68.1533],[15.6276,68.1413],[15.6201,68.1887],[15.6631,68.188],[15.7249,68.1602],[15.7292,68.1195],[15.6862,68.0866],[15.8451,68.1114],[15.8876,68.1721],[15.9624,68.2228],[15.929,68.26],[15.9609,68.2667],[16.0591,68.2548],[16.0555,68.225],[16.1042,68.218],[16.0366,68.1807],[16.1378,68.1679],[16.1001,68.0913],[16.0662,68.0504],[16.1556,68.0273],[16.2273,67.964],[16.1957,67.909],[16.2683,67.8945],[16.3768,67.8511],[16.4303,67.861],[16.2955,67.8901],[16.2505,67.9141],[16.2843,67.9617],[16.2569,67.9981],[16.1949,68.0168],[16.2583,68.0296],[16.3573,68.0278],[16.4609,68.0047],[16.5067,68.02],[16.4226,68.0371],[16.3656,68.0355],[16.3576,68.0614],[16.4377,68.0907],[16.4646,68.1224],[16.5322,68.0867],[16.5659,68.0958],[16.507,68.1308],[16.4505,68.1304],[16.3692,68.091],[16.282,68.1179],[16.3691,68.1715],[16.477,68.1805],[16.4786,68.2207],[16.355,68.2254],[16.267,68.2087],[16.1931,68.2141],[16.1838,68.2334],[16.2717,68.2351],[16.3246,68.248],[16.2248,68.2786],[16.1444,68.2852],[16.1765,68.3235],[16.2966,68.3215],[16.4514,68.2973],[16.5705,68.2579],[16.6211,68.2793],[16.4516,68.3023],[16.2818,68.3353],[16.2741,68.375],[16.3736,68.3857],[16.4932,68.4105],[16.6402,68.4223],[16.7639,68.4196],[16.8087,68.4006],[16.8861,68.3913],[16.9104,68.3456],[16.9697,68.3593],[17.0267,68.3564],[17.042,68.3837],[17.1365,68.3938],[17.196,68.389],[17.2359,68.3691],[17.2405,68.3119],[17.3371,68.28],[17.2441,68.3932],[17.2963,68.4197],[17.3789,68.4235],[17.3918,68.4453],[17.5365,68.455],[17.713,68.44],[17.6316,68.4754],[17.4742,68.4812],[17.5599,68.5195],[17.4846,68.5283],[17.4235,68.5231],[17.2883,68.4721],[17.2125,68.4592],[17.0439,68.4498],[17.0262,68.4648],[17.1037,68.4844],[17.0672,68.5038],[16.9396,68.5143],[16.9131,68.4856],[16.8597,68.4681],[16.6839,68.4537],[16.6319,68.458],[16.5116,68.4463],[16.531,68.4813],[16.4499,68.5071],[16.4636,68.5376],[16.5542,68.5568],[16.566,68.6091],[16.6178,68.6441],[16.6851,68.6529],[16.7985,68.6862],[16.8971,68.6852],[16.9565,68.7133],[17.0419,68.717],[17.0507,68.6888],[17.0959,68.6846],[17.1155,68.7163],[17.2615,68.7365],[17.2621,68.776],[17.3223,68.7834],[17.4712,68.8319],[17.6099,68.8907],[17.7165,68.9027],[17.7215,68.8744],[17.8471,68.8659],[17.7749,68.9047],[17.6695,68.9305],[17.4577,68.8933],[17.4464,68.9165],[17.4682,68.9541],[17.5481,68.9562],[17.5422,68.9816],[17.4754,68.9899],[17.5517,69.0335],[17.6802,69.0783],[17.6447,69.108],[17.7121,69.1196],[17.7878,69.116],[17.9274,69.1452],[18.0847,69.158],[18.0525,69.1817],[18.0892,69.2266],[18.0072,69.2314],[17.9859,69.2756],[18.0114,69.3102],[18.056,69.319],[18.1108,69.3629],[18.1661,69.3843],[18.1895,69.4593],[18.2707,69.4835],[18.3716,69.456],[18.3548,69.4103],[18.4803,69.3782],[18.4888,69.3409],[18.589,69.3432],[18.5706,69.3188],[18.6141,69.2976],[18.7215,69.3482],[18.6082,69.3794],[18.5973,69.4044],[18.455,69.4557],[18.4806,69.4851],[18.4567,69.5128],[18.8529,69.5547],[18.871,69.5056],[18.9114,69.4502],[18.9979,69.4217],[18.9898,69.3894],[19.1077,69.3463],[19.2932,69.3448],[19.3349,69.3266],[19.3374,69.2937],[19.2358,69.249],[19.2628,69.2245],[19.4181,69.2544],[19.4147,69.3163],[19.3518,69.3651],[19.2718,69.38],[19.1167,69.3749],[19.0736,69.3926],[19.0545,69.4331],[18.9686,69.4636],[18.9933,69.503],[19.0325,69.5198],[18.9654,69.5398],[18.9416,69.5673],[18.9471,69.6264],[19.0683,69.686],[19.0936,69.7336],[19.2747,69.7792],[19.3684,69.7748],[19.5075,69.7974],[19.5649,69.7966],[19.6806,69.8175],[19.7333,69.8045],[19.6785,69.7514],[19.7002,69.7314],[19.6539,69.6609],[19.7394,69.6374],[19.7005,69.5766],[19.6514,69.5485],[19.6328,69.5187],[19.662,69.4748],[19.5578,69.4314],[19.6424,69.4346],[19.6718,69.4633],[19.7327,69.4862],[19.7073,69.5039],[19.7382,69.5264],[19.7171,69.5552],[19.7889,69.6125],[19.8334,69.6226],[19.8011,69.6697],[19.7711,69.6787],[19.7965,69.7136],[19.8477,69.7309],[19.8526,69.7722],[19.9587,69.7821],[20.0393,69.8367],[20.1089,69.8968],[20.2872,69.9775],[20.3315,69.9601],[20.3966,69.8878],[20.302,69.7562],[20.2729,69.6594],[20.352,69.6382],[20.3168,69.5882],[20.2224,69.5762],[20.2448,69.4744],[20.1718,69.46],[20.1412,69.3964],[20.0585,69.3759],[19.9844,69.3354],[19.9031,69.276],[19.9586,69.2765],[20.0257,69.3342],[20.1869,69.3869],[20.2462,69.3789],[20.257,69.4139],[20.3238,69.4584],[20.3573,69.5163],[20.4201,69.5917],[20.5291,69.5673],[20.5358,69.5473],[20.6426,69.5382],[20.5855,69.5805],[20.4834,69.6149],[20.4608,69.6435],[20.5295,69.7089],[20.4864,69.7473],[20.5337,69.7656],[20.65,69.7907],[20.7095,69.7924],[20.7689,69.8173],[20.7923,69.8465],[20.7505,69.8691],[20.8394,69.8966],[20.8752,69.9202],[20.978,69.9336],[20.9088,69.8725],[20.9043,69.831],[20.9718,69.7813],[21.0472,69.7939],[20.9954,69.8244],[21.059,69.838],[21.0412,69.8748],[21.1609,69.8812],[21.1882,69.8955],[21.316,69.8995],[21.1858,69.9356],[21.2429,70.0098],[21.3343,70.021],[21.4451,70.0109],[21.5255,69.9816],[21.5319,69.9565],[21.6001,69.9067],[21.7636,69.8801],[21.8737,69.8245],[21.9281,69.7802],[22.0516,69.7665],[22.0769,69.78],[21.9784,69.8208],[22.0062,69.8614],[21.9083,69.8745],[21.8645,69.9349],[21.8994,69.9585],[21.8741,69.9821],[21.9468,69.9917],[22.0098,70.0134],[21.8399,70.0143],[21.723,70.0523],[21.5927,70.0837],[21.471,70.0951],[21.4056,70.1441],[21.2763,70.1641],[21.1885,70.2182],[21.3004,70.2566],[21.4186,70.2734],[21.4223,70.2312],[21.4716,70.2195],[21.4942,70.2639],[21.4745,70.3002],[21.5151,70.3175],[21.6082,70.2626],[21.6402,70.2605],[21.7611,70.2176],[21.7888,70.2663],[21.8409,70.279],[21.9499,70.3295],[22.0066,70.3256],[22.1496,70.2881],[22.2992,70.2766],[22.2692,70.2491],[22.2714,70.203],[22.2152,70.138],[22.3064,70.1532],[22.3314,70.1875],[22.3439,70.2488],[22.3725,70.2588],[22.6138,70.2228],[22.9606,70.197],[22.9385,70.1616],[22.7967,70.1016],[22.5999,70.0774],[22.4476,70.0809],[22.4952,70.0592],[22.6791,70.0753],[22.8392,70.0974],[22.9764,70.1408],[22.9869,70.1213],[22.9754,70.0439],[23.0356,70.0158],[23.1029,70.0025],[23.1341,69.9664],[23.1257,69.939],[23.2431,69.9659],[23.2906,69.993],[23.4109,69.9675],[23.4738,69.9815],[23.5021,70.0251],[23.364,70.0207],[23.2399,70.0434],[23.1342,70.0845],[23.2499,70.1034],[23.3559,70.1024],[23.3801,70.1175],[23.2075,70.2004],[23.2472,70.2181],[23.3266,70.2274],[23.2505,70.2522],[23.3342,70.2621],[23.3739,70.2808],[23.5348,70.2918],[23.4299,70.3136],[23.4465,70.3318],[23.5795,70.3894],[23.78,70.4527],[23.8031,70.4795],[23.9545,70.5101],[24.0474,70.5123],[24.1045,70.493],[24.2653,70.4802],[24.2502,70.5087],[24.1355,70.5326],[24.1042,70.5543],[24.1599,70.5713],[24.2074,70.6034],[24.2417,70.6591],[24.3132,70.6885],[24.4469,70.684],[24.5635,70.6465],[24.6094,70.6144],[24.692,70.6273],[24.5945,70.6939],[24.5089,70.7284],[24.5039,70.7459],[24.372,70.7484],[24.3698,70.7616],[24.2419,70.778],[24.2605,70.8496],[24.3506,70.8774],[24.4318,70.8457],[24.4354,70.8237],[24.5158,70.8118],[24.5802,70.787],[24.6212,70.8166],[24.5678,70.8245],[24.5568,70.862],[24.6542,70.8871],[24.5506,70.9006],[24.5351,70.9667],[24.622,70.9901],[24.5681,71.0215],[24.7742,70.9879],[24.7645,70.9623],[24.8161,70.9461],[24.8458,70.916],[24.9274,70.9368],[24.9899,70.9765],[25.049,70.9496],[25.0318,70.9313],[24.9129,70.8794],[24.9883,70.8698],[25.1126,70.9323],[25.1948,70.8999],[25.2319,70.8685],[25.2506,70.8207],[25.3274,70.827],[25.3646,70.8499],[25.3941,70.8954],[25.3033,70.9707],[25.3286,70.9803],[25.433,70.9622],[25.5478,70.9142],[25.455,70.8748],[25.5069,70.863],[25.5974,70.9041],[25.6883,70.9104],[25.7245,70.8847],[25.824,70.9019],[25.8817,70.8901],[25.9059,70.8662],[25.7835,70.8292],[25.7562,70.7899],[25.619,70.7742],[25.6315,70.7383],[25.4874,70.6809],[25.408,70.6609],[25.332,70.6114],[25.2498,70.5898],[25.2335,70.5655],[25.1395,70.5372],[25.2185,70.5288],[25.2326,70.4569],[25.1636,70.4217],[25.0929,70.3665],[25.0738,70.3163],[25.1815,70.3278],[25.1758,70.2949],[25.07,70.2602],[24.9469,70.2321],[24.922,70.1918],[24.9592,70.1723],[24.911,70.1487],[24.9144,70.0843],[24.993,70.0747],[24.9843,70.126],[25.0311,70.1533],[25.0861,70.1227],[25.071,70.0957],[25.1396,70.064],[25.2248,70.0911],[25.2859,70.1642],[25.4,70.2212],[25.4091,70.2513],[25.4774,70.2674],[25.5166,70.3116],[25.4601,70.3107],[25.3835,70.328],[25.4338,70.3624],[25.5301,70.3874],[25.6541,70.4712],[25.6677,70.4932],[25.7443,70.5134],[25.8658,70.573],[25.9768,70.6087],[26.0424,70.7226],[26.1112,70.7252],[26.1391,70.7706],[26.2268,70.7895],[26.372,70.8759],[26.5312,70.9421],[26.6766,70.9691],[26.7334,70.9063],[26.6648,70.8631],[26.7179,70.804],[26.6723,70.7781],[26.6841,70.749],[26.6361,70.7276],[26.5076,70.6948],[26.4099,70.682],[26.4259,70.6608],[26.5142,70.6712],[26.6375,70.6495],[26.6142,70.5535],[26.5512,70.5204],[26.582,70.4834],[26.5118,70.4372],[26.5201,70.4035],[26.4957,70.3726],[26.6273,70.3867],[26.5825,70.4032],[26.6383,70.4298],[26.6908,70.4119],[26.8259,70.4955],[26.855,70.4799],[27.0299,70.4809],[27.0249,70.508],[26.9514,70.5459],[27.0131,70.5558],[26.9634,70.589],[27.0504,70.6222],[27.0939,70.6076],[27.2117,70.5968],[27.2354,70.6062],[27.0788,70.6428],[27.121,70.6807],[27.069,70.701],[27.1088,70.7421],[27.258,70.7512],[27.285,70.8327],[27.4562,70.8385],[27.5246,70.867],[27.3478,70.8949],[27.1813,70.8997],[27.115,70.9173],[27.1222,70.9549],[27.187,70.9802],[27.2973,70.9472],[27.303,70.9807],[27.1998,71.0147],[27.2791,71.0448],[27.3478,71.0285],[27.5081,71.0113],[27.4866,71.0631],[27.509,71.0904],[27.6298,71.1268],[27.7551,71.1114],[27.7123,71.0649],[27.842,71.0344],[27.9242,71.056],[27.9807,71.0569],[28.0388,71.0871],[28.1297,71.0839],[28.1873,71.0964],[28.2478,71.0864],[28.2556,71.0433],[28.2008,71.0343],[28.188,71.0093],[28.2474,70.9754],[28.3181,71.0021],[28.3924,71.0045],[28.5446,70.9802],[28.5097,70.9139],[28.3504,70.8263],[28.2241,70.7884],[28.1232,70.7977],[27.9268,70.7946],[27.8326,70.7833],[28.0687,70.7587],[28.1405,70.7333],[28.0175,70.6945],[27.8544,70.6696],[27.8984,70.6369],[28.1222,70.6782],[28.2009,70.7068],[28.2869,70.7186],[28.2995,70.661],[28.2663,70.6307],[28.1746,70.584],[28.0722,70.5536],[27.8945,70.5113],[28.0107,70.4835],[28.1668,70.5122],[28.1843,70.4944],[28.2999,70.5035],[28.3403,70.4883],[28.2693,70.4459],[28.3196,70.4363],[28.3555,70.4879],[28.4108,70.5174],[28.4166,70.5709],[28.4694,70.5986],[28.5254,70.685],[28.5187,70.7308],[28.6572,70.797],[28.727,70.8433],[28.8353,70.8781],[28.9692,70.886],[29.0884,70.8752],[29.1384,70.8494],[29.2068,70.8563],[29.27,70.8315],[29.2645,70.7973],[29.3901,70.7852],[29.3627,70.763],[29.292,70.7491],[29.3494,70.7239],[29.3459,70.6837],[29.4519,70.7024],[29.5745,70.7071],[29.73,70.7364],[29.8027,70.7279],[29.8036,70.6896],[29.7391,70.6272],[29.8257,70.6395],[29.9453,70.7069],[30.0912,70.7065],[30.2032,70.669],[30.2471,70.6428],[30.3349,70.6129],[30.284,70.575],[30.2101,70.5523],[30.0849,70.5503],[30.115,70.5164],[30.2712,70.5288],[30.3509,70.5485],[30.5153,70.5493],[30.619,70.5225],[30.5803,70.5113],[30.7428,70.4676],[30.7201,70.4328],[30.7866,70.4208],[30.8547,70.4432],[30.9674,70.4409],[31.0537,70.3622],[31.04,70.3079],[31.0633,70.2892],[30.8477,70.2589],[30.758,70.2616],[30.7083,70.245],[30.6457,70.25],[30.5222,70.242],[30.4784,70.2142],[30.3654,70.1986],[30.3314,70.1795],[30.3624,70.1386],[30.2969,70.1229],[30.1233,70.0982],[30.0053,70.0678],[29.8772,70.0594],[29.6448,70.0867],[29.4469,70.1001],[29.4116,70.0944],[29.3185,70.1123],[29.1975,70.1141],[29.1166,70.1308],[29.0179,70.1224],[28.913,70.1459],[28.853,70.142],[28.7687,70.1681],[28.7434,70.15],[28.578,70.1123],[28.6927,70.1012],[28.8281,70.1057],[28.8487,70.0726],[28.9066,70.0731],[29.1612,70.0446],[29.18,70.0192],[29.3062,70.0203],[29.4381,70.0076],[29.4926,69.9913],[29.6076,69.9792],[29.6392,69.9503],[29.513,69.9223],[29.4027,69.8856],[29.422,69.8594],[29.5117,69.913],[29.5659,69.9178],[29.7279,69.8971],[29.7589,69.8864],[29.7765,69.836],[29.7593,69.8149],[29.6258,69.759],[29.6505,69.728],[29.7752,69.748],[29.8734,69.7385],[29.962,69.7665],[30.0385,69.7713],[30.0987,69.7564],[30.1981,69.7731],[30.1546,69.8069],[30.1304,69.8521],[30.1855,69.8797],[30.2987,69.8793],[30.4267,69.8138],[30.6265,69.8127],[30.6832,69.7812],[30.744,69.7736],[30.8177,69.7948],[31.1043,69.9793],[31.5054,70.1209],[31.776,70.1977],[32.0731,70.2747],[32.6635,70.7615],[33.2129,71.1926],[33.787,71.6219],[34.3876,72.0495],[35,72.4642],[35,73.7099],[34.4295,73.8413],[34.1705,73.8946],[33.7422,73.9751],[33.2977,74.0496],[32.8963,74.1096],[32.4841,74.1646],[32.0619,74.2145],[31.6929,74.2531],[31.1281,74.3037],[30.8157,74.3276],[29.9381,74.3842],[29.5117,74.4078],[29.0509,74.4277],[27.8033,74.465],[26.4697,74.4966],[25.9821,74.5036],[25.58,74.5047],[24.9772,74.4985],[24.5102,74.4871],[24.1122,74.4729],[23.5206,74.4437],[22.9171,74.4041],[22.346,74.3824],[21.85,74.3567],[21.7851,74.3529],[21.0788,74.3039],[20.5133,74.2538],[20.0828,74.2088],[19.5428,74.1432],[19.1344,74.0864],[18.6813,74.0155],[18.2662,73.9426],[17.8442,73.8599],[16.6083,73.5907],[15.6435,73.4625],[14.6887,73.3292],[14.2652,73.2648],[13.7859,73.182],[13.2016,73.0704],[12.8559,73],[12.4683,72.9126],[12.1431,72.8317],[11.6598,72.6963],[11.2117,72.5516],[10.8361,72.4127],[10.4914,72.2672],[10.2998,72.177]],[[4.6501,61.0219],[4.6398,61.0608],[4.7015,61.0887],[4.7477,61.016],[4.7078,60.9841],[4.6501,61.0219]],[[4.8228,60.6597],[4.8536,60.6269],[4.841,60.6076],[4.8684,60.5644],[4.9309,60.5035],[4.8554,60.5156],[4.8405,60.5435],[4.8038,60.562],[4.8472,60.5788],[4.7909,60.6046],[4.7821,60.6513],[4.8228,60.6597]],[[4.8694,60.8725],[4.7766,60.9356],[4.8401,60.9475],[4.9219,60.8845],[4.8694,60.8725]],[[4.8141,61.0985],[4.8264,61.1385],[4.8622,61.1667],[4.8564,61.1897],[4.8997,61.2174],[4.9994,61.2002],[5.0242,61.1226],[5.0088,61.0977],[4.9514,61.08],[4.9043,61.0991],[4.8744,61.0848],[4.8434,61.045],[4.78,61.0565],[4.7401,61.0402],[4.7255,61.0828],[4.7514,61.1015],[4.8141,61.0985]],[[4.8309,61.6939],[4.885,61.7095],[4.9015,61.6611],[4.8355,61.6693],[4.8309,61.6939]],[[4.8346,61.7789],[4.8011,61.794],[4.8415,61.8126],[4.8833,61.7983],[4.8346,61.7789]],[[4.9326,60.802],[4.9813,60.767],[4.9692,60.7325],[4.9009,60.7559],[4.9049,60.7683],[4.8207,60.7883],[4.9052,60.8155],[4.9326,60.802]],[[4.9972,60.8463],[4.9639,60.8659],[4.9503,60.9415],[5,60.9402],[5.022,60.9105],[5.0375,60.8486],[4.9972,60.8463]],[[5.0125,61.0056],[5.0196,60.9758],[4.9328,60.9726],[4.9269,61.0113],[5.0125,61.0056]],[[4.9028,61.3755],[4.9651,61.3688],[5.0053,61.3814],[5.0304,61.3276],[4.9749,61.3221],[4.8754,61.3485],[4.9028,61.3755]],[[5.1105,59.9832],[5.1005,59.9976],[5.1953,60.0167],[5.2233,59.9877],[5.1426,59.9674],[5.1105,59.9832]],[[5.1603,60.3598],[5.1183,60.266],[5.1468,60.2407],[5.1555,60.1876],[5.0294,60.1628],[5.0511,60.2042],[5.0104,60.2026],[4.9563,60.2555],[4.9514,60.3043],[4.9865,60.3266],[4.9565,60.4188],[5.0004,60.4209],[5.0485,60.4003],[5.0594,60.3763],[5.1351,60.3955],[5.1603,60.3598]],[[5.223,60.4831],[5.2305,60.4397],[5.2506,60.4162],[5.2119,60.3982],[5.1452,60.411],[5.1688,60.4396],[5.0695,60.4415],[5.0858,60.4626],[5.0368,60.5289],[5.093,60.5256],[5.223,60.4831]],[[5.0133,60.6076],[5.1488,60.5924],[5.2368,60.5506],[5.2632,60.5472],[5.2271,60.5042],[5.1506,60.5273],[5.0528,60.5398],[4.9893,60.5596],[5.0133,60.6076]],[[5.0715,61.5073],[5.1142,61.4773],[5.0528,61.4758],[5.0715,61.5073]],[[4.961,61.8142],[4.9587,61.8289],[4.8186,61.8522],[4.8284,61.8631],[4.9497,61.9106],[5.0891,61.8785],[5.2125,61.8727],[5.2556,61.864],[5.2561,61.8371],[5.1532,61.8311],[4.9957,61.7828],[4.9293,61.7837],[4.9001,61.8133],[4.961,61.8142]],[[5.0393,61.9366],[4.9819,62.0107],[5.0311,62.028],[5.0783,62.0032],[5.126,62.0311],[5.1557,61.992],[5.1411,61.9576],[5.0898,61.9236],[5.0393,61.9366]],[[5.3739,59.1866],[5.3872,59.2458],[5.4565,59.2245],[5.4745,59.1891],[5.4341,59.1742],[5.3739,59.1866]],[[5.2843,59.3655],[5.3021,59.3513],[5.3075,59.3016],[5.3306,59.2711],[5.3129,59.1643],[5.2467,59.1373],[5.1881,59.1522],[5.1688,59.2277],[5.2143,59.3065],[5.1864,59.3548],[5.2316,59.3641],[5.2164,59.3893],[5.2714,59.3965],[5.2843,59.3655]],[[5.3842,59.7075],[5.3314,59.6985],[5.3242,59.7345],[5.2734,59.7291],[5.2515,59.6914],[5.2645,59.6653],[5.2271,59.646],[5.2491,59.6011],[5.2045,59.5762],[5.1757,59.5817],[5.1513,59.6747],[5.165,59.7141],[5.2197,59.7369],[5.2181,59.7553],[5.1044,59.7621],[5.1352,59.823],[5.0798,59.8349],[5.0703,59.8533],[5.1112,59.8939],[5.1805,59.8767],[5.2582,59.8443],[5.2501,59.8262],[5.3039,59.8007],[5.3604,59.7116],[5.3842,59.7075]],[[5.3268,59.9766],[5.3591,59.973],[5.4533,59.9375],[5.5253,59.8837],[5.54,59.7864],[5.4893,59.7499],[5.403,59.7504],[5.3486,59.7775],[5.2691,59.9128],[5.3174,59.9198],[5.3297,59.9396],[5.2876,59.962],[5.3268,59.9766]],[[5.4266,60.063],[5.4437,60.0201],[5.3663,60.0044],[5.3393,60.0268],[5.361,60.0847],[5.4266,60.063]],[[5.2405,60.1111],[5.3009,60.0674],[5.3038,60.0314],[5.2694,59.9867],[5.2015,60.0162],[5.1729,60.0462],[5.199,60.0878],[5.2405,60.1111]],[[5.3994,62.2553],[5.4265,62.2721],[5.4843,62.2614],[5.4919,62.2359],[5.3994,62.2553]],[[5.7008,59.0729],[5.6958,59.0574],[5.5788,59.0826],[5.6048,59.107],[5.7008,59.0729]],[[5.7692,59.0701],[5.6006,59.1191],[5.657,59.1291],[5.7746,59.1165],[5.7692,59.0701]],[[5.774,59.1763],[5.8248,59.2005],[5.8744,59.1868],[5.8798,59.1664],[5.8353,59.1387],[5.7846,59.1422],[5.774,59.1763]],[[6.0782,59.2099],[6.0444,59.1841],[6.0028,59.189],[5.9992,59.217],[6.0782,59.2099]],[[6.0816,59.2846],[6.1004,59.2536],[6.0634,59.2415],[5.9322,59.226],[5.9231,59.273],[5.9757,59.2924],[6.0557,59.297],[6.0816,59.2846]],[[5.7115,59.7015],[5.6516,59.7164],[5.6604,59.7456],[5.7167,59.7238],[5.7115,59.7015]],[[5.7402,59.7969],[5.7983,59.7923],[5.8301,59.776],[5.7949,59.7583],[5.7782,59.7279],[5.7352,59.74],[5.7402,59.7969]],[[5.5522,60.07],[5.6088,60.0683],[5.6715,60.0808],[5.6981,60.0734],[5.71,60.0305],[5.6943,59.9891],[5.6622,59.9793],[5.6215,59.9402],[5.6669,59.9286],[5.6715,59.905],[5.626,59.8924],[5.5358,59.8938],[5.499,59.9534],[5.4698,59.9432],[5.3828,59.9787],[5.4042,60.0028],[5.4779,59.9985],[5.4623,60.0234],[5.4842,60.0518],[5.5522,60.07]],[[5.9558,60.0918],[5.9297,60.1342],[5.9902,60.1652],[6.0611,60.1493],[6.0602,60.1276],[5.9946,60.0799],[5.9558,60.0918]],[[5.3991,60.5559],[5.4688,60.5788],[5.5127,60.6126],[5.5828,60.6202],[5.6277,60.6779],[5.625,60.6998],[5.6548,60.7078],[5.6762,60.6905],[5.6987,60.7006],[5.7347,60.6699],[5.7151,60.6242],[5.7188,60.5884],[5.697,60.5343],[5.7122,60.4815],[5.6661,60.4778],[5.6098,60.4391],[5.5327,60.4284],[5.4277,60.4879],[5.4051,60.511],[5.3444,60.5303],[5.3991,60.5559]],[[5.6139,62.2979],[5.6403,62.3025],[5.728,62.2881],[5.8016,62.2849],[5.7833,62.2429],[5.8101,62.2295],[5.7631,62.2049],[5.599,62.1898],[5.5254,62.2262],[5.525,62.2606],[5.5637,62.2965],[5.6139,62.2979]],[[5.8658,62.4138],[5.8964,62.4225],[6.0016,62.4232],[6.0361,62.3687],[6.1129,62.3508],[5.9556,62.2902],[5.9158,62.2545],[5.8368,62.2589],[5.8669,62.281],[5.8341,62.3032],[5.7703,62.2975],[5.7791,62.3322],[5.8585,62.3316],[5.8132,62.3665],[5.8658,62.4138]],[[5.602,62.3286],[5.671,62.3624],[5.74,62.3682],[5.7204,62.322],[5.6415,62.319],[5.602,62.3286]],[[5.5088,62.3626],[5.5511,62.3631],[5.6003,62.3432],[5.5253,62.3316],[5.5088,62.3626]],[[6.6294,58.227],[6.5441,58.2109],[6.5206,58.2444],[6.6059,58.2375],[6.6294,58.227]],[[6.1721,62.4422],[6.2131,62.4523],[6.2731,62.4429],[6.3132,62.4064],[6.1729,62.3952],[6.0788,62.414],[6.0647,62.4406],[6.1721,62.4422]],[[6.5636,62.649],[6.6142,62.6943],[6.667,62.6639],[6.5636,62.649]],[[6.2629,62.6917],[6.3337,62.68],[6.3287,62.6511],[6.2718,62.666],[6.2629,62.6917]],[[6.3386,62.7153],[6.4205,62.7139],[6.4082,62.6884],[6.3313,62.7022],[6.3386,62.7153]],[[6.6882,62.7327],[6.728,62.721],[6.9211,62.7505],[6.94,62.7103],[6.8958,62.6969],[6.7503,62.6777],[6.7025,62.6655],[6.6595,62.6873],[6.6954,62.7017],[6.6882,62.7327]],[[6.4194,62.7456],[6.4217,62.7645],[6.475,62.7885],[6.4896,62.7484],[6.4626,62.7268],[6.4194,62.7456]],[[6.7807,62.837],[6.8123,62.852],[6.8644,62.8354],[6.946,62.8564],[6.9545,62.8215],[6.9131,62.8159],[6.9177,62.7747],[6.7901,62.8071],[6.7807,62.837]],[[7.3852,62.6628],[7.3219,62.6475],[7.235,62.6527],[7.2628,62.681],[7.3852,62.6628]],[[7.402,63.0375],[7.4472,63.0661],[7.4907,63.0701],[7.5438,63.0444],[7.628,63.0638],[7.6175,63.0995],[7.6667,63.1157],[7.6745,63.0273],[7.7292,63.0076],[7.6918,62.9864],[7.5317,62.9401],[7.4808,62.9593],[7.3547,62.984],[7.4304,63.0208],[7.402,63.0375]],[[7.8531,63.1303],[7.9023,63.1001],[7.8841,63.0576],[7.8082,63.0226],[7.7617,63.0174],[7.7006,63.0352],[7.7109,63.0813],[7.8001,63.103],[7.7508,63.1148],[7.815,63.1358],[7.8531,63.1303]],[[7.9628,63.1531],[7.9082,63.1522],[7.9162,63.1794],[8.0302,63.2088],[8.1044,63.2361],[8.1384,63.2326],[8.1775,63.187],[8.1739,63.1613],[8.0861,63.1444],[7.9628,63.1531]],[[7.9879,63.3124],[7.9611,63.3316],[7.8947,63.3381],[7.8643,63.3271],[7.8116,63.3632],[7.7804,63.3613],[7.7886,63.4138],[7.8817,63.44],[7.9562,63.4481],[7.964,63.4681],[8.0837,63.4611],[8.1274,63.4725],[8.1711,63.4009],[8.2144,63.3734],[8.1347,63.3321],[8.0794,63.3307],[8.0445,63.3121],[7.9879,63.3124]],[[8.1902,63.1783],[8.1605,63.2132],[8.2152,63.2278],[8.3085,63.1868],[8.3241,63.1649],[8.2054,63.157],[8.1902,63.1783]],[[8.47,63.2725],[8.5482,63.2242],[8.5703,63.1767],[8.477,63.158],[8.3588,63.1614],[8.3184,63.194],[8.2612,63.2184],[8.3139,63.258],[8.4433,63.2847],[8.47,63.2725]],[[8.1041,63.2782],[8.2091,63.3259],[8.2263,63.3131],[8.1041,63.2782]],[[8.6277,63.3876],[8.6914,63.3422],[8.6684,63.3283],[8.5618,63.315],[8.4505,63.3415],[8.4955,63.3509],[8.5192,63.3831],[8.6277,63.3876]],[[8.605,63.578],[8.569,63.5578],[8.5025,63.5694],[8.5344,63.589],[8.605,63.578]],[[8.296,63.6847],[8.5312,63.7175],[8.5755,63.7086],[8.6893,63.7647],[8.7514,63.8086],[8.8172,63.8001],[8.8203,63.7637],[8.8435,63.7468],[8.8326,63.7004],[8.729,63.6864],[8.5068,63.6636],[8.4715,63.6744],[8.3121,63.6621],[8.296,63.6847]],[[8.4609,63.5538],[8.509,63.5614],[8.5646,63.5532],[8.6564,63.5714],[8.5569,63.5981],[8.677,63.629],[8.7156,63.6507],[8.8057,63.6626],[8.8649,63.661],[8.9694,63.6236],[8.9925,63.6014],[9.0933,63.6021],[9.1967,63.5576],[9.111,63.5138],[8.9671,63.5003],[8.8538,63.4778],[8.8109,63.4847],[8.6125,63.4578],[8.5308,63.4272],[8.3889,63.427],[8.3121,63.4452],[8.2995,63.4864],[8.4099,63.5457],[8.4609,63.5538]],[[8.8238,58.4421],[8.7858,58.4554],[8.882,58.4949],[8.9464,58.5067],[8.8611,58.4434],[8.8238,58.4421]],[[9.1264,63.6288],[9.0822,63.6107],[9.0188,63.6154],[9.0579,63.6614],[9.1199,63.6618],[9.1746,63.6484],[9.1264,63.6288]],[[9.4394,58.8552],[9.4408,58.8814],[9.5058,58.8702],[9.4979,58.8525],[9.4394,58.8552]],[[10.3934,59.0718],[10.3788,59.1032],[10.3749,59.1574],[10.4161,59.1436],[10.4166,59.0964],[10.3934,59.0718]],[[9.9795,64.0814],[10.0495,64.0513],[9.9613,64.0422],[9.9315,64.0664],[9.9795,64.0814]],[[10.9502,59.0336],[10.9146,59.0554],[10.8505,59.0712],[10.8299,59.1018],[10.909,59.121],[10.9618,59.086],[10.9662,59.0391],[10.9502,59.0336]],[[10.8004,64.919],[10.9247,64.9422],[10.9597,64.9598],[11.0178,64.9628],[11.0195,64.9851],[11.0756,64.9898],[11.0898,64.9612],[11.0515,64.9333],[10.9257,64.9039],[10.9061,64.884],[10.7848,64.8419],[10.7332,64.8364],[10.6901,64.8865],[10.8004,64.919]],[[10.797,64.973],[10.8279,64.9896],[10.8981,65.0006],[10.9606,64.9696],[10.844,64.9563],[10.797,64.973]],[[10.9962,59.0625],[10.9864,59.0811],[11.0393,59.0942],[11.0909,59.0791],[11.0851,59.0557],[11.0248,59.0159],[10.9884,59.0308],[10.9962,59.0625]],[[11.0322,63.7721],[11.04,63.7929],[11.1148,63.7997],[11.1976,63.8178],[11.1989,63.7927],[11.1436,63.7961],[11.0806,63.7632],[11.0322,63.7721]],[[11.2859,64.882],[11.1505,64.8261],[11.1032,64.8311],[11.0582,64.8553],[11.0795,64.8928],[11.0408,64.9001],[10.9985,64.8815],[10.8794,64.8482],[10.9245,64.8981],[11.0722,64.9324],[11.124,64.963],[11.3024,64.8983],[11.2859,64.882]],[[11.2272,64.4593],[11.205,64.4833],[11.2679,64.4893],[11.2798,64.4695],[11.2272,64.4593]],[[11.0416,64.6361],[11.0757,64.6524],[11.1306,64.6421],[11.1579,64.6197],[11.2453,64.6182],[11.2804,64.5894],[11.2722,64.5409],[11.3759,64.5508],[11.4541,64.5212],[11.3972,64.4848],[11.3071,64.4827],[11.2543,64.5168],[11.178,64.5117],[11.1357,64.5433],[11.112,64.5849],[11.0334,64.5983],[11.0416,64.6361]],[[11.2009,64.6681],[11.2191,64.6816],[11.3296,64.6909],[11.3595,64.6758],[11.3467,64.6194],[11.3061,64.6035],[11.2357,64.6318],[11.1667,64.6459],[11.2009,64.6681]],[[11.5333,65.076],[11.5754,65.1088],[11.634,65.1192],[11.7832,65.1073],[11.6059,65.0422],[11.5118,65.0505],[11.5333,65.076]],[[11.8669,65.5962],[11.8146,65.6146],[11.7841,65.6408],[11.8112,65.6865],[11.916,65.7149],[12.0063,65.7084],[12.0356,65.6825],[12.0293,65.658],[11.9092,65.5896],[11.8669,65.5962]],[[12.0383,65.6702],[12.1019,65.6956],[12.131,65.6761],[12.0383,65.6702]],[[12.4215,65.7008],[12.3563,65.6535],[12.3035,65.662],[12.3479,65.6879],[12.4215,65.7008]],[[12.4276,66.1025],[12.4763,66.1118],[12.5471,66.167],[12.4691,66.1958],[12.553,66.2025],[12.5875,66.2282],[12.6313,66.1894],[12.6174,66.1617],[12.6524,66.0946],[12.586,66.0855],[12.5532,66.0595],[12.4723,66.0396],[12.3086,66.0138],[12.3618,66.0468],[12.4276,66.1025]],[[12.9052,66.0273],[12.9172,66.0032],[12.8583,65.984],[12.7763,65.9807],[12.6871,65.9597],[12.5432,65.9005],[12.4138,65.8897],[12.3825,65.9028],[12.4602,65.9328],[12.4631,65.9601],[12.5323,65.9964],[12.6038,66.0205],[12.7262,66.0135],[12.87,66.0303],[12.9052,66.0273]],[[12.8019,66.1489],[12.6988,66.1418],[12.7233,66.1828],[12.8019,66.1489]],[[12.7876,66.2903],[12.8714,66.2931],[12.8862,66.252],[12.8411,66.2225],[12.7444,66.2274],[12.7044,66.252],[12.7876,66.2903]],[[12.8328,66.4371],[12.8944,66.4578],[12.8977,66.3902],[12.856,66.3976],[12.8328,66.4371]],[[12.7991,66.5415],[12.8669,66.5663],[12.8852,66.5348],[12.812,66.5176],[12.7991,66.5415]],[[12.9636,66.177],[12.8812,66.1625],[12.8778,66.1967],[12.9629,66.2138],[12.9636,66.177]],[[13.1754,66.2835],[13.0361,66.2402],[12.9212,66.2284],[12.9884,66.2753],[13.0716,66.2867],[13.1754,66.2835]],[[13.0584,66.4373],[13.1228,66.4112],[13.094,66.3906],[13.0073,66.3793],[13.0138,66.4156],[13.0584,66.4373]],[[12.948,66.4577],[12.9563,66.4054],[12.9032,66.398],[12.9033,66.4335],[12.948,66.4577]],[[13.0472,66.6426],[13.042,66.5985],[12.9881,66.6106],[13.0472,66.6426]],[[12.7999,67.8364],[12.8462,67.8492],[12.8443,67.9016],[12.8978,67.922],[12.9236,67.9818],[13.0146,68.0449],[13.0735,68.1026],[13.1947,68.1018],[13.1592,68.076],[13.1538,68.0442],[13.181,68.0181],[13.1673,67.9629],[13.0699,67.9511],[13.0965,67.9349],[13.033,67.8827],[12.9063,67.8556],[12.8735,67.8289],[12.7999,67.8364]],[[13.4012,66.7534],[13.2598,66.7582],[13.3436,66.7808],[13.4775,66.7782],[13.4012,66.7534]],[[13.4872,66.8476],[13.4729,66.826],[13.3533,66.8114],[13.3504,66.8306],[13.4872,66.8476]],[[13.3253,68.1707],[13.3933,68.1639],[13.4614,68.14],[13.4187,68.1031],[13.393,68.0321],[13.2603,68.001],[13.1989,68.0056],[13.1667,68.0454],[13.2425,68.1044],[13.3271,68.1031],[13.2968,68.131],[13.3253,68.1707]],[[13.4708,68.1747],[13.5228,68.1831],[13.4882,68.2087],[13.6032,68.2455],[13.5142,68.2461],[13.5643,68.2818],[13.6597,68.3116],[13.7513,68.2879],[13.8381,68.2946],[13.8654,68.3376],[13.9664,68.348],[14.0153,68.3216],[14.006,68.2985],[14.0431,68.277],[14.0914,68.2889],[14.0535,68.3243],[14.1534,68.3468],[14.2439,68.3218],[14.273,68.2998],[14.2467,68.2639],[14.1631,68.253],[14.1223,68.2268],[14.0149,68.1897],[13.8456,68.1674],[13.8613,68.1254],[13.7352,68.1081],[13.7281,68.087],[13.6524,68.0939],[13.6084,68.1323],[13.552,68.1238],[13.5853,68.0883],[13.5337,68.0645],[13.4617,68.0858],[13.48,68.1246],[13.5272,68.1489],[13.4708,68.1747]],[[14.0495,67.1308],[14.0941,67.1511],[14.1558,67.1291],[14.1999,67.1377],[14.2336,67.1773],[14.2795,67.1504],[14.2109,67.103],[14.2328,67.0238],[14.1906,67.0044],[14.1474,67.0328],[14.1298,67.0683],[14.0085,67.0921],[14.0495,67.1308]],[[14.2254,67.3854],[14.3023,67.4232],[14.3873,67.441],[14.4163,67.422],[14.3804,67.3924],[14.2254,67.3854]],[[14.4333,68.3432],[14.4067,68.3834],[14.5276,68.4165],[14.6565,68.4385],[14.8923,68.4318],[14.8895,68.4502],[14.9788,68.448],[15.0682,68.4635],[15.1947,68.4644],[15.1314,68.416],[15.0516,68.3728],[14.9991,68.3676],[14.9668,68.3405],[14.7925,68.2775],[14.6831,68.2554],[14.5469,68.2375],[14.4626,68.1988],[14.2093,68.1697],[14.2143,68.2328],[14.2725,68.2467],[14.2736,68.2741],[14.3142,68.289],[14.3092,68.3201],[14.3424,68.3445],[14.4333,68.3432]],[[14.8824,68.2448],[14.8658,68.2231],[14.7939,68.2298],[14.8183,68.2745],[14.8766,68.3021],[14.9427,68.3079],[14.9608,68.2845],[14.9186,68.2498],[14.8824,68.2448]],[[14.7105,68.5058],[14.6121,68.5621],[14.6674,68.5852],[14.7952,68.5803],[14.8516,68.568],[14.9782,68.5573],[15.0016,68.5408],[14.9014,68.4995],[14.7827,68.4968],[14.7105,68.5058]],[[14.8718,68.6118],[14.7894,68.6317],[14.8731,68.6581],[15.0546,68.6792],[15.1013,68.7133],[15.1505,68.7175],[15.1205,68.7573],[14.9899,68.6991],[14.7816,68.662],[14.6794,68.6626],[14.6472,68.6324],[14.5491,68.6098],[14.4386,68.6139],[14.4386,68.6596],[14.3771,68.6904],[14.4812,68.7465],[14.4504,68.7677],[14.537,68.8041],[14.625,68.8005],[14.6334,68.83],[14.6958,68.8279],[14.6947,68.7678],[14.8592,68.7934],[14.9456,68.79],[14.9054,68.852],[14.9691,68.8669],[15.0198,68.8369],[15.0902,68.8908],[15.0171,68.9381],[15.0178,68.9918],[15.1075,69.0196],[15.1824,69.0124],[15.177,68.9301],[15.2908,68.9191],[15.2885,68.8671],[15.3359,68.8661],[15.393,68.8425],[15.37,68.8003],[15.3121,68.7837],[15.2795,68.7544],[15.4063,68.733],[15.4153,68.687],[15.327,68.6524],[15.0822,68.5976],[15.0379,68.578],[14.8647,68.5864],[14.8718,68.6118]],[[14.8366,68.8828],[14.8658,68.9142],[14.9782,68.9258],[15.0031,68.8902],[14.963,68.8732],[14.8366,68.8828]],[[15.1577,67.9552],[15.2308,67.9524],[15.2806,67.9356],[15.1686,67.9103],[15.1018,67.9212],[14.9644,67.9141],[14.952,67.9474],[14.9957,67.975],[15.0957,67.9809],[15.1577,67.9552]],[[15.2512,68.0137],[15.2878,67.9668],[15.1917,67.967],[15.1611,67.9962],[15.2055,68.0245],[15.2512,68.0137]],[[15.4739,68.0024],[15.515,68.0169],[15.677,68.0363],[15.7635,68.0251],[15.8752,68.0267],[15.9235,68.0136],[15.9225,67.9919],[15.8426,67.9801],[15.7506,68.0039],[15.6469,67.9873],[15.5227,67.9839],[15.4739,68.0024]],[[16.2537,68.0931],[16.322,68.0686],[16.2716,68.0434],[16.1785,68.0682],[16.2537,68.0931]],[[16.4538,68.5273],[16.4349,68.5083],[16.5138,68.4764],[16.4297,68.4637],[16.4658,68.4429],[16.4372,68.4273],[16.2927,68.4175],[16.2655,68.4223],[16.1548,68.3874],[16.0774,68.417],[16.1912,68.5202],[16.2309,68.5443],[16.3883,68.5536],[16.4538,68.5273]],[[16.5673,68.6961],[16.5964,68.6798],[16.5906,68.6447],[16.546,68.6149],[16.5008,68.6092],[16.5141,68.5657],[16.4714,68.558],[16.37,68.5683],[16.287,68.5561],[16.2466,68.5646],[16.1584,68.5298],[16.1038,68.5243],[16.0937,68.4852],[16.0125,68.4481],[16.0098,68.4132],[15.8748,68.3797],[15.8386,68.407],[15.7213,68.3828],[15.6567,68.309],[15.5661,68.3121],[15.562,68.3301],[15.4015,68.3524],[15.3322,68.3492],[15.4231,68.422],[15.32,68.3975],[15.259,68.3682],[15.228,68.3361],[15.1533,68.3257],[15.0982,68.2906],[15.0183,68.2651],[14.98,68.2733],[15.1121,68.4033],[15.2579,68.4796],[15.2152,68.5018],[15.2574,68.5301],[15.1781,68.533],[15.2467,68.5788],[15.3697,68.5976],[15.5054,68.6442],[15.4377,68.7088],[15.4593,68.73],[15.4724,68.8046],[15.6008,68.8369],[15.5563,68.855],[15.6125,68.8867],[15.6439,68.9535],[15.7204,68.9652],[15.8002,68.9564],[15.9017,68.9667],[15.928,68.9061],[15.9602,68.8886],[15.9097,68.8426],[15.8851,68.7881],[15.9565,68.7979],[16.0101,68.7793],[15.9923,68.714],[15.8741,68.6496],[15.7758,68.6285],[15.8011,68.5636],[15.8271,68.5664],[15.8058,68.6167],[15.8861,68.6346],[15.9945,68.6738],[16.0507,68.7029],[16.0799,68.7492],[16.1647,68.7336],[16.2331,68.7358],[16.2413,68.7589],[16.1235,68.7842],[16.0874,68.8219],[16.1961,68.8654],[16.2481,68.8638],[16.3472,68.8808],[16.415,68.8569],[16.4808,68.8602],[16.4899,68.8222],[16.5521,68.8145],[16.5616,68.7471],[16.5935,68.7211],[16.5673,68.6961]],[[16.4889,68.9597],[16.6431,68.9351],[16.5664,68.8748],[16.4689,68.8815],[16.3704,68.9131],[16.3507,68.9374],[16.2533,68.96],[16.3053,68.9909],[16.3824,68.9867],[16.4326,68.9626],[16.4889,68.9597]],[[16.5357,68.9855],[16.4482,68.9855],[16.4736,69.0155],[16.5447,69.0194],[16.5357,68.9855]],[[15.4986,69.0324],[15.5621,69.0824],[15.5609,69.1016],[15.6657,69.1381],[15.7431,69.1425],[15.8132,69.1632],[15.8546,69.1997],[15.858,69.2429],[15.8883,69.2615],[15.991,69.2898],[16.1303,69.3131],[16.1811,69.2802],[16.1213,69.2441],[16.0877,69.1868],[16.0865,69.1522],[15.9751,69.1107],[15.9212,69.0825],[15.8771,69.027],[15.7713,69.0118],[15.7149,68.986],[15.6034,68.9796],[15.5726,68.9229],[15.5259,68.8904],[15.4582,68.8765],[15.4183,68.8977],[15.4437,68.9263],[15.4557,69.0119],[15.4986,69.0324]],[[17.1848,68.7821],[17.1353,68.7518],[16.9883,68.742],[16.8929,68.7255],[16.8331,68.7303],[16.8617,68.7709],[16.9111,68.7753],[16.9785,68.842],[17.0325,68.8674],[17.112,68.8018],[17.1848,68.7821]],[[17.3118,68.9253],[17.3715,68.9227],[17.4254,68.8905],[17.4879,68.876],[17.4557,68.8551],[17.2609,68.7965],[17.184,68.8057],[17.1705,68.8491],[17.0983,68.9081],[17.1781,68.913],[17.2205,68.9279],[17.3118,68.9253]],[[17.5668,69.0864],[17.5178,69.039],[17.4777,69.0363],[17.4141,68.9937],[17.3447,68.9941],[17.3507,69.0318],[17.3901,69.0652],[17.4452,69.0847],[17.5668,69.0864]],[[17.1201,69.3104],[17.102,69.3292],[17.0218,69.3549],[16.944,69.363],[16.9831,69.3945],[17.1271,69.4035],[17.2102,69.4169],[17.2702,69.4128],[17.3958,69.3618],[17.411,69.3847],[17.3406,69.3922],[17.3394,69.4133],[17.3912,69.4342],[17.2783,69.4465],[17.2253,69.4654],[17.218,69.5051],[17.3288,69.4747],[17.4043,69.4851],[17.311,69.5316],[17.3465,69.5388],[17.5571,69.4884],[17.5972,69.4596],[17.6578,69.4677],[17.5582,69.5236],[17.4996,69.541],[17.4647,69.5734],[17.5163,69.5911],[17.6034,69.5534],[17.6132,69.5342],[17.6775,69.5269],[17.6623,69.5716],[17.7585,69.5415],[17.8193,69.5736],[17.8821,69.5797],[17.9648,69.5214],[18.069,69.4891],[18.0205,69.4427],[18.0816,69.4271],[18.0636,69.3793],[18.0794,69.3504],[17.9333,69.3393],[17.8789,69.3183],[17.9641,69.2578],[17.9317,69.2334],[17.868,69.2234],[17.9499,69.1988],[17.9597,69.1764],[17.8378,69.1581],[17.7308,69.169],[17.6124,69.1582],[17.5147,69.1619],[17.4812,69.2036],[17.3922,69.1516],[17.2743,69.1123],[17.1712,69.0559],[17.2315,69.0338],[17.1521,69.0134],[17.0428,69.0077],[17.0329,69.0699],[16.9634,69.0755],[16.8895,69.0543],[16.795,69.0533],[16.7821,69.0993],[16.8284,69.1242],[17.0572,69.1388],[17.0696,69.1693],[17.0418,69.1903],[16.9825,69.1905],[16.912,69.2365],[16.9968,69.2393],[17.0983,69.2255],[17.1025,69.2521],[17.0236,69.2846],[16.9685,69.2754],[16.8986,69.3137],[17.0398,69.3314],[17.1201,69.3104]],[[18.9776,69.6718],[18.9624,69.6473],[18.897,69.6456],[18.8996,69.685],[19.0166,69.7136],[18.9776,69.6718]],[[18.0389,69.6043],[18.1655,69.6326],[18.2672,69.6271],[18.218,69.6602],[18.1872,69.7095],[18.3452,69.6867],[18.3198,69.7146],[18.3033,69.7749],[18.3691,69.7931],[18.4264,69.7737],[18.5403,69.7792],[18.5821,69.8031],[18.6543,69.7984],[18.6149,69.7583],[18.6566,69.7173],[18.7052,69.7169],[18.7202,69.7713],[18.7709,69.8005],[18.6624,69.8267],[18.6437,69.8628],[18.7058,69.881],[18.8181,69.8734],[18.8283,69.8534],[18.9964,69.8187],[19.0555,69.7734],[19.0031,69.7354],[18.8611,69.6853],[18.7839,69.6805],[18.7338,69.6426],[18.7958,69.6385],[18.8159,69.6129],[18.7642,69.5644],[18.6834,69.5589],[18.6294,69.575],[18.5682,69.5497],[18.4533,69.5429],[18.3729,69.5287],[18.2114,69.5191],[18.1564,69.5265],[18.1023,69.5572],[18.0124,69.5624],[18.0389,69.6043]],[[18.457,69.8447],[18.5242,69.8566],[18.5947,69.8332],[18.4454,69.8206],[18.457,69.8447]],[[19.8084,69.9386],[19.7542,69.8739],[19.7216,69.8548],[19.6516,69.8571],[19.4737,69.8404],[19.4068,69.8403],[19.5216,69.9192],[19.6231,69.9381],[19.774,70.0074],[19.8377,69.9993],[19.8831,69.9731],[19.8084,69.9386]],[[18.715,69.944],[18.7362,69.9612],[18.8301,69.9498],[18.8141,70.0114],[18.8772,70.0298],[18.9724,70.0318],[19.0762,70.0632],[19.0963,70.0794],[19.1854,70.0903],[19.2803,70.0569],[19.2917,70.0308],[19.3528,69.9909],[19.3911,69.9951],[19.3948,70.0333],[19.4552,70.0527],[19.5347,70.0446],[19.6738,69.9982],[19.6239,69.9617],[19.4728,69.9399],[19.4862,69.9085],[19.426,69.8852],[19.3567,69.8277],[19.2376,69.7966],[19.0685,69.7903],[18.9948,69.841],[18.8773,69.8822],[18.7302,69.9098],[18.715,69.944]],[[18.6809,70.0153],[18.6516,70.0395],[18.709,70.0748],[18.7113,70.119],[18.855,70.0856],[18.8848,70.1085],[18.9852,70.0791],[18.928,70.0481],[18.6809,70.0153]],[[19.3743,70.1596],[19.579,70.1166],[19.5694,70.0986],[19.4291,70.1002],[19.3354,70.1232],[19.3743,70.1596]],[[18.8133,70.1737],[18.8908,70.192],[18.8939,70.1478],[18.7855,70.148],[18.8133,70.1737]],[[18.995,70.1582],[19.125,70.1996],[19.099,70.243],[19.2204,70.2498],[19.257,70.1762],[19.1979,70.1172],[19.1149,70.1094],[18.995,70.1582]],[[20.688,69.8595],[20.7338,69.8386],[20.6938,69.8114],[20.5598,69.7877],[20.5167,69.8435],[20.5511,69.8924],[20.7197,69.9132],[20.688,69.8595]],[[21.0581,69.9903],[20.9957,69.9811],[20.9492,69.9474],[20.8388,69.922],[20.7871,69.9327],[20.7131,70.0042],[20.7211,70.0225],[20.7954,70.0388],[20.8477,70.0311],[20.931,69.9826],[20.9677,69.999],[21.0581,69.9903]],[[21.7331,70.0136],[21.699,69.9917],[21.576,70.0228],[21.6246,70.0448],[21.7331,70.0136]],[[20.821,70.1502],[20.9314,70.0987],[20.8818,70.0706],[20.8304,70.0669],[20.7691,70.1122],[20.821,70.1502]],[[20.7616,70.2216],[20.8096,70.1858],[20.7586,70.1289],[20.7529,70.0929],[20.8015,70.0536],[20.7294,70.0424],[20.6348,70.0537],[20.5625,70.0318],[20.4999,70.048],[20.4443,70.0452],[20.3754,70.0711],[20.375,70.1432],[20.4234,70.1785],[20.5152,70.1929],[20.5498,70.2259],[20.7114,70.2365],[20.7616,70.2216]],[[19.6311,70.2856],[19.6655,70.2348],[19.7326,70.2282],[19.7631,70.1589],[19.8205,70.1757],[19.8318,70.2095],[19.9128,70.1918],[19.8909,70.1712],[19.9226,70.148],[19.9955,70.1499],[19.9999,70.1237],[20.1269,70.099],[20.0292,70.0841],[19.9694,70.0522],[19.744,70.0564],[19.7078,70.071],[19.7183,70.1043],[19.6725,70.1581],[19.5952,70.2044],[19.5222,70.2156],[19.5184,70.2543],[19.6311,70.2856]],[[20.1935,70.3094],[20.2875,70.2518],[20.2001,70.2264],[20.1935,70.3094]],[[22.71,70.3574],[22.7282,70.3832],[22.8006,70.3804],[22.7908,70.3478],[22.8661,70.3398],[22.9423,70.3125],[23.0072,70.2636],[22.9859,70.2376],[22.8917,70.2482],[22.7418,70.2464],[22.5654,70.2614],[22.399,70.2959],[22.3438,70.3431],[22.5399,70.3806],[22.7007,70.3882],[22.71,70.3574]],[[21.7031,70.3928],[21.7976,70.3578],[21.8108,70.3423],[21.7779,70.2965],[21.7245,70.2622],[21.6789,70.2809],[21.7031,70.3928]],[[22.8335,70.4172],[22.8663,70.4456],[23.0203,70.5042],[23.1574,70.514],[23.1425,70.5493],[23.3642,70.5523],[23.4519,70.5653],[23.4229,70.597],[23.3541,70.6178],[23.4599,70.6282],[23.5471,70.6051],[23.5879,70.5825],[23.5307,70.5261],[23.621,70.4883],[23.639,70.4384],[23.4737,70.3774],[23.419,70.3489],[23.37,70.3462],[23.3297,70.3034],[23.1739,70.2732],[23.057,70.2945],[23.0394,70.3268],[22.9483,70.3424],[22.8904,70.3634],[22.8924,70.3883],[22.8335,70.4172]],[[23.8104,70.7356],[23.8376,70.7166],[23.9872,70.7036],[24.0554,70.6795],[24.115,70.6419],[24.1291,70.602],[24.0391,70.5654],[23.9967,70.5251],[23.8967,70.5056],[23.7738,70.5098],[23.7362,70.5227],[23.6795,70.5947],[23.6015,70.6055],[23.6587,70.6268],[23.6874,70.6701],[23.6231,70.698],[23.6681,70.7464],[23.8028,70.7474],[23.8104,70.7356]],[[22.087,70.4789],[22.1304,70.4873],[22.1246,70.5196],[22.2266,70.5436],[22.291,70.5916],[22.2251,70.6116],[22.0004,70.5874],[21.9845,70.6072],[22.0455,70.6269],[22.011,70.6535],[22.2229,70.6386],[22.3047,70.6467],[22.3895,70.6344],[22.3767,70.6725],[22.3405,70.6833],[22.3973,70.711],[22.4525,70.6764],[22.5367,70.7205],[22.6378,70.6947],[22.6798,70.6578],[22.738,70.644],[22.8105,70.6469],[22.7442,70.6873],[22.731,70.7211],[22.6788,70.7441],[22.7962,70.7714],[22.8248,70.7516],[22.9405,70.7286],[22.9449,70.6692],[23.0071,70.6885],[23.1133,70.742],[23.1044,70.7611],[23.0161,70.7874],[23.0737,70.8194],[23.2825,70.7838],[23.3273,70.8643],[23.4175,70.8309],[23.4308,70.812],[23.4994,70.7987],[23.4811,70.7787],[23.4009,70.7794],[23.4019,70.7407],[23.3205,70.7215],[23.2734,70.682],[23.2076,70.6751],[23.1195,70.6208],[23.0659,70.5704],[22.9966,70.5584],[22.9199,70.5679],[22.9322,70.529],[22.8389,70.5185],[22.7135,70.5146],[22.6536,70.5574],[22.6189,70.5525],[22.6217,70.5153],[22.5587,70.4933],[22.4855,70.5221],[22.3378,70.486],[22.2405,70.51],[22.2094,70.4852],[22.1392,70.4699],[22.087,70.4789]],[[23.9421,70.9282],[23.8659,70.9999],[23.919,71.0048],[23.9307,71.0323],[24.0206,71.0366],[24.04,71.0101],[24.1456,71.0007],[24.0731,70.9789],[24.2048,70.9673],[24.2165,70.9464],[24.0819,70.9175],[24.0109,70.9139],[23.9421,70.9282]],[[24.9534,71.0019],[24.9545,71.0493],[25.0524,71.0367],[25.036,71.0197],[24.9534,71.0019]],[[24.0187,71.0497],[24.0375,71.0871],[24.1539,71.074],[24.0187,71.0497]],[[24.6228,71.0574],[24.6638,71.0924],[24.7233,71.1156],[24.8295,71.0959],[24.7853,71.0695],[24.7742,71.029],[24.7342,71.0288],[24.6228,71.0574]],[[29.9215,69.9038],[29.9778,69.8894],[30.018,69.8501],[30.0267,69.8054],[29.8244,69.7556],[29.6983,69.757],[29.7418,69.803],[29.8075,69.8323],[29.7956,69.8994],[29.8376,69.9124],[29.9215,69.9038]],[[25.8804,70.6966],[25.8061,70.6638],[25.7781,70.6926],[25.8804,70.6966]],[[25.5351,71.1482],[25.6623,71.1785],[25.7197,71.1542],[25.8172,71.1648],[25.7713,71.1171],[25.873,71.1097],[25.975,71.1406],[26.0454,71.1135],[25.9854,71.0826],[25.9192,71.0811],[25.8907,71.0588],[25.9609,71.0234],[26.0538,71.0109],[26.0993,71.0426],[26.2256,71.0611],[26.2196,71.0325],[26.1174,70.9915],[26.0175,70.9742],[25.9148,70.9774],[25.7992,70.9713],[25.7453,70.9845],[25.6518,70.9468],[25.5499,70.9324],[25.4572,70.9768],[25.3925,70.9916],[25.4886,71.0129],[25.4823,71.037],[25.3418,71.0152],[25.2741,71.0175],[25.2571,71.0624],[25.2744,71.0863],[25.3609,71.1056],[25.4438,71.1035],[25.6102,71.1199],[25.5351,71.1482]]]},"properties":{"mrgid":5686,"geoname":"Norwegian Exclusive Economic Zone","mrgid_ter1":2252,"pol_type":"200NM","mrgid_sov1":2252,"territory1":"Norway","iso_ter1":"NOR","sovereign1":"Norway","mrgid_ter2":null,"mrgid_sov2":null,"territory2":null,"iso_ter2":null,"sovereign2":null,"mrgid_ter3":null,"mrgid_sov3":null,"territory3":null,"iso_ter3":null,"sovereign3":null,"x_1":14.0013,"y_1":68.17846,"mrgid_eez":5686,"area_km2":931288,"iso_sov1":"NOR","iso_sov2":null,"iso_sov3":null,"un_sov1":578,"un_sov2":null,"un_sov3":null,"un_ter1":578,"un_ter2":null,"un_ter3":null},"id":"eez.270"},
{"type":"Feature","geometry":{"type":"Polygon","coordinates":[[[10.2998,72.177],[10.4914,72.2672],[10.8361,72.4127],[11.2117,72.5516],[11.6598,72.6963],[12.1431,72.8317],[12.4683,72.9126],[12.8559,73],[13.2016,73.0704],[13.7859,73.182],[14.2652,73.2648],[14.6887,73.3292],[15.6435,73.4625],[16.6083,73.5907],[17.8442,73.8599],[18.2662,73.9426],[18.6813,74.0155],[19.1344,74.0864],[19.5428,74.1432],[20.0828,74.2088],[20.5133,74.2538],[21.0788,74.3039],[21.7851,74.3529],[21.85,74.3567],[22.346,74.3824],[22.9171,74.4041],[23.5206,74.4437],[24.1122,74.4729],[24.5102,74.4871],[24.9772,74.4985],[25.58,74.5047],[25.9821,74.5036],[26.4697,74.4966],[27.8033,74.465],[29.0509,74.4277],[29.5117,74.4078],[29.9381,74.3842],[30.8157,74.3276],[31.1281,74.3037],[31.6929,74.2531],[32.0619,74.2145],[32.4841,74.1646],[32.8963,74.1096],[33.2977,74.0496],[33.7422,73.9751],[34.0596,74.0433],[34.6236,74.1788],[35,74.2745],[35,79.2844],[34.9989,79.2847],[34.9993,81.3184],[34.9996,82],[4.505,82],[4,81.8427],[4,74.9917],[4.483,74.8751],[4.7599,74.8122],[5.1095,74.7169],[5.5515,74.5797],[5.9023,74.4785],[6.4051,74.342],[6.4899,74.2053],[6.6291,74.0274],[6.7616,73.8883],[6.8971,73.7645],[7.0205,73.6634],[7.2449,73.4994],[7.3772,73.412],[7.5907,73.2821],[7.7926,73.1694],[8.1581,72.9816],[8.4535,72.8433],[8.6156,72.7724],[8.8648,72.6694],[9.2312,72.5292],[9.4214,72.4611],[9.7003,72.3665],[10.0334,72.2598],[10.2995,72.1768],[10.2998,72.177]],[[19.275,74.4617],[19.2664,74.4304],[19.171,74.3727],[19.0688,74.3417],[18.9713,74.3867],[18.8283,74.4304],[18.786,74.4842],[18.8299,74.5025],[19.0679,74.5135],[19.1686,74.51],[19.275,74.4617]],[[21.362,78.6114],[21.4103,78.5814],[21.5375,78.5517],[21.8089,78.5814],[21.9406,78.5824],[22.012,78.5213],[22.1395,78.4651],[22.1371,78.4273],[22.2058,78.3765],[22.1359,78.2771],[22.0553,78.2587],[21.7306,78.2667],[21.2207,78.2303],[21.0613,78.2025],[20.9123,78.2306],[20.725,78.2271],[20.7164,78.2527],[20.7845,78.2926],[20.7377,78.3046],[20.7901,78.338],[20.6696,78.3536],[20.6728,78.3891],[20.5539,78.444],[20.1671,78.4823],[20.2743,78.5136],[20.5109,78.5242],[20.6532,78.5448],[20.7359,78.5417],[21.1026,78.5765],[21.0975,78.6155],[21.1812,78.6387],[21.3411,78.6288],[21.362,78.6114]],[[25.095,76.5491],[25.2071,76.5773],[25.4137,76.6652],[25.396,76.6226],[25.278,76.5938],[25.2101,76.5457],[25.095,76.5491]],[[23.2592,77.2867],[23.0925,77.2585],[23.0549,77.2742],[23.2592,77.2867]],[[22.7484,77.7395],[22.7045,77.708],[22.6849,77.6531],[22.7077,77.6345],[22.5841,77.6286],[22.5352,77.6159],[22.4082,77.6128],[22.3735,77.5882],[22.278,77.582],[22.0211,77.539],[21.9899,77.5158],[21.7549,77.4987],[21.5214,77.5011],[21.4262,77.4845],[21.0475,77.4433],[20.8404,77.4514],[20.8752,77.5451],[20.9416,77.5923],[21.0193,77.5885],[21.1522,77.6109],[21.1928,77.6636],[21.1739,77.6856],[21.2074,77.7379],[21.3806,77.8283],[21.4882,77.8612],[21.4824,77.8852],[21.5487,77.925],[21.4951,77.944],[21.2172,77.9771],[21.1412,78.0105],[20.9661,78.0406],[20.829,78.0872],[20.833,78.1165],[21.0904,78.1559],[21.4989,78.1966],[21.5862,78.1963],[21.7945,78.2153],[22.0268,78.2],[22.1694,78.1979],[22.3863,78.208],[22.4418,78.2368],[22.529,78.2337],[22.8169,78.2578],[23.0012,78.2212],[23.1101,78.2117],[23.1772,78.1628],[23.0982,78.1083],[23.1207,78.0799],[23.2951,78.0004],[23.5108,77.9311],[23.6377,77.9134],[23.7873,77.9333],[23.9993,77.9465],[24.2687,77.9379],[24.3204,77.9019],[24.1592,77.8609],[24.147,77.8168],[24.0947,77.7933],[24.1902,77.7605],[24.1922,77.7189],[24.0838,77.692],[23.9724,77.6822],[24.007,77.624],[23.8947,77.6095],[23.8616,77.584],[23.6714,77.5043],[23.3248,77.399],[23.1194,77.3693],[22.9886,77.3004],[22.7969,77.2806],[22.6968,77.2592],[22.5768,77.256],[22.5404,77.2875],[22.6704,77.3325],[22.7088,77.3712],[22.6075,77.3947],[22.6091,77.4203],[22.7215,77.429],[22.7831,77.4651],[22.7431,77.5142],[22.9462,77.5335],[23.0061,77.5555],[22.9146,77.5723],[22.6306,77.5875],[22.646,77.6165],[22.7063,77.6255],[22.767,77.6536],[22.699,77.6627],[22.7484,77.7395]],[[20.4148,79.104],[20.5222,79.1024],[20.7786,79.074],[20.7961,79.0559],[20.6785,79.0285],[20.5689,79.0287],[20.31,79.0041],[20.1417,79.0282],[20.1066,79.0695],[20.1935,79.107],[20.4148,79.104]],[[20.1452,79.2811],[19.9998,79.2533],[19.9442,79.2846],[20.1452,79.2811]],[[14.7964,78.73],[14.6468,78.732],[14.6257,78.6995],[14.5182,78.6853],[14.5288,78.6029],[14.5809,78.5476],[14.3411,78.5581],[14.3562,78.525],[14.227,78.4732],[14.4506,78.4751],[14.6362,78.4536],[14.6683,78.4268],[14.7819,78.3904],[14.626,78.3781],[14.4775,78.3941],[14.3839,78.3888],[14.152,78.4261],[14.1032,78.3669],[14.1822,78.3388],[14.3108,78.3225],[14.2691,78.2961],[14.1488,78.2833],[13.9645,78.2803],[13.9139,78.2318],[13.8064,78.205],[13.6563,78.2003],[13.3573,78.214],[13.1061,78.2313],[12.9836,78.2066],[12.9002,78.2518],[12.9552,78.2981],[12.8712,78.3485],[12.9102,78.3784],[12.6839,78.3714],[12.5774,78.3979],[12.3651,78.486],[12.5446,78.5059],[12.8222,78.5003],[13.1914,78.5233],[13.2949,78.5659],[13.1448,78.5797],[13.0358,78.5395],[12.894,78.53],[12.573,78.5439],[12.3902,78.5453],[12.4667,78.5714],[12.4372,78.5977],[12.2117,78.5928],[12.0251,78.6116],[11.771,78.7067],[11.6225,78.7361],[11.706,78.8029],[11.8505,78.8518],[11.6213,78.8693],[11.419,78.9302],[11.3345,78.9671],[11.4959,78.9763],[11.6772,78.9657],[12.2472,78.8935],[12.366,78.8944],[12.4894,78.8683],[12.5348,78.8994],[12.4746,78.9173],[12.453,78.9602],[12.5324,78.9879],[12.2591,79.0051],[12.1411,79.0254],[11.9623,79.0214],[11.6791,79.0686],[11.7893,79.1],[11.9456,79.1227],[11.8274,79.1394],[11.8917,79.1874],[11.9773,79.2061],[12.0673,79.2499],[12.059,79.2832],[11.8332,79.2773],[11.8814,79.2363],[11.7672,79.2408],[11.6975,79.3056],[11.807,79.3376],[11.5635,79.3484],[11.5521,79.3173],[11.5954,79.267],[11.6905,79.2098],[11.6639,79.1596],[11.4267,79.1111],[11.1915,79.1171],[11.1801,79.189],[11.1193,79.2508],[11.0515,79.2615],[10.977,79.3139],[10.8896,79.3299],[10.8486,79.3663],[10.9371,79.3786],[10.8724,79.4008],[10.9775,79.4435],[10.9921,79.4734],[10.7201,79.515],[10.6839,79.5585],[10.7675,79.5658],[11.2139,79.5606],[10.852,79.591],[10.8215,79.5994],[10.9768,79.6407],[11.1003,79.6289],[11.292,79.6331],[11.4526,79.6112],[11.5425,79.6289],[11.35,79.6482],[11.1688,79.7153],[11.2056,79.7819],[11.387,79.7804],[11.612,79.8279],[11.8259,79.8419],[11.8227,79.7859],[11.9087,79.7868],[11.9405,79.7489],[12.0198,79.7179],[12.014,79.6918],[12.136,79.674],[12.3272,79.675],[12.29,79.7228],[12.1214,79.794],[12.2531,79.8349],[12.4022,79.8302],[12.3999,79.799],[12.5563,79.7625],[12.676,79.7779],[12.7798,79.7707],[13.0642,79.8232],[13.2556,79.8289],[13.3613,79.8513],[13.4734,79.8508],[13.755,79.8789],[13.8505,79.8656],[13.8925,79.8229],[13.9615,79.8039],[13.8651,79.7387],[13.6714,79.6977],[13.3901,79.6948],[13.2468,79.7084],[13.167,79.6933],[13.0075,79.6929],[12.9973,79.6698],[12.6572,79.5949],[12.4265,79.5692],[12.4534,79.534],[12.6042,79.5328],[12.7196,79.5646],[12.8539,79.564],[13.0548,79.5905],[13.1767,79.594],[13.4024,79.5802],[13.4603,79.5553],[13.2702,79.5037],[13.3016,79.4611],[13.5586,79.4843],[13.6249,79.4686],[13.8825,79.372],[13.8437,79.2826],[14.0355,79.2984],[14.1193,79.3298],[14.066,79.3814],[13.9611,79.3938],[14.0141,79.4411],[13.9305,79.5012],[13.8266,79.535],[13.9321,79.578],[14.0679,79.6096],[14.3785,79.7343],[14.488,79.7981],[14.7192,79.7928],[14.9627,79.731],[15.0491,79.6938],[15.0946,79.6415],[15.2437,79.6004],[15.2193,79.528],[15.3506,79.5021],[15.3402,79.4708],[15.4293,79.4],[15.3999,79.362],[15.6438,79.2556],[15.7607,79.2289],[15.7385,79.2031],[15.6143,79.1622],[15.7182,79.1393],[15.8123,79.1664],[15.9574,79.1196],[16.0613,79.0594],[16.0747,79.0169],[16.1612,78.9683],[16.2817,78.9375],[16.3139,78.9143],[16.494,78.8945],[16.5247,78.912],[16.4777,78.9497],[16.377,78.9643],[16.3636,79.0153],[16.236,79.1117],[16.1669,79.1271],[16.1175,79.2175],[16.0417,79.2626],[15.9411,79.2942],[15.9346,79.3741],[15.8399,79.5562],[15.7829,79.623],[15.8097,79.6359],[15.6992,79.6869],[15.7099,79.7008],[15.6259,79.7987],[15.654,79.8657],[15.7154,79.8789],[16.0838,79.8626],[16.1086,79.8891],[16.0041,79.9035],[15.9576,79.9641],[16.0452,79.9951],[16.0596,80.0224],[16.1527,80.0322],[16.2631,80.0646],[16.3833,80.0471],[16.5712,80.0382],[16.6267,79.9687],[16.7449,79.9438],[16.6744,79.9313],[16.7256,79.8929],[16.9313,79.871],[16.857,79.917],[16.9052,79.9434],[17.0526,79.9572],[17.3311,79.9304],[17.4638,79.8941],[17.5902,79.881],[17.7283,79.8439],[17.7185,79.8137],[17.8352,79.8023],[18.0096,79.744],[18.0374,79.7061],[17.9422,79.6895],[17.7482,79.5889],[17.7602,79.5006],[17.794,79.4309],[17.6326,79.3775],[17.6886,79.3633],[17.8708,79.3954],[18.0234,79.4592],[18.0635,79.5833],[18.1284,79.6057],[18.2729,79.6224],[18.4187,79.5883],[18.531,79.5765],[18.6888,79.5324],[18.7701,79.4902],[18.8641,79.3827],[18.8227,79.302],[18.7321,79.2738],[18.6411,79.2658],[18.6172,79.2343],[18.7953,79.2407],[18.9238,79.2094],[18.866,79.1525],[18.9857,79.1212],[19.1461,79.1344],[19.3002,79.1867],[19.3667,79.183],[19.5243,79.1405],[19.724,79.1337],[19.7786,79.0848],[19.7344,79.0644],[19.8826,79.055],[19.8976,79.0264],[19.839,79.0021],[20.0593,78.9782],[20.1193,79.0056],[20.3059,78.9885],[20.4524,78.9476],[20.7938,78.9028],[20.934,78.9015],[21.0522,78.8821],[21.0938,78.8502],[21.4982,78.8329],[21.3843,78.7634],[21.3243,78.704],[21.3723,78.6794],[21.1586,78.6764],[21.0805,78.6535],[20.97,78.6708],[20.9674,78.6977],[20.777,78.7096],[20.6345,78.6957],[20.4873,78.7206],[20.4579,78.6963],[20.2624,78.7029],[19.997,78.6239],[19.8442,78.6097],[19.6397,78.6105],[19.6273,78.5933],[19.347,78.5455],[19.1912,78.5574],[19.1567,78.5327],[18.8577,78.5237],[19.0315,78.4275],[19.0921,78.3417],[18.8473,78.3084],[19.0692,78.2381],[19.0615,78.2033],[18.87,78.1823],[19.0451,78.1118],[18.9411,78.0523],[18.7781,78.0316],[18.6345,78.0533],[18.3913,78.036],[18.3704,78.0253],[18.4749,77.9611],[18.3157,77.9088],[18.1651,77.9045],[18.2284,77.8608],[18.1824,77.8438],[18.4141,77.8292],[18.442,77.7518],[18.372,77.7129],[18.2447,77.6979],[18.3164,77.6781],[18.3512,77.6391],[18.2867,77.6015],[18.2899,77.5401],[18.2328,77.4998],[17.9608,77.5112],[17.9063,77.5419],[17.7006,77.5784],[17.6047,77.5238],[17.6853,77.4661],[17.5901,77.4523],[17.5991,77.4215],[17.4431,77.3995],[17.5675,77.3663],[17.4758,77.3374],[17.4688,77.3135],[17.303,77.2638],[17.4273,77.2313],[17.3739,77.2146],[17.4152,77.1812],[17.3078,77.1548],[17.3645,77.1307],[17.2814,77.0518],[17.0648,77.0629],[17.0602,77.0368],[17.159,77.0308],[17.2747,76.9881],[17.2783,76.9498],[17.2254,76.9397],[17.0764,76.8665],[16.875,76.8421],[16.7666,76.8002],[16.8292,76.7644],[17.0669,76.7602],[17.1529,76.7072],[17.0808,76.6833],[17.0625,76.64],[16.875,76.5862],[16.6874,76.56],[16.5365,76.5794],[16.4617,76.6069],[16.3689,76.5889],[16.3582,76.5643],[16.2552,76.5702],[16.3039,76.5967],[16.3245,76.6394],[16.3016,76.6736],[16.4176,76.6805],[16.3883,76.7084],[16.2221,76.7134],[16.0377,76.7394],[15.8467,76.7948],[15.7559,76.8084],[15.7288,76.8321],[15.6023,76.8637],[15.5216,76.8674],[15.5398,76.9066],[15.7289,76.9339],[15.9122,76.9458],[15.9391,76.9612],[16.0822,76.9767],[16.1927,76.969],[16.2688,76.9189],[16.362,76.9183],[16.2698,76.9684],[16.3818,76.9804],[16.5389,76.9739],[16.6652,77.036],[16.595,77.0625],[16.4993,77.0522],[16.3724,77.0665],[16.3586,77.0425],[16.2492,77.0186],[16.0809,77.021],[16.06,77.0695],[15.9885,77.0924],[15.9108,77.0547],[15.896,77.0177],[15.7801,77.0186],[15.7005,77.0004],[15.6121,77.0167],[15.5525,77.0004],[15.4005,76.9982],[15.1897,77.0229],[15.0304,77.11],[15.0774,77.1292],[14.7939,77.1727],[14.6281,77.1872],[14.3978,77.191],[14.3069,77.2394],[14.3177,77.277],[14.1937,77.2844],[14.1639,77.3283],[14.0708,77.3881],[13.9414,77.4197],[14.0732,77.4518],[14.0361,77.4792],[13.8732,77.4884],[13.9309,77.5403],[14.0941,77.5624],[14.3266,77.5792],[14.4801,77.5724],[14.5556,77.5487],[14.5678,77.5113],[14.6159,77.4947],[14.7704,77.501],[14.7608,77.5405],[14.9138,77.5479],[14.9893,77.5667],[15.1175,77.5389],[15.1887,77.5439],[15.4598,77.5207],[15.6642,77.5329],[15.8246,77.5217],[16.1238,77.438],[16.1643,77.401],[16.271,77.3907],[16.3029,77.4335],[16.4082,77.4642],[16.3797,77.476],[16.1275,77.4896],[16.0724,77.5131],[15.8816,77.5619],[15.7416,77.5758],[15.4519,77.5884],[15.2194,77.6071],[14.9894,77.6054],[14.7356,77.6457],[14.8396,77.6762],[15.0422,77.6864],[15.2088,77.715],[15.4006,77.7347],[15.7103,77.7419],[15.7788,77.7563],[15.9798,77.7575],[16.2809,77.782],[16.3338,77.8103],[16.4822,77.7939],[16.7591,77.8128],[16.9961,77.7856],[16.8078,77.8405],[16.7945,77.8671],[16.9548,77.9002],[16.9168,77.913],[16.7304,77.9024],[16.6463,77.8566],[16.2539,77.8502],[15.9893,77.8412],[15.8963,77.8261],[15.7038,77.8362],[15.6403,77.8488],[15.4891,77.8477],[15.3256,77.8654],[15.2202,77.8295],[15.0784,77.7986],[14.7207,77.7776],[14.6707,77.7631],[14.4345,77.7524],[14.2203,77.7678],[14.0487,77.7646],[13.9709,77.7404],[13.7285,77.7377],[13.7266,77.7705],[13.8199,77.8029],[13.7285,77.8334],[13.6492,77.8361],[13.6378,77.907],[13.6096,77.9487],[13.6421,77.9855],[13.5763,78.0481],[13.8274,78.0971],[13.9619,78.1026],[14.1173,78.0514],[14.2036,77.9858],[14.3003,77.986],[14.2177,78.0453],[14.1863,78.0988],[14.3386,78.1087],[14.484,78.1],[14.7871,78.1187],[14.9295,78.0995],[15.0217,78.1127],[14.9813,78.1426],[15.3407,78.2393],[15.415,78.2512],[15.5429,78.2471],[15.6069,78.2266],[15.7189,78.2437],[15.562,78.2853],[15.5907,78.3029],[15.8401,78.3508],[15.9782,78.3506],[16.1373,78.3627],[16.334,78.3507],[16.4602,78.3346],[16.8008,78.3369],[16.9412,78.3558],[17.0811,78.3912],[17.3769,78.4222],[17.3586,78.4556],[17.1375,78.4394],[16.7995,78.3885],[16.6119,78.4122],[16.5499,78.4476],[16.4179,78.4332],[16.3797,78.4622],[16.4489,78.4981],[16.4592,78.5335],[16.5403,78.5517],[16.5417,78.5775],[16.6466,78.5937],[16.7352,78.6399],[16.894,78.6379],[16.9001,78.6695],[16.63,78.6723],[16.5872,78.7094],[16.5031,78.7094],[16.427,78.6574],[16.355,78.6413],[16.3942,78.6104],[16.2477,78.5498],[16.1119,78.5271],[15.9845,78.4892],[15.481,78.4583],[15.3191,78.4968],[15.2678,78.5284],[15.2565,78.5993],[15.378,78.6133],[15.4811,78.6869],[15.5023,78.74],[15.4303,78.7534],[15.4443,78.8271],[15.2544,78.8156],[15.1604,78.7314],[15.1857,78.6778],[14.9731,78.6232],[14.9507,78.5907],[14.777,78.6519],[14.8643,78.6642],[14.834,78.7203],[14.7964,78.73]],[[10.7976,78.8743],[11.0046,78.8249],[10.8956,78.8034],[10.9636,78.7676],[11.1213,78.7616],[11.1873,78.7275],[11.0916,78.7163],[11.0252,78.6848],[11.1061,78.6405],[11.1042,78.6108],[11.2236,78.5956],[11.3013,78.5586],[11.4359,78.5483],[11.4636,78.5102],[11.5705,78.4704],[11.6709,78.4501],[11.864,78.4309],[11.8386,78.4042],[11.9446,78.3558],[11.9757,78.3197],[12.0618,78.2863],[12.1437,78.2069],[11.8591,78.2311],[11.7977,78.265],[11.8025,78.302],[11.6323,78.3436],[11.5654,78.3906],[11.4428,78.4101],[11.3258,78.4516],[11.2196,78.4595],[11.1564,78.4399],[11.0574,78.4546],[10.9758,78.5224],[10.9849,78.552],[10.8101,78.6465],[10.7454,78.6658],[10.6162,78.7437],[10.4934,78.7847],[10.5337,78.8112],[10.5382,78.8554],[10.4642,78.8959],[10.7976,78.8743]],[[12.1238,78.9654],[11.9843,78.987],[12.183,79.0045],[12.243,78.9891],[12.1238,78.9654]],[[10.9441,79.7247],[11.0839,79.6731],[10.9222,79.6468],[10.7823,79.6466],[10.7161,79.7179],[10.9441,79.7247]],[[10.8816,79.7665],[10.9554,79.737],[10.7699,79.739],[10.6559,79.7569],[10.7753,79.7836],[10.8816,79.7665]],[[18.4003,80.3538],[18.5835,80.3359],[18.6367,80.2695],[18.4548,80.2557],[18.1171,80.2928],[18.148,80.3216],[18.3199,80.3647],[18.4003,80.3538]],[[26.7188,78.7762],[26.8598,78.7334],[27.0262,78.7066],[26.9435,78.6621],[26.8275,78.6594],[26.4956,78.7199],[26.3771,78.8096],[26.5336,78.8387],[26.6266,78.8251],[26.7188,78.7762]],[[28.6879,78.9632],[28.9335,78.959],[28.9606,78.9192],[29.2231,78.901],[29.4232,78.9052],[29.6,78.9213],[29.6425,78.8931],[29.384,78.8812],[29.2939,78.8616],[29.1546,78.8549],[29.0123,78.8928],[28.8987,78.9103],[28.6849,78.9159],[28.5491,78.8939],[28.3656,78.8807],[28.1042,78.8298],[27.8219,78.8568],[28.0109,78.8759],[28.1401,78.9165],[28.4126,78.9293],[28.429,78.957],[28.6879,78.9632]],[[18.8003,79.9728],[18.7602,80.0186],[18.5363,80.0417],[18.3671,80.0387],[18.1316,80.0468],[18.0131,80.1257],[17.8425,80.1351],[17.8503,80.1641],[18.1378,80.1842],[18.192,80.1698],[18.4373,80.1907],[18.7136,80.1563],[18.7404,80.1789],[18.8505,80.1894],[19.0624,80.1275],[19.2398,80.0849],[19.3901,80.1078],[19.3933,80.1253],[19.5266,80.1618],[19.2292,80.1847],[19.0667,80.2699],[19.0792,80.2951],[19.0236,80.3479],[19.2528,80.3376],[19.3736,80.3047],[19.4073,80.2749],[19.6052,80.2195],[19.7719,80.218],[19.7047,80.253],[19.8316,80.2763],[19.8417,80.3006],[19.7202,80.3201],[19.8646,80.3606],[19.7494,80.3951],[19.5515,80.3843],[19.4535,80.4162],[19.4553,80.4474],[19.7073,80.5012],[19.8288,80.4721],[20.0443,80.4577],[20.0244,80.4337],[20.0885,80.3987],[20.3215,80.409],[20.4254,80.393],[20.4189,80.3651],[20.5536,80.3404],[20.5418,80.2922],[20.8202,80.3022],[20.8507,80.2047],[21.003,80.2085],[21.1975,80.2005],[21.2082,80.2204],[21.3991,80.2306],[21.4871,80.2631],[21.6776,80.2216],[21.6839,80.2593],[21.765,80.2707],[21.8816,80.2418],[21.8608,80.1967],[21.5932,80.1283],[21.6459,80.0981],[21.8533,80.1419],[21.9299,80.1158],[22.066,80.1169],[22.2148,79.9881],[22.3233,79.9954],[22.3576,80.0287],[22.5316,80.0538],[22.442,80.1038],[22.3914,80.1659],[22.49,80.1934],[22.4577,80.26],[22.6069,80.295],[22.404,80.3264],[22.3471,80.3821],[22.4213,80.4141],[22.5359,80.4238],[22.6552,80.4134],[22.6466,80.3401],[22.75,80.3375],[22.7488,80.3737],[22.8263,80.3893],[22.8592,80.4343],[22.7741,80.4912],[23.0087,80.464],[23.2706,80.4459],[23.3382,80.4248],[23.2947,80.3932],[23.1461,80.3911],[23.3164,80.3441],[23.3251,80.293],[23.2511,80.2586],[23.0623,80.2413],[23.0106,80.1563],[23.4873,80.1612],[23.6418,80.1507],[23.7841,80.1927],[23.7353,80.2169],[23.7569,80.2805],[23.8604,80.2632],[24.1483,80.2677],[24.1827,80.2975],[24.3284,80.3215],[24.1417,80.3358],[24.2276,80.362],[24.49,80.3514],[24.5808,80.3313],[24.4248,80.2674],[24.5837,80.2618],[24.6268,80.2865],[24.8882,80.2777],[24.8046,80.2473],[25.0631,80.2414],[25.2768,80.2712],[25.2717,80.2253],[25.5852,80.2152],[25.8345,80.1854],[25.7443,80.1579],[25.9969,80.1633],[26.0504,80.173],[26.3354,80.1731],[26.81,80.1455],[26.8765,80.1325],[26.9521,80.0777],[27.1197,80.0834],[27.2351,80.0538],[27.098,80.0076],[27.1245,79.9951],[27.1031,79.9153],[27.1908,79.8855],[27.1818,79.8474],[27.0075,79.7955],[26.8158,79.784],[26.6336,79.7503],[26.6032,79.7117],[26.4162,79.6813],[26.2046,79.6356],[25.7996,79.5926],[25.7016,79.5756],[25.6917,79.5248],[25.771,79.5157],[25.7776,79.4761],[25.6658,79.4406],[25.3527,79.37],[25.2068,79.3535],[25.0382,79.348],[24.9427,79.3592],[24.7776,79.3503],[24.6695,79.3334],[24.3173,79.3079],[24.0475,79.2665],[24.0512,79.2359],[23.9889,79.2071],[23.5927,79.2032],[23.2461,79.2201],[23.1394,79.2409],[22.9755,79.2414],[22.8359,79.2528],[22.7235,79.2984],[22.7632,79.3418],[22.8938,79.3534],[22.8607,79.3811],[22.4344,79.3875],[22.2494,79.3853],[21.9741,79.3544],[21.7554,79.3461],[21.5972,79.3643],[21.3614,79.3728],[20.9744,79.3499],[20.733,79.3616],[20.7804,79.3997],[20.6252,79.425],[20.4947,79.4276],[20.1279,79.462],[20.0705,79.458],[19.9637,79.5107],[19.8652,79.517],[19.6544,79.5951],[19.7785,79.6201],[20.1269,79.6283],[20.2784,79.6162],[20.389,79.5773],[20.582,79.5623],[20.8563,79.5661],[20.9956,79.5427],[21.1165,79.563],[20.9196,79.5989],[20.5941,79.6213],[20.4753,79.6644],[20.5357,79.6763],[21.1797,79.7056],[21.3736,79.708],[21.4974,79.6978],[21.8064,79.7148],[21.8154,79.7416],[21.5961,79.7808],[21.6442,79.8181],[21.4215,79.8223],[21.2485,79.8027],[20.8293,79.7911],[20.6606,79.8005],[20.6028,79.783],[20.4436,79.7887],[20.0091,79.7494],[19.7488,79.7495],[19.4862,79.7261],[19.5031,79.7529],[19.1762,79.7686],[18.9593,79.7643],[18.8783,79.7163],[18.7132,79.7248],[18.799,79.7456],[18.6687,79.797],[18.5018,79.796],[18.306,79.8242],[18.2457,79.8718],[18.1165,79.896],[18.2119,79.9365],[18.4246,79.9511],[18.6336,79.9551],[18.8003,79.9728]],[[28.1485,80.1167],[28.2609,80.1058],[28.1702,80.055],[28.0148,80.0494],[27.9342,80.0655],[27.8688,80.1119],[27.9773,80.1383],[28.1485,80.1167]],[[33.4904,80.2239],[33.4677,80.1852],[33.2967,80.1463],[32.8723,80.12],[32.2196,80.0967],[31.9844,80.0621],[31.6512,80.0409],[31.431,80.0827],[31.4433,80.1084],[31.545,80.1581],[31.6435,80.184],[32.0619,80.2355],[32.1294,80.2567],[32.3514,80.2846],[32.8328,80.315],[33.0491,80.3059],[33.2243,80.2771],[33.2621,80.2504],[33.4904,80.2239]],[[20.0542,79.361],[19.9776,79.3499],[19.6724,79.3368],[19.6616,79.4022],[19.813,79.3989],[20.0542,79.361]],[[19.9592,80.4714],[19.8629,80.5109],[20.0257,80.5341],[20.1338,80.5032],[19.9592,80.4714]],[[21.3832,80.6657],[21.1515,80.6527],[21.0806,80.6734],[21.2208,80.6924],[21.3832,80.6657]],[[20.8393,80.6576],[20.7513,80.6228],[20.5896,80.6326],[20.5019,80.6546],[20.6817,80.6673],[20.8393,80.6576]],[[24.2865,80.3742],[24.116,80.3883],[24.1699,80.4371],[24.2395,80.441],[24.3762,80.3917],[24.2865,80.3742]]]},"properties":{"mrgid":33181,"geoname":"Norwegian Exclusive Economic Zone (Svalbard)","mrgid_ter1":5334,"pol_type":"200NM","mrgid_sov1":2252,"territory1":"Svalbard","iso_ter1":"SJM","sovereign1":"Norway","mrgid_ter2":null,"mrgid_sov2":null,"territory2":null,"iso_ter2":null,"sovereign2":null,"mrgid_ter3":null,"mrgid_sov3":null,"territory3":null,"iso_ter3":null,"sovereign3":null,"x_1":18.30277,"y_1":78.7136,"mrgid_eez":33181,"area_km2":796819,"iso_sov1":"NOR","iso_sov2":null,"iso_sov3":null,"un_sov1":578,"un_sov2":null,"un_sov3":null,"un_ter1":744,"un_ter2":null,"un_ter3":null},"id":"eez.269"}
]}