{"type":"FeatureCollection", "features": [
{"type":"Feature","geometry":{"type":"Polygon","coordinates":[[[5.0338,61.0001],[5.0437,61.0613],[5.0857,61.0723],[5.2778,61.0675],[5.4059,61.0238],[5.5665,61.0658],[5.6506,61.1035],[5.6899,61.0918],[5.8918,61.1299],[5.985,61.1297],[6.0823,61.1079],[6.1915,61.1153],[6.2864,61.0995],[6.3417,61.0703],[6.4331,61.0704],[6.5416,61.1043],[6.5891,61.0911],[6.6311,61.1736],[6.7048,61.1502],[6.8506,61.1462],[6.8812,61.0894],[7.0478,61.0607],[7.042,61.1041],[7.1966,61.1159],[7.2477,61.1475],[7.3849,61.1225],[7.4578,61.1775],[7.4204,61.2007],[7.3783,61.2681],[7.3301,61.2679],[7.3544,61.1969],[7.3308,61.1572],[7.196,61.1687],[7.1521,61.1441],[6.96,61.1147],[6.9112,61.1616],[6.8411,61.186],[6.7122,61.1835],[6.599,61.2069],[6.5286,61.1971],[6.5446,61.1403],[6.4753,61.1158],[6.3579,61.1136],[6.2037,61.1652],[6.0532,61.1462],[5.9776,61.1708],[5.6116,61.1435],[5.5653,61.1156],[5.4179,61.073],[5.3458,61.1027],[5.2456,61.1042],[5.2255,61.1274],[5.1035,61.1676],[5.1289,61.2054],[5.0049,61.248],[4.9791,61.2847],[5.0697,61.3026],[5.2231,61.3064],[5.1745,61.3519],[5.0795,61.3221],[4.9766,61.4217],[5.0747,61.4515],[5.3272,61.4626],[5.3515,61.489],[5.2448,61.4991],[5.1673,61.5243],[5.3354,61.5521],[5.1028,61.6401],[5.0062,61.6283],[4.9671,61.6785],[4.9682,61.7248],[5.1557,61.809],[5.3092,61.8272],[5.2932,61.8698],[5.4307,61.9181],[5.7072,61.8851],[5.8199,61.8428],[5.9085,61.8595],[6.0358,61.8459],[6.1287,61.8143],[6.1641,61.8351],[6.0374,61.8766],[5.8523,61.8748],[5.8069,61.8572],[5.7329,61.8956],[5.5984,61.9239],[5.4299,61.9385],[5.3219,61.9096],[5.1362,61.9301],[5.2048,61.9717],[5.3172,61.991],[5.3542,62.0375],[5.3124,62.0761],[5.2325,62.1046],[5.1166,62.101],[5.0929,62.1859],[5.1988,62.2123],[5.31,62.1687],[5.3193,62.1202],[5.4872,62.0435],[5.5436,62.1021],[5.4416,62.104],[5.4029,62.1291],[5.4353,62.1753],[5.494,62.1996],[5.5637,62.1679],[5.7268,62.1722],[5.8034,62.1992],[5.882,62.2022],[5.9494,62.1593],[6.1189,62.0803],[6.135,62.1053],[6.0053,62.1702],[5.98,62.2697],[6.2225,62.3557],[6.3281,62.377],[6.4668,62.2527],[6.4411,62.3333],[6.4039,62.3582],[6.4533,62.402],[6.5541,62.3928],[6.6092,62.4314],[6.7245,62.4528],[6.7503,62.4354],[6.9426,62.4272],[6.8753,62.4604],[6.7743,62.4593],[6.7075,62.4747],[6.5371,62.4355],[6.3489,62.4322],[6.375,62.4775],[6.547,62.5167],[6.4508,62.5328],[6.2883,62.5428],[6.2578,62.5846],[6.3355,62.6145],[6.3871,62.6062],[6.6294,62.629],[6.7702,62.6556],[6.8843,62.6104],[6.9096,62.6466],[7.0862,62.6511],[7.2188,62.6133],[7.359,62.6077],[7.4017,62.6329],[7.6214,62.6933],[7.8727,62.7365],[7.874,62.7628],[7.5012,62.6871],[7.4032,62.7051],[7.4532,62.7705],[7.1843,62.7361],[6.9817,62.7242],[6.9697,62.78],[7.0106,62.8238],[7.1847,62.8175],[7.1354,62.8513],[7.0082,62.8378],[6.9462,62.9335],[7.0745,62.9682],[7.1038,62.9899],[7.3031,63.0111],[7.3161,62.9802],[7.4162,62.9586],[7.486,62.9075],[7.5385,62.9123],[7.6868,62.9692],[7.8389,62.9511],[7.9728,62.9733],[8.0371,62.9675],[8.12,62.9212],[8.0923,62.8893],[8.142,62.8204],[8.2642,62.7804],[8.3135,62.7848],[8.4174,62.7309],[8.5436,62.7295],[8.1976,62.8268],[8.1505,62.8908],[8.137,62.9472],[8.0002,62.9999],[7.9032,62.9892],[7.8863,63.0253],[7.9793,63.0492],[7.9809,63.0894],[8.0903,63.111],[8.1284,63.0914],[8.134,63.0346],[8.3343,62.965],[8.2934,62.9334],[8.4556,62.8471],[8.542,62.8792],[8.4747,62.9019],[8.4221,62.948],[8.3071,63.0086],[8.2211,63.0293],[8.234,63.0674],[8.1596,63.1239],[8.2773,63.1495],[8.3717,63.1331],[8.5637,63.1344],[8.6278,63.189],[8.5515,63.2536],[8.536,63.3],[8.7476,63.336],[8.652,63.3909],[8.768,63.4272],[8.8872,63.4139],[9.0869,63.4412],[9.1535,63.3766],[9.1208,63.349],[9.2458,63.3396],[9.1959,63.3946],[9.1647,63.4833],[9.2188,63.5175],[9.3189,63.5291],[9.3928,63.5596],[9.5589,63.5704],[9.5306,63.601],[9.7479,63.6472],[9.7578,63.5854],[9.832,63.5417],[9.8098,63.5157],[9.9053,63.4647],[9.9794,63.4422],[9.9433,63.3737],[10.1685,63.3112],[10.2065,63.3466],[10.1095,63.3532],[10.0575,63.384],[10.1151,63.4242],[10.2307,63.4539],[10.381,63.4323],[10.4493,63.4574],[10.5245,63.4315],[10.6426,63.4437],[10.8455,63.436],[10.7526,63.5101],[10.8508,63.5749],[10.6731,63.582],[10.7153,63.6174],[10.8449,63.639],[10.9533,63.7008],[11.1895,63.7115],[11.2093,63.7563],[11.2956,63.7537],[11.4481,63.8034],[11.4382,63.8325],[11.3288,63.8366],[11.3033,63.8733],[11.0946,63.839],[11.078,63.8879],[11.2044,63.919],[11.2837,63.9763],[11.3254,63.9685],[11.4936,64.005],[11.4413,64.0248],[11.284,64.0367],[11.0323,63.9604],[10.9725,63.8962],[11.0429,63.8809],[11.0711,63.8423],[10.9253,63.7343],[10.6211,63.6704],[10.6059,63.6475],[10.4105,63.5688],[10.2325,63.5557],[10.1263,63.5015],[9.9875,63.4873],[9.9291,63.5077],[9.897,63.5639],[9.8064,63.6274],[9.8156,63.6844],[10.006,63.7142],[10.0354,63.7629],[9.9341,63.7539],[9.8485,63.7188],[9.6645,63.6768],[9.575,63.6811],[9.6044,63.7577],[9.5696,63.7796],[9.6324,63.8264],[9.7501,63.8639],[9.8183,63.866],[9.9399,63.9132],[10.0092,64.0054],[10.07,64.0427],[10.0147,64.0844],[10.1186,64.1251],[10.2025,64.2032],[10.2867,64.2073],[10.296,64.2473],[10.3634,64.284],[10.4473,64.2985],[10.4555,64.3524],[10.5261,64.3754],[10.6257,64.4507],[10.7772,64.509],[10.8984,64.4967],[10.9647,64.5479],[10.9048,64.5797],[10.9696,64.6075],[11.0751,64.5601],[11.1161,64.5215],[11.2337,64.4538],[11.4466,64.4334],[11.4462,64.5078],[11.534,64.5222],[11.3471,64.5605],[11.4103,64.6481],[11.3807,64.6695],[11.4259,64.7097],[11.5187,64.7287],[11.5708,64.7664],[11.7804,64.775],[11.6404,64.8374],[11.4852,64.808],[11.2871,64.8055],[11.2488,64.8259],[11.2801,64.8662],[11.395,64.9171],[11.5948,64.9777],[11.6466,65.0079],[11.7302,65.0045],[11.7589,65.0473],[11.8606,65.1168],[12.0118,65.167],[12.054,65.1081],[12.1209,65.1553],[12.1121,65.1845],[12.2013,65.2135],[12.3038,65.1615],[12.3312,65.0821],[12.5157,65.1202],[12.6468,65.1597],[12.7925,65.2246],[12.859,65.2752],[12.9594,65.313],[12.9431,65.3327],[12.754,65.2276],[12.494,65.1341],[12.3517,65.1585],[12.446,65.2221],[12.3109,65.2578],[12.0941,65.2358],[12.1427,65.3042],[12.085,65.3046],[12.2037,65.418],[12.1974,65.4606],[12.255,65.5357],[12.3258,65.5395],[12.4849,65.4609],[12.6132,65.4327],[12.6448,65.4478],[12.5639,65.5036],[12.4045,65.5367],[12.3484,65.6278],[12.4952,65.7351],[12.5819,65.7667],[12.598,65.8252],[12.6818,65.9293],[12.8421,65.9759],[12.9217,65.9413],[13.0309,65.9249],[13.0705,65.891],[13.171,65.9097],[12.9945,65.9484],[12.9459,66.0011],[12.9542,66.0487],[12.7337,66.0518],[12.6728,66.0662],[12.8313,66.129],[13.0741,66.1578],[13.2312,66.1859],[13.3226,66.227],[13.3942,66.2193],[13.7726,66.246],[13.9278,66.2362],[14.1128,66.3061],[13.9361,66.3025],[13.8703,66.2761],[13.6164,66.2408],[13.557,66.2706],[13.3854,66.2376],[13.3176,66.2504],[13.187,66.2009],[13.067,66.1779],[13.0346,66.2022],[13.1919,66.2777],[13.0075,66.3311],[13.0076,66.3611],[13.1581,66.4117],[13.1099,66.4621],[12.9903,66.5165],[13.1875,66.5668],[13.2581,66.625],[13.1844,66.6561],[13.3057,66.672],[13.2752,66.7351],[13.4002,66.7341],[13.573,66.7099],[13.5008,66.8051],[13.6417,66.8142],[13.7206,66.8353],[13.7189,66.8662],[13.6308,66.9082],[13.5344,66.9036],[13.5461,66.9551],[13.7402,66.9481],[13.7557,66.9837],[13.8641,66.9836],[14.1017,67.0585],[14.1239,67.0184],[14.2376,66.9977],[14.3162,67.0696],[14.2982,67.1051],[14.3525,67.2091],[14.4984,67.2389],[14.7139,67.213],[14.8267,67.2412],[14.9084,67.2305],[15.094,67.2359],[15.219,67.2215],[15.3001,67.1921],[15.3851,67.2567],[15.2544,67.2703],[15.1723,67.2537],[15.1594,67.3297],[15.037,67.3217],[14.9904,67.2969],[14.8639,67.2973],[14.8528,67.2715],[14.7181,67.2616],[14.7148,67.3036],[14.5909,67.2768],[14.3953,67.2887],[14.4857,67.3356],[14.6321,67.3854],[14.6514,67.4769],[14.9308,67.576],[15.0804,67.5934],[15.1994,67.5314],[15.2838,67.5096],[15.408,67.5004],[15.4791,67.4789],[15.5488,67.374],[15.6101,67.3886],[15.5168,67.4456],[15.5229,67.51],[15.4565,67.5351],[15.2917,67.5345],[15.2116,67.5611],[15.2402,67.6169],[15.1612,67.6348],[15.2616,67.7178],[15.3149,67.7386],[15.519,67.7695],[15.4218,67.8151],[15.3106,67.7919],[15.2066,67.7381],[15.0609,67.6896],[14.9507,67.6658],[14.7656,67.6582],[14.735,67.6758],[14.8948,67.712],[14.8924,67.7362],[15.0179,67.759],[14.962,67.7845],[14.8661,67.7768],[14.7467,67.8191],[14.8735,67.8796],[15.0006,67.9059],[15.2748,67.886],[15.4424,67.9295],[15.7354,67.97],[15.8711,67.9405],[15.9571,67.9797],[15.9439,68.026],[15.5897,68.0449],[15.5335,68.0607],[15.3866,68.0009],[15.3166,68.0151],[15.2841,68.0645],[15.3889,68.1329],[15.5707,68.1533],[15.6201,68.1887],[15.7249,68.1602],[15.7292,68.1195],[15.8451,68.1114],[15.8876,68.1721],[15.9624,68.2228],[15.929,68.26],[16.0591,68.2548],[16.1042,68.218],[16.0366,68.1807],[16.1378,68.1679],[16.0662,68.0504],[16.1556,68.0273],[16.3573,68.0278],[16.3692,68.091],[16.282,68.1179],[16.3691,68.1715],[16.477,68.1805],[16.4786,68.2207],[16.355,68.2254],[16.2248,68.2786],[16.1765,68.3235],[16.2966,68.3215],[16.4514,68.2973],[16.5705,68.2579],[16.6211,68.2793],[16.2818,68.3353],[16.2741,68.375],[16.4932,68.4105],[16.7639,68.4196],[16.8861,68.3913],[16.9104,68.3456],[17.0267,68.3564],[17.1365,68.3938],[17.2441,68.3932],[17.3918,68.4453],[17.5599,68.5195],[17.4235,68.5231],[17.2883,68.4721],[17.0439,68.4498],[17.0672,68.5038],[16.9396,68.5143],[16.8597,68.4681],[16.5116,68.4463],[16.531,68.4813],[16.4499,68.5071],[16.4636,68.5376],[16.5542,68.5568],[16.566,68.6091],[16.6178,68.6441],[16.7985,68.6862],[16.8971,68.6852],[16.9565,68.7133],[17.1155,68.7163],[17.2615,68.7365],[17.3223,68.7834],[17.4712,68.8319],[17.6099,68.8907],[17.4577,68.8933],[17.4754,68.9899],[17.5517,69.0335],[17.6802,69.0783],[17.6447,69.108],[17.7878,69.116],[17.9274,69.1452],[18.0847,69.158],[18.0525,69.1817],[18.0892,69.2266],[18.0072,69.2314],[17.9859,69.2756],[18.1108,69.3629],[18.1661,69.3843],[18.1895,69.4593],[18.2707,69.4835],[18.3716,69.456],[18.3548,69.4103],[18.4803,69.3782],[18.4888,69.3409],[18.6141,69.2976],[18.7215,69.3482],[18.6082,69.3794],[18.5973,69.4044],[18.455,69.4557],[18.4567,69.5128],[18.8529,69.5547],[18.9114,69.4502],[18.9979,69.4217],[18.9898,69.3894],[19.1077,69.3463],[19.2932,69.3448],[19.3374,69.2937],[19.2358,69.249],[19.2628,69.2245],[19.4181,69.2544],[19.4147,69.3163],[19.3518,69.3651],[19.2718,69.38],[19.1167,69.3749],[19.0545,69.4331],[18.9686,69.4636],[19.0325,69.5198],[18.9416,69.5673],[18.9471,69.6264],[19.0683,69.686],[19.0936,69.7336],[19.2747,69.7792],[19.3684,69.7748],[19.6806,69.8175],[19.7333,69.8045],[19.6539,69.6609],[19.8334,69.6226],[19.7965,69.7136],[19.8526,69.7722],[19.9587,69.7821],[20.1089,69.8968],[20.2872,69.9775],[20.3966,69.8878],[20.302,69.7562],[20.2729,69.6594],[20.352,69.6382],[20.3168,69.5882],[20.2224,69.5762],[20.2448,69.4744],[20.1718,69.46],[20.1412,69.3964],[20.0585,69.3759],[19.9031,69.276],[19.9586,69.2765],[20.0257,69.3342],[20.257,69.4139],[20.3238,69.4584],[20.4608,69.6435],[20.5295,69.7089],[20.4864,69.7473],[20.65,69.7907],[20.7095,69.7924],[20.7923,69.8465],[20.7505,69.8691],[20.8752,69.9202],[20.9043,69.831],[20.9718,69.7813],[21.0472,69.7939],[21.0412,69.8748],[21.1882,69.8955],[21.1858,69.9356],[21.2429,70.0098],[21.4451,70.0109],[21.5255,69.9816],[21.6001,69.9067],[21.7636,69.8801],[21.9281,69.7802],[22.0062,69.8614],[21.9083,69.8745],[21.8399,70.0143],[21.5927,70.0837],[21.471,70.0951],[21.4056,70.1441],[21.2763,70.1641],[21.1885,70.2182],[21.3004,70.2566],[21.4186,70.2734],[21.5151,70.3175],[21.6082,70.2626],[21.7611,70.2176],[21.7888,70.2663],[21.9499,70.3295],[22.1496,70.2881],[22.2992,70.2766],[22.6138,70.2228],[22.9606,70.197],[22.9754,70.0439],[23.1029,70.0025],[23.1341,69.9664],[23.2431,69.9659],[23.2906,69.993],[23.4109,69.9675],[23.5021,70.0251],[23.364,70.0207],[23.2399,70.0434],[23.1342,70.0845],[23.3801,70.1175],[23.2075,70.2004],[23.3266,70.2274],[23.2505,70.2522],[23.3739,70.2808],[23.4465,70.3318],[23.5795,70.3894],[23.78,70.4527],[23.8031,70.4795],[23.9545,70.5101],[24.2653,70.4802],[24.2502,70.5087],[24.1042,70.5543],[24.2074,70.6034],[24.2417,70.6591],[24.3132,70.6885],[24.4469,70.684],[24.5635,70.6465],[24.692,70.6273],[24.5039,70.7459],[24.2419,70.778],[24.2605,70.8496],[24.3506,70.8774],[24.5158,70.8118],[24.5568,70.862],[24.5351,70.9667],[24.622,70.9901],[24.7645,70.9623],[24.8458,70.916],[25.049,70.9496],[24.9129,70.8794],[24.9883,70.8698],[25.1126,70.9323],[25.1948,70.8999],[25.2506,70.8207],[25.3274,70.827],[25.3941,70.8954],[25.3033,70.9707],[25.433,70.9622],[25.5974,70.9041],[25.7872,70.8971],[25.7887,70.9728],[25.5499,70.9324],[25.4572,70.9768],[25.4823,71.037],[25.2741,71.0175],[25.2744,71.0863],[25.6102,71.1199],[25.5687,71.1446],[25.6623,71.1785],[25.7768,71.1725],[25.3387,71.3795],[24.6916,71.6852],[24.0444,71.991],[23.3973,72.2967],[22.7501,72.6025],[22.103,72.9082],[21.4558,73.214],[20.8087,73.5197],[20.1615,73.8255],[19.5371,74.1205],[18.9713,74.3867],[18.8283,74.4304],[18.786,74.4842],[18.8299,74.5025],[19.0922,74.5195],[18.6207,74.9262],[18.3493,75.1602],[17.8066,75.6283],[17.2638,76.0964],[16.7211,76.5645],[16.6899,76.5604],[16.5013,76.5191],[16.4888,76.5164],[16.2735,76.4693],[16.0956,76.4304],[15.8429,76.3751],[15.6955,76.3429],[15.52,76.3045],[15.3988,76.278],[15.2811,76.2523],[15.2501,76.2455],[15.1735,76.2287],[15.1717,76.2283],[15.0614,76.2042],[14.966,76.1833],[14.8506,76.1581],[14.7476,76.1355],[14.6192,76.1075],[14.5264,76.0872],[14.42,76.0639],[14.3246,76.043],[14.0971,75.9933],[13.9921,75.9703],[13.9659,75.9646],[13.7289,75.9127],[13.6485,75.8952],[13.5662,75.8771],[13.5353,75.8704],[13.3035,75.8197],[13.2124,75.7998],[13.0769,75.7701],[12.9881,75.7507],[12.8687,75.7246],[12.7818,75.7056],[12.6533,75.6775],[12.543,75.6533],[12.5377,75.6522],[12.4393,75.6307],[12.2136,75.5813],[12.1124,75.5592],[12.066,75.549],[11.9813,75.5305],[11.9796,75.5301],[11.7895,75.4885],[11.642,75.4563],[11.5506,75.4363],[11.5342,75.4327],[11.3532,75.3931],[11.2038,75.3604],[11.1201,75.3421],[10.9797,75.3114],[10.8976,75.2934],[10.8292,75.2785],[10.7683,75.2652],[10.7652,75.2645],[10.639,75.2369],[10.3876,75.1819],[10.1345,75.1265],[9.9921,75.0954],[9.8632,75.0672],[9.7385,75.0399],[9.7343,75.039],[9.6709,75.0251],[9.4753,74.9824],[9.3352,74.9517],[9.2363,74.9301],[9.1335,74.9076],[9.1135,74.9032],[8.9205,74.861],[8.836,74.8425],[8.6369,74.799],[8.441,74.7561],[8.2004,74.7035],[8.1601,74.6947],[7.9737,74.6539],[7.8307,74.6226],[7.513,74.5532],[7.4111,74.5309],[7.3218,74.5113],[7.1617,74.4763],[7.056,74.4532],[6.746,74.3854],[6.5961,74.3526],[6.5142,74.3347],[6.3121,74.2905],[6.1606,74.2574],[5.8434,74.188],[5.7374,74.1648],[5.6523,74.1462],[5.5071,74.1144],[5.3771,74.086],[5.0887,74.0229],[4.9766,73.9984],[4.8276,73.9658],[4.6333,73.9233],[4.5033,73.8948],[4.1666,73.8212],[4.0801,73.8023],[4,73.7848],[4,61],[4.5799,61],[4.5827,61],[4.5877,61],[4.5892,61],[4.5951,61],[4.6006,61],[4.655,61],[4.6553,61],[4.6698,61],[4.6707,61],[4.674,61],[4.6398,61.0608],[4.7015,61.0887],[4.7477,61.016],[4.7333,61],[4.9233,61],[5.0125,61],[5.0338,61.0001]],[[24.7284,71.1148],[24.8295,71.0959],[24.7342,71.0288],[24.6037,71.0654],[24.7284,71.1148]],[[24.0653,71.0277],[24.1456,71.0007],[24.2165,70.9464],[24.0819,70.9175],[23.9254,70.9323],[23.8659,70.9999],[23.9307,71.0323],[24.0653,71.0277]],[[23.3195,70.8719],[23.3713,70.832],[23.4994,70.7987],[23.4009,70.7794],[23.4019,70.7407],[23.2076,70.6751],[23.0659,70.5704],[22.9322,70.529],[22.6217,70.5153],[22.4855,70.5221],[22.3378,70.486],[22.2405,70.51],[22.2266,70.5436],[22.291,70.5916],[22.2251,70.6116],[22.0004,70.5874],[22.0455,70.6269],[22.2229,70.6386],[22.4525,70.6764],[22.5367,70.7205],[22.6378,70.6947],[22.6798,70.6578],[22.8105,70.6469],[22.6788,70.7441],[22.7962,70.7714],[22.9405,70.7286],[23.0071,70.6885],[23.1133,70.742],[23.0161,70.7874],[23.0737,70.8194],[23.2825,70.7838],[23.3195,70.8719]],[[23.7204,70.7482],[23.8166,70.7223],[23.9872,70.7036],[24.115,70.6419],[24.1291,70.602],[23.9967,70.5251],[23.8967,70.5056],[23.7362,70.5227],[23.6587,70.6268],[23.6874,70.6701],[23.6231,70.698],[23.7204,70.7482]],[[23.5978,70.5072],[23.639,70.4384],[23.37,70.3462],[23.3297,70.3034],[23.1739,70.2732],[23.057,70.2945],[23.0394,70.3268],[22.8904,70.3634],[22.8663,70.4456],[23.0203,70.5042],[23.1574,70.514],[23.1425,70.5493],[23.3642,70.5523],[23.4519,70.5653],[23.4599,70.6282],[23.5879,70.5825],[23.5307,70.5261],[23.5978,70.5072]],[[22.9773,70.2872],[22.9859,70.2376],[22.7418,70.2464],[22.5654,70.2614],[22.399,70.2959],[22.3438,70.3431],[22.5399,70.3806],[22.685,70.3928],[22.8006,70.3804],[22.9773,70.2872]],[[21.8097,70.3499],[21.7779,70.2965],[21.6789,70.2809],[21.6948,70.3443],[21.8097,70.3499]],[[20.19,70.3105],[20.2875,70.2518],[20.2001,70.2264],[20.19,70.3105]],[[20.6836,70.2328],[20.7988,70.2141],[20.8096,70.1858],[20.7529,70.0929],[20.8015,70.0536],[20.6348,70.0537],[20.5625,70.0318],[20.3754,70.0711],[20.375,70.1432],[20.4234,70.1785],[20.5152,70.1929],[20.5498,70.2259],[20.6836,70.2328]],[[20.8304,70.0669],[20.7691,70.1122],[20.821,70.1502],[20.9314,70.0987],[20.8304,70.0669]],[[21.0324,70.0041],[20.9492,69.9474],[20.7871,69.9327],[20.7131,70.0042],[20.8477,70.0311],[20.931,69.9826],[21.0324,70.0041]],[[20.7187,69.913],[20.6938,69.8114],[20.5598,69.7877],[20.5167,69.8435],[20.5511,69.8924],[20.7187,69.913]],[[19.8527,69.9918],[19.8831,69.9731],[19.7856,69.9248],[19.7216,69.8548],[19.4068,69.8403],[19.5216,69.9192],[19.6231,69.9381],[19.774,70.0074],[19.8527,69.9918]],[[19.4838,69.9337],[19.3567,69.8277],[19.2376,69.7966],[19.0685,69.7903],[18.9948,69.841],[18.8773,69.8822],[18.7056,69.9226],[18.7362,69.9612],[18.8301,69.9498],[18.8141,70.0114],[18.9724,70.0318],[19.0963,70.0794],[19.1854,70.0903],[19.3948,70.0333],[19.5347,70.0446],[19.6738,69.9982],[19.6239,69.9617],[19.4838,69.9337]],[[19.0421,69.7844],[19.0495,69.7629],[18.9272,69.7022],[18.7839,69.6805],[18.7338,69.6426],[18.8159,69.6129],[18.7642,69.5644],[18.6294,69.575],[18.5682,69.5497],[18.2114,69.5191],[18.1023,69.5572],[18.0124,69.5624],[18.0597,69.6223],[18.1655,69.6326],[18.218,69.6602],[18.1872,69.7095],[18.3452,69.6867],[18.3033,69.7749],[18.5403,69.7792],[18.7052,69.7169],[18.7202,69.7713],[18.7709,69.8005],[18.6624,69.8267],[18.7058,69.881],[18.9964,69.8187],[19.0421,69.7844]],[[17.9865,69.5171],[18.069,69.4891],[18.0205,69.4427],[18.0816,69.4271],[18.0794,69.3504],[17.9333,69.3393],[17.8789,69.3183],[17.9641,69.2578],[17.9317,69.2334],[17.9597,69.1764],[17.8378,69.1581],[17.7308,69.169],[17.3922,69.1516],[17.2743,69.1123],[17.1712,69.0559],[17.1521,69.0134],[17.0428,69.0077],[17.0329,69.0699],[16.795,69.0533],[16.7821,69.0993],[16.8284,69.1242],[17.0572,69.1388],[17.0696,69.1693],[16.9825,69.1905],[16.912,69.2365],[16.9685,69.2754],[16.8986,69.3137],[17.0398,69.3314],[16.944,69.363],[16.9831,69.3945],[17.2702,69.4128],[17.3912,69.4342],[17.2253,69.4654],[17.4043,69.4851],[17.3465,69.5388],[17.6578,69.4677],[17.4647,69.5734],[17.5163,69.5911],[17.6775,69.5269],[17.8821,69.5797],[17.9865,69.5171]],[[17.5347,69.0894],[17.5554,69.0668],[17.4141,68.9937],[17.3507,69.0318],[17.4161,69.0799],[17.5347,69.0894]],[[16.397,68.9801],[16.4326,68.9626],[16.6191,68.9594],[16.6431,68.9351],[16.5664,68.8748],[16.4689,68.8815],[16.3507,68.9374],[16.2533,68.96],[16.3053,68.9909],[16.397,68.9801]],[[17.2308,68.9291],[17.3848,68.9182],[17.4879,68.876],[17.4557,68.8551],[17.2609,68.7965],[17.184,68.8057],[17.1705,68.8491],[17.0983,68.9081],[17.2308,68.9291]],[[17.1319,68.8009],[17.1353,68.7518],[16.8331,68.7303],[17.0325,68.8674],[17.1319,68.8009]],[[16.5935,68.7211],[16.6041,68.6729],[16.5141,68.5657],[16.2466,68.5646],[16.1038,68.5243],[16.0937,68.4852],[16.0125,68.4481],[16.0098,68.4132],[15.8748,68.3797],[15.8386,68.407],[15.7213,68.3828],[15.6567,68.309],[15.4015,68.3524],[15.1533,68.3257],[15.0982,68.2906],[14.98,68.2733],[15.1121,68.4033],[15.2579,68.4796],[15.1781,68.533],[15.2467,68.5788],[15.3697,68.5976],[15.5054,68.6442],[15.4377,68.7088],[15.4724,68.8046],[15.6008,68.8369],[15.6439,68.9535],[15.9017,68.9667],[15.9602,68.8886],[15.9097,68.8426],[15.9565,68.7979],[16.0799,68.7492],[16.1647,68.7336],[16.2413,68.7589],[16.1235,68.7842],[16.0874,68.8219],[16.1961,68.8654],[16.3472,68.8808],[16.4899,68.8222],[16.5521,68.8145],[16.5935,68.7211]],[[16.3361,68.5561],[16.4349,68.5083],[16.4372,68.4273],[16.2655,68.4223],[16.1548,68.3874],[16.0774,68.417],[16.2309,68.5443],[16.3361,68.5561]],[[14.3776,68.1906],[14.2093,68.1697],[14.2143,68.2328],[14.2725,68.2467],[14.3424,68.3445],[14.4067,68.3834],[14.6565,68.4385],[14.8923,68.4318],[15.0682,68.4635],[15.1947,68.4644],[15.0516,68.3728],[14.7925,68.2775],[14.5469,68.2375],[14.4626,68.1988],[14.3776,68.1906]],[[13.8435,68.1419],[13.8613,68.1254],[13.5853,68.0883],[13.4617,68.0858],[13.5272,68.1489],[13.4882,68.2087],[13.5643,68.2818],[13.6597,68.3116],[13.7513,68.2879],[13.8381,68.2946],[13.8654,68.3376],[13.9664,68.348],[14.0153,68.3216],[14.1534,68.3468],[14.273,68.2998],[14.2467,68.2639],[14.1631,68.253],[14.0149,68.1897],[13.9009,68.1815],[13.8435,68.1419]],[[13.3984,68.0539],[13.393,68.0321],[13.2603,68.001],[13.1667,68.0454],[13.2968,68.131],[13.3253,68.1707],[13.4614,68.14],[13.3984,68.0539]],[[15.2235,68.0403],[15.2878,67.9668],[15.1917,67.967],[15.1611,67.9962],[15.2235,68.0403]],[[15.4983,67.999],[15.677,68.0363],[15.8752,68.0267],[15.8426,67.9801],[15.7506,68.0039],[15.6469,67.9873],[15.4983,67.999]],[[15.1414,67.9608],[15.2806,67.9356],[15.1686,67.9103],[14.9644,67.9141],[14.9957,67.975],[15.1414,67.9608]],[[13.0463,67.8968],[12.9063,67.8556],[12.8443,67.9016],[12.8978,67.922],[12.9236,67.9818],[13.0735,68.1026],[13.1947,68.1018],[13.1538,68.0442],[13.1673,67.9629],[13.0699,67.9511],[13.0463,67.8968]],[[14.7232,68.4922],[14.6121,68.5621],[14.6674,68.5852],[14.7952,68.5803],[14.9782,68.5573],[14.9014,68.4995],[14.7232,68.4922]],[[14.8486,68.5898],[14.8731,68.6581],[14.6794,68.6626],[14.6472,68.6324],[14.5491,68.6098],[14.4386,68.6139],[14.4386,68.6596],[14.3771,68.6904],[14.4812,68.7465],[14.4504,68.7677],[14.537,68.8041],[14.625,68.8005],[14.6947,68.7678],[14.8592,68.7934],[14.9456,68.79],[14.9054,68.852],[15.0198,68.8369],[15.0902,68.8908],[15.0171,68.9381],[15.0178,68.9918],[15.1075,69.0196],[15.1824,69.0124],[15.177,68.9301],[15.2908,68.9191],[15.2885,68.8671],[15.393,68.8425],[15.37,68.8003],[15.2795,68.7544],[15.4063,68.733],[15.4153,68.687],[15.327,68.6524],[15.0822,68.5976],[15.0379,68.578],[14.8486,68.5898]],[[14.8856,68.8727],[14.8658,68.9142],[14.9782,68.9258],[15.0031,68.8902],[14.8856,68.8727]],[[15.4868,69.0238],[15.5609,69.1016],[15.6657,69.1381],[15.8132,69.1632],[15.858,69.2429],[15.991,69.2898],[16.1303,69.3131],[16.1811,69.2802],[16.1213,69.2441],[16.0865,69.1522],[15.9212,69.0825],[15.8771,69.027],[15.7149,68.986],[15.6034,68.9796],[15.5259,68.8904],[15.4183,68.8977],[15.4254,68.9761],[15.4868,69.0238]],[[18.6785,69.9969],[18.6516,70.0395],[18.709,70.0748],[18.7113,70.119],[18.855,70.0856],[18.928,70.0481],[18.7615,70.0235],[18.6785,69.9969]],[[19.0554,70.1356],[18.9814,70.1507],[19.125,70.1996],[19.099,70.243],[19.2204,70.2498],[19.257,70.1762],[19.1979,70.1172],[19.0554,70.1356]],[[19.5722,70.2679],[19.7326,70.2282],[19.7631,70.1589],[19.9128,70.1918],[19.9226,70.148],[20.1269,70.099],[19.9694,70.0522],[19.744,70.0564],[19.6725,70.1581],[19.5952,70.2044],[19.5222,70.2156],[19.5722,70.2679]],[[19.3545,70.1168],[19.3633,70.1562],[19.579,70.1166],[19.5001,70.0935],[19.3545,70.1168]],[[14.3727,67.4416],[14.3804,67.3924],[14.2148,67.3745],[14.3727,67.4416]],[[14.2729,67.1993],[14.2795,67.1504],[14.2109,67.103],[14.2328,67.0238],[14.1474,67.0328],[14.1298,67.0683],[14.0085,67.0921],[14.0436,67.1402],[14.1999,67.1377],[14.2729,67.1993]],[[12.8228,66.2984],[12.892,66.2819],[12.8411,66.2225],[12.7444,66.2274],[12.7044,66.252],[12.8228,66.2984]],[[12.8041,66.162],[12.6988,66.1418],[12.689,66.1872],[12.8041,66.162]],[[12.6506,66.1367],[12.6524,66.0946],[12.5532,66.0595],[12.3086,66.0138],[12.3943,66.0817],[12.4763,66.1118],[12.5471,66.167],[12.6313,66.1894],[12.6506,66.1367]],[[12.8687,66.0302],[12.9172,66.0032],[12.6871,65.9597],[12.5432,65.9005],[12.4138,65.8897],[12.4631,65.9601],[12.6038,66.0205],[12.7262,66.0135],[12.8687,66.0302]],[[12.4497,65.7266],[12.3563,65.6535],[12.3035,65.662],[12.4497,65.7266]],[[12.0114,65.648],[11.9092,65.5896],[11.8506,65.5967],[11.7841,65.6408],[11.8112,65.6865],[11.916,65.7149],[12.0063,65.7084],[12.0114,65.648]],[[11.7868,65.1246],[11.7832,65.1073],[11.6059,65.0422],[11.5177,65.0767],[11.634,65.1192],[11.7868,65.1246]],[[11.042,64.9902],[11.0898,64.9612],[11.0515,64.9333],[10.9257,64.9039],[10.9061,64.884],[10.7332,64.8364],[10.6901,64.8865],[10.8079,64.9283],[10.8699,64.9298],[11.042,64.9902]],[[11.309,64.9084],[11.261,64.8687],[11.1505,64.8261],[10.9245,64.8981],[11.0722,64.9324],[11.124,64.963],[11.2235,64.9443],[11.309,64.9084]],[[10.7665,64.9706],[10.7848,64.9914],[10.8981,65.0006],[10.9606,64.9696],[10.844,64.9563],[10.7665,64.9706]],[[11.3114,64.6927],[11.3595,64.6758],[11.3467,64.6194],[11.3061,64.6035],[11.157,64.6608],[11.3114,64.6927]],[[11.2703,64.5943],[11.2722,64.5409],[11.3759,64.5508],[11.4541,64.5212],[11.3972,64.4848],[11.3071,64.4827],[11.2543,64.5168],[11.178,64.5117],[11.112,64.5849],[11.0334,64.5983],[11.0354,64.634],[11.0979,64.6542],[11.1579,64.6197],[11.2703,64.5943]],[[8.8371,63.7526],[8.8326,63.7004],[8.5068,63.6636],[8.4715,63.6744],[8.3121,63.6621],[8.3038,63.6875],[8.489,63.7083],[8.5755,63.7086],[8.7514,63.8086],[8.8172,63.8001],[8.8371,63.7526]],[[9.1554,63.6322],[9.0188,63.6154],[9.0579,63.6614],[9.1554,63.6322]],[[8.9921,63.6097],[9.0933,63.6021],[9.1967,63.5576],[9.111,63.5138],[8.8109,63.4847],[8.6125,63.4578],[8.5308,63.4272],[8.3889,63.427],[8.3121,63.4452],[8.2995,63.4864],[8.4099,63.5457],[8.509,63.5614],[8.5569,63.5981],[8.7156,63.6507],[8.8649,63.661],[8.9921,63.6097]],[[8.1652,63.4247],[8.2144,63.3734],[8.1347,63.3321],[8.0089,63.3043],[7.9611,63.3316],[7.8643,63.3271],[7.8116,63.3632],[7.7886,63.4138],[7.964,63.4681],[8.1324,63.4563],[8.1652,63.4247]],[[8.5695,63.3912],[8.6461,63.3823],[8.6914,63.3422],[8.5618,63.315],[8.4955,63.3509],[8.5695,63.3912]],[[8.4487,63.2845],[8.5482,63.2242],[8.5703,63.1767],[8.477,63.158],[8.3588,63.1614],[8.2612,63.2184],[8.3139,63.258],[8.4487,63.2845]],[[8.2362,63.1581],[8.1605,63.2132],[8.2152,63.2278],[8.3085,63.1868],[8.2362,63.1581]],[[8.1865,63.1606],[8.0861,63.1444],[7.9564,63.1449],[7.9162,63.1794],[8.1044,63.2361],[8.1384,63.2326],[8.1865,63.1606]],[[7.8569,63.1355],[7.9023,63.1001],[7.8841,63.0576],[7.8082,63.0226],[7.7006,63.0352],[7.7109,63.0813],[7.8001,63.103],[7.8569,63.1355]],[[7.7166,63.01],[7.7146,62.9957],[7.5317,62.9401],[7.3547,62.984],[7.4304,63.0208],[7.415,63.0492],[7.4907,63.0701],[7.5438,63.0444],[7.628,63.0638],[7.7166,63.01]],[[6.9456,62.8593],[6.9177,62.7747],[6.7901,62.8071],[6.9456,62.8593]],[[6.9211,62.7505],[6.94,62.7103],[6.7025,62.6655],[6.6595,62.6873],[6.772,62.7347],[6.9211,62.7505]],[[6.2028,62.4537],[6.2731,62.4429],[6.3132,62.4064],[6.1729,62.3952],[6.0788,62.414],[6.0647,62.4406],[6.2028,62.4537]],[[6.001,62.4237],[6.0361,62.3687],[6.1129,62.3508],[5.9556,62.2902],[5.9158,62.2545],[5.7791,62.3322],[5.8459,62.4074],[6.001,62.4237]],[[5.7818,62.2503],[5.7631,62.2049],[5.599,62.1898],[5.5254,62.2262],[5.5637,62.2965],[5.6403,62.3025],[5.8016,62.2849],[5.7818,62.2503]],[[5.7388,62.3685],[5.7204,62.322],[5.6032,62.3409],[5.7388,62.3685]],[[5.0653,61.9669],[4.9819,62.0107],[5.1557,61.992],[5.0653,61.9669]],[[5.1013,61.8804],[5.2556,61.864],[5.2561,61.8371],[5.1532,61.8311],[4.9957,61.7828],[4.9293,61.7837],[4.9,61.8376],[4.8284,61.8631],[4.9497,61.9106],[5.1013,61.8804]],[[4.9899,61.3808],[5.0304,61.3276],[4.9749,61.3221],[4.8754,61.3485],[4.931,61.3821],[4.9899,61.3808]],[[4.8141,61.0985],[4.8564,61.1897],[4.8997,61.2174],[4.9994,61.2002],[5.0242,61.1226],[4.9514,61.08],[4.9043,61.0991],[4.8434,61.045],[4.7255,61.0828],[4.8141,61.0985]],[[16.1743,68.0604],[16.2744,68.0957],[16.3096,68.0413],[16.1743,68.0604]]]},"properties":{"name":"Norwegian Sea","id":"6","longitude":4.56651077422,"latitude":68.2156500845,"min_x":-13.50065481697,"min_y":60.86081802843,"max_x":25.78865038513,"max_y":76.56454739268,"area":1437096,"mrgid":2353},"id":"iho.99"},
{"type":"Feature","geometry":{"type":"Polygon","coordinates":[[[5.2032,60.8321],[5.0623,60.8445],[5.0042,60.966],[5.0338,61.0001],[5.0125,61],[4.9233,61],[4.7333,61],[4.674,61],[4.6707,61],[4.6698,61],[4.6553,61],[4.655,61],[4.6006,61],[4.5951,61],[4.5892,61],[4.5877,61],[4.5827,61],[4.5799,61],[4,61],[4,55],[8.3601,55],[8.6508,55],[8.6341,55.0316],[8.6482,55.0898],[8.6856,55.1444],[8.5706,55.1506],[8.5638,55.0845],[8.5242,55.0634],[8.4643,55.0953],[8.5008,55.2033],[8.5937,55.1868],[8.5633,55.1518],[8.6834,55.1637],[8.6548,55.2594],[8.6702,55.3319],[8.6205,55.4265],[8.5438,55.4556],[8.4354,55.4662],[8.293,55.5663],[8.2369,55.5675],[8.2878,55.4786],[8.1907,55.5295],[8.0738,55.5585],[8.1511,55.6908],[8.1754,55.7606],[8.1436,55.942],[8.0967,56.0589],[8.1294,56.2618],[8.1141,56.3727],[8.125,56.4727],[8.1149,56.5247],[8.1855,56.6334],[8.2325,56.6235],[8.299,56.5665],[8.387,56.5788],[8.5182,56.5412],[8.5765,56.5535],[8.5986,56.4925],[8.6484,56.4669],[8.7323,56.4785],[8.7334,56.5312],[8.7627,56.5525],[8.702,56.585],[8.8781,56.7633],[8.9646,56.8018],[9.068,56.8024],[9.1112,56.7863],[9.1319,56.7402],[9.1767,56.709],[9.098,56.6681],[9.0551,56.6276],[9.089,56.5914],[9.1498,56.6361],[9.242,56.6284],[9.2877,56.6017],[9.326,56.6539],[9.2786,56.6986],[9.162,56.6722],[9.2418,56.7365],[9.1846,56.7671],[9.1743,56.8104],[9.2099,56.8662],[9.1651,56.8865],[9.1787,56.9187],[9.2729,56.9713],[9.1307,57.0394],[8.8897,56.9911],[8.7582,56.9453],[8.675,56.9526],[8.6256,56.8883],[8.632,56.8638],[8.574,56.8183],[8.4692,56.7809],[8.4997,56.7544],[8.484,56.7165],[8.5128,56.6803],[8.582,56.6753],[8.5905,56.6016],[8.515,56.5888],[8.4947,56.6245],[8.4235,56.6654],[8.3555,56.6768],[8.2993,56.7574],[8.2302,56.7925],[8.2677,56.8545],[8.366,56.9594],[8.4725,57.042],[8.5454,57.0758],[8.59,57.1222],[8.2124,57.3307],[7.6081,57.6643],[6.9875,58.0057],[6.9746,58.0462],[6.9205,58.0709],[6.7015,58.0659],[6.56,58.1088],[6.7082,58.2247],[6.3861,58.2723],[6.3299,58.3083],[6.241,58.3223],[6.0517,58.3742],[5.9913,58.4195],[5.8911,58.422],[5.891,58.4546],[5.7836,58.4957],[5.7518,58.5347],[5.6957,58.5364],[5.5505,58.6575],[5.4938,58.7553],[5.5409,58.7861],[5.5908,58.9276],[5.5647,59.0165],[5.5848,59.0368],[5.6863,58.9977],[5.7786,58.9275],[5.8488,58.9308],[5.8993,58.965],[5.9784,58.9375],[6.001,58.897],[6.1024,58.8941],[6.0982,58.9384],[6.0266,58.9348],[5.9982,58.9739],[6.0291,59.0214],[5.9501,59.0222],[5.8893,59.0825],[5.9539,59.1154],[6.0289,59.1147],[6.0322,59.1598],[6.0869,59.2106],[6.1796,59.2384],[6.1165,59.2904],[6.1346,59.3142],[5.9416,59.3615],[5.9142,59.45],[6.0128,59.4455],[6.0065,59.4784],[5.9118,59.4735],[5.8428,59.4366],[5.8965,59.3813],[5.8826,59.341],[5.7273,59.3145],[5.6396,59.2797],[5.6541,59.3632],[5.5583,59.275],[5.4248,59.2868],[5.3531,59.2683],[5.2973,59.3862],[5.2374,59.4325],[5.24,59.5462],[5.2865,59.5646],[5.3275,59.6257],[5.4089,59.6515],[5.4615,59.7041],[5.5395,59.6823],[5.6068,59.6851],[5.7927,59.643],[5.7837,59.6836],[5.856,59.7253],[6.0197,59.7526],[5.9556,59.7898],[5.8807,59.7688],[5.7814,59.8302],[5.6907,59.8539],[5.7746,59.8838],[5.7822,59.9248],[5.9182,59.9559],[5.9811,59.9942],[6.0441,60.0699],[6.2019,60.1144],[6.1291,60.1426],[6.0823,60.1922],[6.1219,60.2196],[6.1938,60.226],[6.2438,60.3017],[6.3207,60.3155],[6.353,60.3705],[6.4959,60.3837],[6.5852,60.4358],[6.5268,60.4569],[6.4055,60.4281],[6.3417,60.3999],[6.2046,60.3696],[6.177,60.3208],[6.1953,60.2795],[6.1554,60.2435],[6.0142,60.2677],[5.964,60.2127],[5.9134,60.1108],[5.9209,60.0419],[5.8515,59.9901],[5.7786,59.9803],[5.7093,60.0386],[5.7381,60.0884],[5.723,60.1852],[5.6496,60.1505],[5.577,60.1571],[5.6658,60.2305],[5.5761,60.2458],[5.5221,60.1921],[5.4033,60.172],[5.2688,60.2034],[5.2702,60.2418],[5.2091,60.2748],[5.2091,60.3284],[5.1697,60.3731],[5.2416,60.3998],[5.2791,60.4347],[5.2611,60.5057],[5.2987,60.5271],[5.37,60.5091],[5.5062,60.426],[5.621,60.4292],[5.6392,60.4557],[5.7368,60.4573],[5.7186,60.5375],[5.741,60.6513],[5.734,60.6882],[5.7578,60.7009],[5.6735,60.703],[5.6646,60.7151],[5.6213,60.7162],[5.5449,60.626],[5.4345,60.5957],[5.3655,60.5917],[5.2956,60.5429],[5.1419,60.6069],[5.0099,60.6375],[4.8894,60.6942],[4.8783,60.7357],[5.0051,60.7247],[5.0541,60.7336],[4.9439,60.7954],[5.0385,60.8163],[5.1003,60.7817],[5.1935,60.7551],[5.2691,60.761],[5.3009,60.8114],[5.2032,60.8321]],[[4.9114,60.8191],[4.9049,60.7683],[4.8207,60.7883],[4.9114,60.8191]],[[4.9311,60.8554],[4.7915,60.9078],[4.8401,60.9475],[4.9219,60.8845],[4.9311,60.8554]],[[4.7912,60.676],[4.8536,60.6269],[4.8684,60.5644],[4.8038,60.562],[4.7912,60.676]],[[4.9527,60.6172],[5.0424,60.6154],[5.1488,60.5924],[5.2368,60.5506],[5.2271,60.5042],[5.0528,60.5398],[4.9527,60.6172]],[[5.3444,60.5303],[5.4688,60.5788],[5.5127,60.6126],[5.5828,60.6202],[5.6277,60.6779],[5.625,60.6998],[5.6548,60.7078],[5.6762,60.6905],[5.6987,60.7006],[5.7347,60.6699],[5.697,60.5343],[5.7122,60.4815],[5.6661,60.4778],[5.6098,60.4391],[5.5327,60.4284],[5.3444,60.5303]],[[5.1719,60.5051],[5.2368,60.461],[5.2506,60.4162],[5.0858,60.4626],[5.0368,60.5289],[5.1719,60.5051]],[[5.1361,60.3965],[5.1649,60.3636],[5.1183,60.266],[5.1555,60.1876],[5.0294,60.1628],[4.9563,60.2555],[4.9514,60.3043],[4.9865,60.3266],[4.9565,60.4188],[5.0004,60.4209],[5.0594,60.3763],[5.1361,60.3965]],[[5.2176,60.1248],[5.3009,60.0674],[5.2694,59.9867],[5.1729,60.0462],[5.2176,60.1248]],[[5.5522,60.07],[5.6981,60.0734],[5.6943,59.9891],[5.6215,59.9402],[5.6715,59.905],[5.5358,59.8938],[5.4698,59.9432],[5.3828,59.9787],[5.4623,60.0234],[5.4842,60.0518],[5.5522,60.07]],[[5.4351,60.0675],[5.4437,60.0201],[5.3663,60.0044],[5.3393,60.0268],[5.361,60.0847],[5.4351,60.0675]],[[5.3484,59.7278],[5.2734,59.7291],[5.2271,59.646],[5.2491,59.6011],[5.1757,59.5817],[5.1513,59.6747],[5.165,59.7141],[5.2181,59.7553],[5.1044,59.7621],[5.1352,59.823],[5.0703,59.8533],[5.1112,59.8939],[5.2582,59.8443],[5.3484,59.7551],[5.3484,59.7278]],[[5.2889,59.9574],[5.3591,59.973],[5.4533,59.9375],[5.5253,59.8837],[5.54,59.7864],[5.4893,59.7499],[5.403,59.7504],[5.3486,59.7775],[5.2691,59.9128],[5.2889,59.9574]],[[5.1546,59.9694],[5.1005,59.9976],[5.1953,60.0167],[5.2233,59.9877],[5.1546,59.9694]],[[5.2567,59.4045],[5.296,59.3731],[5.3306,59.2711],[5.3129,59.1643],[5.2467,59.1373],[5.1881,59.1522],[5.1688,59.2277],[5.2143,59.3065],[5.1864,59.3548],[5.2567,59.4045]],[[5.9757,59.2924],[6.0557,59.297],[6.1034,59.2716],[6.0634,59.2415],[5.9322,59.226],[5.9231,59.273],[5.9757,59.2924]],[[6.0957,59.2338],[6.0444,59.1841],[5.9992,59.217],[6.0957,59.2338]],[[5.7801,59.1021],[5.7562,59.0675],[5.6006,59.1191],[5.657,59.1291],[5.7801,59.1021]],[[5.7779,59.1459],[5.8248,59.2005],[5.8798,59.1664],[5.8353,59.1387],[5.7779,59.1459]],[[5.3915,59.1588],[5.3872,59.2458],[5.4565,59.2245],[5.4745,59.1891],[5.3915,59.1588]],[[8.3748,55.4694],[8.4089,55.4648],[8.4655,55.4114],[8.4365,55.3475],[8.329,55.4454],[8.3748,55.4694]],[[8.453,55.225],[8.5041,55.2753],[8.5402,55.2518],[8.453,55.225]],[[8.6885,56.6772],[8.541,56.7399],[8.5752,56.7948],[8.6684,56.8902],[8.8188,56.9044],[8.8669,56.9505],[8.9219,56.9172],[8.8975,56.8768],[8.8269,56.8651],[8.8801,56.794],[8.8302,56.7389],[8.7295,56.68],[8.6885,56.6772]],[[5.9727,60.0682],[5.9297,60.1342],[5.9902,60.1652],[6.0611,60.1493],[6.035,60.1044],[5.9727,60.0682]]]},"properties":{"name":"North Sea","id":"4","longitude":2.73786023593,"latitude":56.4239952035,"min_x":-4.44537067412,"min_y":50.99536466555,"max_x":12.00594234456,"max_y":61.01702284843,"area":524493,"mrgid":2350},"id":"iho.88"},
{"type":"Feature","geometry":{"type":"Polygon","coordinates":[[[16.6899,76.5604],[16.4617,76.6069],[16.3039,76.5967],[16.3016,76.6736],[16.2221,76.7134],[16.0377,76.7394],[15.6023,76.8637],[15.5398,76.9066],[15.9122,76.9458],[16.0822,76.9767],[16.2698,76.9684],[16.5389,76.9739],[16.6652,77.036],[16.595,77.0625],[16.3586,77.0425],[16.2492,77.0186],[16.0809,77.021],[16.06,77.0695],[15.9108,77.0547],[15.896,77.0177],[15.7005,77.0004],[15.4005,76.9982],[15.1897,77.0229],[15.0304,77.11],[15.0774,77.1292],[14.7939,77.1727],[14.3978,77.191],[14.1937,77.2844],[14.0708,77.3881],[13.9414,77.4197],[14.0732,77.4518],[13.8732,77.4884],[13.9309,77.5403],[14.3266,77.5792],[14.4801,77.5724],[14.6159,77.4947],[14.7704,77.501],[14.7608,77.5405],[14.9893,77.5667],[15.4598,77.5207],[15.6642,77.5329],[15.8246,77.5217],[16.271,77.3907],[16.3797,77.476],[16.1275,77.4896],[15.8816,77.5619],[15.2194,77.6071],[14.9894,77.6054],[14.7356,77.6457],[14.8396,77.6762],[15.0422,77.6864],[15.4006,77.7347],[15.7103,77.7419],[16.7591,77.8128],[16.6463,77.8566],[15.9893,77.8412],[15.8963,77.8261],[15.3256,77.8654],[15.0784,77.7986],[14.4345,77.7524],[14.0487,77.7646],[13.9709,77.7404],[13.7285,77.7377],[13.8199,77.8029],[13.6492,77.8361],[13.6096,77.9487],[13.6421,77.9855],[13.5763,78.0481],[13.8274,78.0971],[13.9619,78.1026],[14.1173,78.0514],[14.2036,77.9858],[14.3003,77.986],[14.1863,78.0988],[14.484,78.1],[14.7871,78.1187],[14.9813,78.1426],[15.3407,78.2393],[15.7189,78.2437],[15.562,78.2853],[15.8401,78.3508],[16.1373,78.3627],[16.4602,78.3346],[16.8008,78.3369],[17.0811,78.3912],[17.3769,78.4222],[17.3586,78.4556],[17.1375,78.4394],[16.7995,78.3885],[16.6119,78.4122],[16.5499,78.4476],[16.3797,78.4622],[16.5417,78.5775],[16.7352,78.6399],[16.5031,78.7094],[16.3942,78.6104],[16.2477,78.5498],[15.9845,78.4892],[15.481,78.4583],[15.2678,78.5284],[15.2565,78.5993],[15.378,78.6133],[15.4811,78.6869],[15.4303,78.7534],[15.4443,78.8271],[15.2544,78.8156],[15.1604,78.7314],[15.1857,78.6778],[14.9731,78.6232],[14.8643,78.6642],[14.8143,78.7282],[14.6468,78.732],[14.5182,78.6853],[14.5288,78.6029],[14.5809,78.5476],[14.3411,78.5581],[14.3562,78.525],[14.227,78.4732],[14.4506,78.4751],[14.6362,78.4536],[14.7819,78.3904],[14.626,78.3781],[14.3839,78.3888],[14.152,78.4261],[14.1032,78.3669],[14.3108,78.3225],[14.2691,78.2961],[13.9645,78.2803],[13.9139,78.2318],[13.6563,78.2003],[13.1061,78.2313],[12.9002,78.2518],[12.9552,78.2981],[12.8712,78.3485],[12.5774,78.3979],[12.3651,78.486],[12.5446,78.5059],[12.8222,78.5003],[13.1914,78.5233],[13.2949,78.5659],[13.1448,78.5797],[13.0358,78.5395],[12.894,78.53],[12.573,78.5439],[12.4372,78.5977],[12.2117,78.5928],[12.0251,78.6116],[11.771,78.7067],[11.6225,78.7361],[11.706,78.8029],[11.8505,78.8518],[11.6213,78.8693],[11.3345,78.9671],[11.6772,78.9657],[12.2472,78.8935],[12.5348,78.8994],[12.453,78.9602],[12.5324,78.9879],[12.1411,79.0254],[11.9623,79.0214],[11.6791,79.0686],[11.9456,79.1227],[11.8274,79.1394],[11.8917,79.1874],[12.0673,79.2499],[12.059,79.2832],[11.8332,79.2773],[11.6975,79.3056],[11.807,79.3376],[11.5635,79.3484],[11.5954,79.267],[11.6905,79.2098],[11.6639,79.1596],[11.4267,79.1111],[11.1915,79.1171],[11.1193,79.2508],[10.8896,79.3299],[10.8724,79.4008],[10.9921,79.4734],[10.7201,79.515],[10.7675,79.5658],[10.9768,79.6407],[11.292,79.6331],[11.1688,79.7153],[11.2056,79.7819],[11.387,79.7804],[11.612,79.8279],[11.8259,79.8419],[12.0198,79.7179],[12.136,79.674],[12.3272,79.675],[12.29,79.7228],[12.1214,79.794],[12.2531,79.8349],[12.5563,79.7625],[12.7798,79.7707],[13.0642,79.8232],[13.2556,79.8289],[13.755,79.8789],[13.8505,79.8656],[13.9615,79.8039],[13.8651,79.7387],[13.6714,79.6977],[13.3901,79.6948],[13.2468,79.7084],[13.0075,79.6929],[12.9973,79.6698],[12.6572,79.5949],[12.4265,79.5692],[12.6042,79.5328],[12.7196,79.5646],[13.0548,79.5905],[13.4024,79.5802],[13.4603,79.5553],[13.2702,79.5037],[13.3016,79.4611],[13.5586,79.4843],[13.8825,79.372],[13.8437,79.2826],[14.0355,79.2984],[14.1193,79.3298],[14.066,79.3814],[13.9611,79.3938],[14.0141,79.4411],[13.8266,79.535],[14.0679,79.6096],[14.3785,79.7343],[14.488,79.7981],[14.7192,79.7928],[14.9627,79.731],[15.0946,79.6415],[15.2437,79.6004],[15.2193,79.528],[15.3506,79.5021],[15.4293,79.4],[15.3999,79.362],[15.6438,79.2556],[15.7607,79.2289],[15.6143,79.1622],[15.8123,79.1664],[15.9574,79.1196],[16.0747,79.0169],[16.3139,78.9143],[16.377,78.9643],[16.3636,79.0153],[16.236,79.1117],[16.1669,79.1271],[16.1175,79.2175],[15.9411,79.2942],[15.9346,79.3741],[15.8097,79.6359],[15.7099,79.7008],[15.6259,79.7987],[15.7154,79.8789],[16.0838,79.8626],[15.9576,79.9641],[16.0596,80.0224],[16.2631,80.0646],[15.3695,80.13],[13.9398,80.2346],[12.5101,80.3392],[11.0804,80.4438],[9.6506,80.5484],[8.2209,80.653],[6.7912,80.7576],[5.3615,80.8622],[4,80.9618],[4,73.7848],[4.0801,73.8023],[4.1666,73.8212],[4.5033,73.8948],[4.6333,73.9233],[4.8276,73.9658],[4.9766,73.9984],[5.0887,74.0229],[5.3771,74.086],[5.5071,74.1144],[5.6523,74.1462],[5.7374,74.1648],[5.8434,74.188],[6.1606,74.2574],[6.3121,74.2905],[6.5142,74.3347],[6.5961,74.3526],[6.746,74.3854],[7.056,74.4532],[7.1617,74.4763],[7.3218,74.5113],[7.4111,74.5309],[7.513,74.5532],[7.8307,74.6226],[7.9737,74.6539],[8.1601,74.6947],[8.2004,74.7035],[8.441,74.7561],[8.6369,74.799],[8.836,74.8425],[8.9205,74.861],[9.1135,74.9032],[9.1335,74.9076],[9.2363,74.9301],[9.3352,74.9517],[9.4753,74.9824],[9.6709,75.0251],[9.7343,75.039],[9.7385,75.0399],[9.8632,75.0672],[9.9921,75.0954],[10.1345,75.1265],[10.3876,75.1819],[10.639,75.2369],[10.7652,75.2645],[10.7683,75.2652],[10.8292,75.2785],[10.8976,75.2934],[10.9797,75.3114],[11.1201,75.3421],[11.2038,75.3604],[11.3532,75.3931],[11.5342,75.4327],[11.5506,75.4363],[11.642,75.4563],[11.7895,75.4885],[11.9796,75.5301],[11.9813,75.5305],[12.066,75.549],[12.1124,75.5592],[12.2136,75.5813],[12.4393,75.6307],[12.5377,75.6522],[12.543,75.6533],[12.6533,75.6775],[12.7818,75.7056],[12.8687,75.7246],[12.9881,75.7507],[13.0769,75.7701],[13.2124,75.7998],[13.3035,75.8197],[13.5353,75.8704],[13.5662,75.8771],[13.6485,75.8952],[13.7289,75.9127],[13.9659,75.9646],[13.9921,75.9703],[14.0971,75.9933],[14.3246,76.043],[14.42,76.0639],[14.5264,76.0872],[14.6192,76.1075],[14.7476,76.1355],[14.8506,76.1581],[14.966,76.1833],[15.0614,76.2042],[15.1717,76.2283],[15.1735,76.2287],[15.2501,76.2455],[15.2811,76.2523],[15.3988,76.278],[15.52,76.3045],[15.6955,76.3429],[15.8429,76.3751],[16.0956,76.4304],[16.2735,76.4693],[16.4888,76.5164],[16.5013,76.5191],[16.6899,76.5604]],[[10.825,79.7222],[11.0839,79.6731],[10.7823,79.6466],[10.7198,79.7088],[10.825,79.7222]],[[10.4593,78.8928],[10.8399,78.8702],[11.0046,78.8249],[10.8956,78.8034],[10.9636,78.7676],[11.1213,78.7616],[11.1873,78.7275],[11.0252,78.6848],[11.1042,78.6108],[11.3013,78.5586],[11.4359,78.5483],[11.4636,78.5102],[11.6709,78.4501],[11.864,78.4309],[11.8386,78.4042],[12.0618,78.2863],[12.1437,78.2069],[11.8591,78.2311],[11.8025,78.302],[11.6323,78.3436],[11.5654,78.3906],[11.3258,78.4516],[11.0574,78.4546],[10.9849,78.552],[10.6162,78.7437],[10.4934,78.7847],[10.5382,78.8554],[10.4593,78.8928]]]},"properties":{"name":"Greenland Sea","id":"5","longitude":-8.303164223,"latitude":74.2502716466,"min_x":-35.986789942,"min_y":65.00696182253,"max_x":17.48220300686,"max_y":82.78065447116,"area":1186456,"mrgid":2356},"id":"iho.87"}
]}